EQ_ID,p_picks,pgv_time_window,predict,answer,latitude,longitude,elevation,station_name,year,month,day,hour,minute,second,intensity,epdis (km),pga_z,pga_ns,pga_ew,record_time (sec),file_name,instrument_code,start_time,sta_angle,quality_control,p_pick_sec,p_arrival_abs_time,pga,pga_time,pgv,pgv_time_file,Vs30,depth,magnitude,nsta,nearest_sta_dist (km),event_lat,event_lon
24757.0,1614.0,2948.0,-2.2740645,-2.3185500648089747,22.5321,120.9667,24.0,TTN037,2016,1,19,2,13,26.83,3,45.38,9.66,11.44,8.86,240.0,N2701900.SMT, SMTA,20160100000000.0,232,y,95.43499756,2016-01-19 02:13:35.420,-0.9364505503276528,20517.0,-2.3554345705078497,20536.0,738.19,29.72,5.8,99,12.2,22.787,121.3125
24757.0,1630.0,3297.0,-2.127574,-2.1895244569522254,23.1492,121.2072,311.0,TTN040,2016,1,19,2,13,26.83,3,41.53,17.76,13.74,19.5,57.0,09601900.CVA, CVA ,20160100000000.0,345,y,18.73500061,2016-01-19 02:13:35.503,-0.7761402261756052,5334.0,-2.181923121839209,5397.0,726.57,29.72,5.8,99,12.2,22.787,121.3125
24757.0,1673.0,4434.0,-1.6043843,-1.7745065500233923,23.1727,121.2483,244.0,HWA004,2016,1,19,2,13,26.83,4,43.21,16.0,35.62,28.74,71.0,11501900.CVA, CVA ,20160100000000.0,351,y,17.45499992,2016-01-19 02:13:35.716,-0.4300199644385402,5520.0,-1.8021555113387755,6235.0,319.59,29.72,5.8,99,12.2,22.787,121.3125
24757.0,1745.0,4298.0,-2.0962074,-2.205852713710428,23.2199,121.2645,207.0,HWA042,2016,1,19,2,13,26.83,3,48.18,11.74,9.78,14.94,204.6,14401900.MNS, NANO,20160100000000.0,354,y,58.81000137,2016-01-19 02:13:36.076,-0.8935044447442527,14281.0,-2.2401116361804294,14298.0,547.99,29.72,5.8,99,12.2,22.787,121.3125
24757.0,1784.0,3318.0,-2.2453558,-2.471727796229016,22.462,120.9409,17.0,TTN038,2016,1,19,2,13,26.83,3,52.48,7.26,8.6,7.78,240.0,M9901900.SMT, SMTA,20160100000000.0,227,y,96.26000214,2016-01-19 02:13:36.272,-1.0999669705977757,20969.0,-2.403062270964217,20656.0,402.23,29.72,5.8,99,12.2,22.787,121.3125
24757.0,1800.0,3200.0,-2.2569525,-2.393762271573712,23.1871,121.0251,1058.0,TTN051,2016,1,19,2,13,26.83,3,53.21,8.6,11.46,11.66,120.0,F0001900.SMT, SMTA,20160100000000.0,326,y,36.41999817,2016-01-19 02:13:36.351,-1.034669151886147,9227.0,-2.402505709218405,8666.0,902.74,29.72,5.8,99,12.2,22.787,121.3125
24757.0,1849.0,4309.0,-1.91201,-1.9478161696827003,23.2648,121.3026,175.0,HWA041,2016,1,19,2,13,26.83,3,52.93,11.78,10.46,10.46,211.0,32901900.MNS, NANO,20160100000000.0,359,y,58.81000137,2016-01-19 02:13:36.599,-0.8808224499992726,14446.0,-2.0424703990054995,14238.0,481.85,29.72,5.8,99,12.2,22.787,121.3125
24757.0,1885.0,3470.0,-2.2003198,-2.0326779109795567,23.2447,121.4141,31.0,TTN032,2016,1,19,2,13,26.83,4,51.74,12.36,27.66,30.62,240.0,M3301900.SMT, SMTA,20160100000000.0,12,y,96.5,2016-01-19 02:13:36.778,-0.726918981342208,21308.0,-2.059557497024323,20889.0,736.11,29.72,5.8,99,12.2,22.787,121.3125
24757.0,1967.0,5008.0,-1.9752705,-2.205645132024737,23.3207,121.34,152.0,HWA055,2016,1,19,2,13,26.83,2,59.17,4.36,5.6,6.28,51.0,09501900.CVA, CVA ,20160100000000.0,3,y,8.255000114,2016-01-19 02:13:37.193,-1.1575714062251554,4677.0,-2.219847565767981,3929.0,524.43,29.72,5.8,99,12.2,22.787,121.3125
24757.0,2093.0,4911.0,-2.5741048,-2.54306357011926,22.3559,120.9036,11.0,TTN016,2016,1,19,2,13,26.83,3,63.63,4.16,9.42,6.24,120.0,F1201900.SMT, SMTA,20160100000000.0,221,y,37.74499893,2016-01-19 02:13:37.819,-1.156669303471571,10362.0,-2.503245950582639,10355.0,842.82,29.72,5.8,99,12.2,22.787,121.3125
24757.0,2094.0,4235.0,-2.117992,-1.958445339477028,23.3163,121.4512,63.0,TTN001,2016,1,19,2,13,26.83,4,60.32,16.14,30.92,25.98,120.0,M3701900.SMT, SMTA,20160100000000.0,14,y,37.69499969,2016-01-19 02:13:37.820,-0.4985695385736272,9645.0,-1.9734498884122151,9662.0,484.46,29.72,5.8,99,12.2,22.787,121.3125
24757.0,2110.0,5971.0,-2.196786,-2.049889921824775,23.383,121.3593,141.0,HWA039,2016,1,19,2,13,26.83,2,66.18,3.94,6.76,4.5,200.1,36301900.MNS, NANO,20160100000000.0,4,y,58.91999817,2016-01-19 02:13:37.900,-1.159427830870963,15584.0,-2.044683523926356,15633.0,504.91,29.72,5.8,99,12.2,22.787,121.3125
24757.0,2133.0,6189.0,-2.3829327,-2.3988268533741826,22.382,120.8564,457.0,TTN053,2016,1,19,2,13,26.83,2,64.89,3.94,5.0,4.5,120.0,E9001900.SMT, SMTA,20160100000000.0,226,y,37.97999954,2016-01-19 02:13:38.017,-1.2527238101568017,10474.0,-2.439425915676715,11637.0,627.81,29.72,5.8,99,12.2,22.787,121.3125
24757.0,2220.0,4472.0,-2.10357,-1.7155466751446005,23.3563,121.4673,48.0,TTN031,2016,1,19,2,13,26.83,4,65.01,24.04,42.36,47.86,65.0,11901900.CVA, CVA ,20160100000000.0,14,y,18.75,2016-01-19 02:13:38.452,-0.3553150132530401,5966.0,-1.7091255277511466,5985.0,512.69,29.72,5.8,99,12.2,22.787,121.3125
24757.0,2233.0,6327.0,-2.213382,-2.271979538351176,23.4305,121.3487,93.0,HWA054,2016,1,19,2,13,26.83,2,71.36,3.36,5.36,6.6,202.6,33601900.MNS, NANO,20160100000000.0,3,y,57.21500015,2016-01-19 02:13:38.520,-1.178570334710142,14600.0,-2.279741805398176,15521.0,521.6,29.72,5.8,99,12.2,22.787,121.3125
24757.0,2273.0,5551.0,-1.855966,-2.473922747286493,22.8858,120.6647,256.0,KAU069,2016,1,19,2,13,26.83,3,67.38,11.18,9.3,6.58,201.9,40501900.MNS, NANO,20160100000000.0,279,y,58.58000183,2016-01-19 02:13:38.719,-1.021556739929522,15344.0,-2.474001395511627,14978.0,512.65,29.72,5.8,99,12.2,22.787,121.3125
24757.0,2311.0,4738.0,-2.4320002,-2.555684899818853,22.7443,120.6401,148.0,KAU049,2016,1,19,2,13,26.83,2,69.21,5.36,6.78,6.1,120.0,D3001900.SMT, SMTA,20160100000000.0,266,y,38.90000153,2016-01-19 02:13:38.909,-1.186266820452501,10310.0,-2.594122844925491,10192.0,932.97,29.72,5.8,99,12.2,22.787,121.3125
24757.0,2319.0,4059.0,-2.3332891,-2.34989582975884,22.7068,120.6465,150.0,KAU078,2016,1,19,2,13,26.83,3,69.03,7.34,12.26,11.56,300.0,L6001900.SMT, SMTA,20160100000000.0,263,y,98.75,2016-01-19 02:13:38.946,-0.867890961743287,21454.0,-2.363459259370289,21473.0,553.05,29.72,5.8,99,12.2,22.787,121.3125
24757.0,2326.0,5801.0,-2.357525,-2.441778975659228,23.4588,121.3519,223.0,HWA038,2016,1,19,2,13,26.83,2,74.51,3.66,3.34,2.9,195.1,35801900.MNS, NANO,20160100000000.0,3,y,57.13000107,2016-01-19 02:13:38.984,-1.4444365450411754,14863.0,-2.4653111290420595,14886.0,661.52,29.72,5.8,99,12.2,22.787,121.3125
24757.0,2338.0,6009.0,-1.9763656,-1.8388894395074304,23.452,121.3936,97.0,HWA037,2016,1,19,2,13,26.83,3,74.11,11.06,15.5,12.04,217.6,38301900.MNS, NANO,20160100000000.0,6,y,60.15000153,2016-01-19 02:13:39.041,-0.7529660961595515,14542.0,-1.8675699234488368,15381.0,466.53,29.72,5.8,99,12.2,22.787,121.3125
24757.0,2364.0,4266.0,-1.9882468,-2.190353300670018,23.1607,120.7656,642.0,KAU050,2016,1,19,2,13,26.83,3,69.68,4.34,14.02,13.86,120.0,C4301900.SMT, SMTA,20160100000000.0,306,y,39.22499847,2016-01-19 02:13:39.172,-0.8690346052764771,9856.0,-2.2091738675573858,9730.0,650.81,29.72,5.8,99,12.2,22.787,121.3125
24757.0,2445.0,5846.0,-2.4538863,-2.571350711893466,23.5038,121.3299,249.0,HWA021,2016,1,19,2,13,26.83,2,79.4,2.78,4.44,7.48,120.0,E9501900.SMT, SMTA,20160100000000.0,1,y,39.46500015,2016-01-19 02:13:39.576,-1.2711609287584082,11312.0,-2.611179392534151,11280.0,545.91,29.72,5.8,99,12.2,22.787,121.3125
24757.0,2448.0,6915.0,-2.2005079,-2.1122007855906864,23.4977,121.3745,109.0,HWA036,2016,1,19,2,13,26.83,2,78.96,4.64,5.28,4.64,208.8,35401900.MNS, NANO,20160100000000.0,5,y,58.20999908,2016-01-19 02:13:39.590,-1.2454898263187495,16068.0,-2.112363657907117,16101.0,520.61,29.72,5.8,99,12.2,22.787,121.3125
24757.0,2468.0,5648.0,-2.135218,-2.6128359921476623,22.826,120.5992,86.0,KAU028,2016,1,19,2,13,26.83,2,73.35,3.46,4.08,4.38,195.8,17201900.MNS, NANO,20160100000000.0,273,y,58.34999847,2016-01-19 02:13:39.693,-1.385076757609069,12398.0,-2.6310206305989547,14836.0,547.8,29.72,5.8,99,12.2,22.787,121.3125
24757.0,2477.0,4363.0,-2.4844942,-2.3980129693814694,22.591,120.6325,89.0,KAU079,2016,1,19,2,13,26.83,3,73.15,4.22,9.76,5.96,120.0,30801900.SMT, SMTA,20160100000000.0,253,y,40.40000153,2016-01-19 02:13:39.739,-1.0217273718874509,9929.0,-2.4279220455026165,9950.0,593.77,29.72,5.8,99,12.2,22.787,121.3125
24757.0,2527.0,5906.0,-2.334115,-2.6473743030958765,22.6672,120.6014,59.0,KAU072,2016,1,19,2,13,26.83,2,74.24,6.16,3.16,3.96,240.0,L9201900.SMT, SMTA,20160100000000.0,260,y,99.80999756,2016-01-19 02:13:39.986,-1.2695911440231349,20490.0,-2.6158903628563475,23207.0,487.13,29.72,5.8,99,12.2,22.787,121.3125
24757.0,2547.0,6163.0,-2.1006985,-2.3613045694007555,22.754,120.5759,59.0,KAU029,2016,1,19,2,13,26.83,2,75.73,4.58,3.76,4.44,120.0,F0101900.SMT, SMTA,20160100000000.0,267,y,40.40000153,2016-01-19 02:13:40.086,-1.3546811633222968,11596.0,-2.3609552190979874,11681.0,351.91,29.72,5.8,99,12.2,22.787,121.3125
24757.0,2598.0,4970.0,-2.3229651,-2.341276309255601,23.475789,121.505533,23.0,HWA003,2016,1,19,2,13,26.83,3,78.8,3.74,10.26,8.04,46.0,16801900.CVA, CVA ,20160100000000.0,15,y,7.985000134,2016-01-19 02:13:40.345,-1.023351759320433,4131.0,-2.389493519431681,4863.0,1538.03,29.72,5.8,99,12.2,22.787,121.3125
24757.0,2649.0,5343.0,-2.1207516,-2.1194073796980826,22.0373,121.5581,309.0,TTN017,2016,1,19,2,13,26.83,3,86.78,6.18,18.16,20.76,120.0,F2301900.SMT, SMTA,20160100000000.0,163,y,40.58000183,2016-01-19 02:13:40.600,-0.6752894836437319,10611.0,-2.1077310284391304,10612.0,875.04,29.72,5.8,99,12.2,22.787,121.3125
24757.0,2708.0,6375.0,-2.201711,-2.075635927993915,22.573,120.572,23.0,KAU074,2016,1,19,2,13,26.83,3,79.69,3.96,8.32,7.64,300.0,N2001900.SMT, SMTA,20160100000000.0,253,y,101.3499985,2016-01-19 02:13:40.891,-1.0462050779960457,23717.0,-2.055680674628231,23771.0,224.89,29.72,5.8,99,12.2,22.787,121.3125
24757.0,2738.0,5997.0,-1.688494,-2.005801752520575,22.8998,120.5433,48.0,KAU020,2016,1,19,2,13,26.83,3,79.92,19.64,11.22,8.08,120.0,F3301900.SMT, SMTA,20160100000000.0,279,y,41.86000061,2016-01-19 02:13:41.041,-0.6844758200432259,8519.0,-2.0253071727372927,11616.0,344.21,29.72,5.8,99,12.2,22.787,121.3125
24757.0,2739.0,5575.0,-2.330713,-2.419230584336177,23.2765,120.7206,720.0,KAU054,2016,1,19,2,13,26.83,2,81.36,3.46,5.48,5.46,120.0,F3601900.SMT, SMTA,20160100000000.0,312,y,41.20000076,2016-01-19 02:13:41.047,-1.172935437788739,11065.0,-2.372864602968913,11060.0,502.77,29.72,5.8,99,12.2,22.787,121.3125
24757.0,2834.0,6184.0,-2.0218954,-2.370034473320701,22.976,120.5443,129.0,KAU068,2016,1,19,2,13,26.83,2,81.54,4.66,6.2,7.0,240.0,L9601900.SMT, SMTA,20160100000000.0,285,y,102.2850037,2016-01-19 02:13:41.525,-1.154593204728096,23770.0,-2.388385965413033,24179.0,813.23,29.72,5.8,99,12.2,22.787,121.3125
24757.0,2865.0,5185.0,-2.0854027,-2.325932032012353,23.0804,120.5908,282.0,KAU047,2016,1,19,2,13,26.83,2,80.82,4.16,4.68,4.58,60.0,C4401900.SMT, SMTA,20160100000000.0,294,y,40.97000122,2016-01-19 02:13:41.678,-1.21838100698489,8388.0,-2.3287209547361885,10498.0,462.88,29.72,5.8,99,12.2,22.787,121.3125
24757.0,2889.0,6091.0,-2.186866,-2.4268470720106103,23.4875,120.9591,3805.0,CHY121,2016,1,19,2,13,26.83,2,85.58,3.74,5.54,5.32,120.0,J1201900.SMT, SMTA,20160100000000.0,335,y,41.38499832,2016-01-19 02:13:41.799,-1.2586761631614742,12155.0,-2.3972442954973148,12575.0,328.58,29.72,5.8,99,12.2,22.787,121.3125
24757.0,2935.0,6293.0,-2.2092793,-2.1771925171112336,22.6592,120.5091,26.0,KAU027,2016,1,19,2,13,26.83,2,83.72,5.42,5.62,5.82,300.0,N5301900.SMT, SMTA,20160100000000.0,260,y,102.2200012,2016-01-19 02:13:42.028,-1.210860853517248,23806.0,-2.1635663644726764,23984.0,247.33,29.72,5.8,99,12.2,22.787,121.3125
24757.0,2971.0,5926.0,-2.1917198,-1.997358765207055,23.3003,120.6669,418.0,CHY045,2016,1,19,2,13,26.83,3,87.23,6.2,12.82,14.76,60.0,17601900.CVA, CVA ,20160100000000.0,311,y,14.17000008,2016-01-19 02:13:42.212,-0.7794416709643424,6202.0,-2.022441376277645,6223.0,627.55,29.72,5.8,99,12.2,22.787,121.3125
24757.0,2988.0,6140.0,-2.330993,-2.4578180380805525,23.5982,121.5202,18.0,HWA002,2016,1,19,2,13,26.83,3,92.31,3.16,11.18,7.14,47.0,12001900.DBL, CVA ,20160100000000.0,13,y,5.949999809,2016-01-19 02:13:42.296,-0.9914826906936788,4327.0,-2.4450106104104465,4325.0,789.37,29.72,5.8,99,12.2,22.787,121.3125
24757.0,2994.0,6684.0,-2.0544453,-2.195023880612532,22.6929,120.4901,28.0,KAU095,2016,1,19,2,13,26.83,2,85.09,5.02,4.58,4.9,300.0,M3401900.SMT, SMTA,20160100000000.0,263,y,102.5,2016-01-19 02:13:42.322,-1.2835873223249916,24319.0,-2.260336702132164,24037.0,260.49,29.72,5.8,99,12.2,22.787,121.3125
24757.0,3012.0,6408.0,-2.1496537,-2.044264140041694,22.5821,120.4888,18.0,KAU031,2016,1,19,2,13,26.83,2,87.61,3.58,6.22,6.16,120.0,F2501900.SMT, SMTA,20160100000000.0,255,y,43.34000015,2016-01-19 02:13:42.411,-1.1588405148781566,12016.0,-2.0670325596846157,12050.0,219.55,29.72,5.8,99,12.2,22.787,121.3125
24757.0,3024.0,6174.0,-2.0829222,-1.694654618352662,22.4367,120.5115,4.0,KAU044,2016,1,19,2,13,26.83,3,91.02,2.64,9.88,5.4,120.0,F4301900.SMT, SMTA,20160100000000.0,245,y,44.45500183,2016-01-19 02:13:42.475,-0.9546320412632509,11999.0,-1.6159112179309707,12029.0,215.93,29.72,5.8,99,12.2,22.787,121.3125
24757.0,3028.0,6356.0,-2.2428823,-2.265399964440501,23.2438,120.6223,555.0,CHY102,2016,1,19,2,13,26.83,2,86.97,2.96,6.54,7.84,120.0,D3601900.SMT, SMTA,20160100000000.0,306,y,42.58000183,2016-01-19 02:13:42.492,-1.0792186572323503,11807.0,-2.2807895419229567,11729.0,836.12,29.72,5.8,99,12.2,22.787,121.3125
24757.0,3053.0,6784.0,-2.1455986,-2.186365466210044,22.6633,120.4803,23.0,KAU024,2016,1,19,2,13,26.83,2,86.56,3.66,4.3,4.06,240.0,N3101900.SMT, SMTA,20160100000000.0,261,y,42.88000107,2016-01-19 02:13:42.620,-1.3005561741052227,12435.0,-2.2507466385617807,12292.0,220.6,29.72,5.8,99,12.2,22.787,121.3125
24757.0,3109.0,5631.0,-2.2277985,-2.470191919238964,23.0746,120.5189,112.0,CHY061,2016,1,19,2,13,26.83,2,87.39,4.74,6.6,5.44,45.0,16101900.CVA, CVA ,20160100000000.0,291,y,16.18499947,2016-01-19 02:13:42.899,-1.1580496961632891,7043.0,-2.438396093383784,5791.0,499.94,29.72,5.8,99,12.2,22.787,121.3125
24757.0,3131.0,6709.0,-1.9971269,-1.522987257588935,22.5437,120.4606,8.0,KAU032,2016,1,19,2,13,26.83,3,91.6,2.7,11.24,15.16,120.0,F2801900.SMT, SMTA,20160100000000.0,253,y,42.05500031,2016-01-19 02:13:43.008,-0.8170274338991741,12061.0,-1.5362006596155022,11979.0,190.7,29.72,5.8,99,12.2,22.787,121.3125
24757.0,3179.0,6902.0,-2.294925,-2.4500275737465818,22.7162,120.4468,69.0,KAU021,2016,1,19,2,13,26.83,2,89.42,5.16,3.86,4.04,120.0,C8901900.SMT, SMTA,20160100000000.0,267,y,44.20500183,2016-01-19 02:13:43.249,-1.29351004010554,9080.0,-2.489995367968719,12478.0,515.06,29.72,5.8,99,12.2,22.787,121.3125
24757.0,3186.0,6403.0,-2.3239465,-2.345498945785125,23.185,120.5285,216.0,CHY079,2016,1,19,2,13,26.83,2,91.66,3.98,7.7,5.96,120.0,D7501900.SMT, SMTA,20160100000000.0,299,y,43.30500031,2016-01-19 02:13:43.284,-1.1075367623434496,12067.0,-2.3082257881280444,11688.0,625.94,29.72,5.8,99,12.2,22.787,121.3125
24757.0,3195.0,6557.0,-2.1083505,-1.9962111427944675,23.2945,120.5927,260.0,CHY014,2016,1,19,2,13,26.83,3,92.73,4.2,9.94,16.0,120.0,D7001900.SMT, SMTA,20160100000000.0,307,y,43.31000137,2016-01-19 02:13:43.326,-0.7843988862425949,12020.0,-1.9827282777224955,12009.0,341.8,29.72,5.8,99,12.2,22.787,121.3125
24757.0,3201.0,6557.0,-2.254072,-2.327904116216852,23.5084,120.8134,2417.0,CHY074,2016,1,19,2,13,26.83,2,94.83,3.16,5.3,5.64,120.0,C4201900.SMT, SMTA,20160100000000.0,327,y,43.36500168,2016-01-19 02:13:43.357,-1.226171073521068,12501.0,-2.299481859047088,12013.0,524.61,29.72,5.8,99,12.2,22.787,121.3125
24757.0,3233.0,6901.0,-2.4196997,-2.619592669271104,23.7303,121.4446,120.0,HWA035,2016,1,19,2,13,26.83,2,105.34,2.82,3.52,2.62,186.0,39401900.MNS, NANO,20160100000000.0,7,y,42.11000061,2016-01-19 02:13:43.517,-1.4455658374462472,12262.0,-2.650085365512783,12073.0,686.11,29.72,5.8,99,12.2,22.787,121.3125
24757.0,3246.0,6831.0,-2.097284,-2.385350767118867,23.0441,120.4697,102.0,CHY022,2016,1,19,2,13,26.83,2,91.02,2.78,5.86,6.54,120.0,D3401900.SMT, SMTA,20160100000000.0,288,y,44.41999817,2016-01-19 02:13:43.584,-1.1410321691120364,12431.0,-2.4189970297969974,12108.0,570.02,29.72,5.8,99,12.2,22.787,121.3125
24757.0,3253.0,6466.0,-2.2111344,-2.237606275736593,23.2462,120.5364,256.0,CHY109,2016,1,19,2,13,26.83,2,94.42,2.74,4.94,6.98,120.0,B9201900.SMT, SMTA,20160100000000.0,303,y,43.86000061,2016-01-19 02:13:43.616,-1.1344619606279929,11876.0,-2.2652922650327487,11970.0,239.95,29.72,5.8,99,12.2,22.787,121.3125
24757.0,3256.0,6316.0,-2.2710993,-2.3293693677952207,23.2476,120.5337,146.0,CHY110,2016,1,19,2,13,26.83,3,94.73,3.48,7.04,8.76,300.0,D7101900.SMT, SMTA,20160100000000.0,303,y,103.9049988,2016-01-19 02:13:43.632,-1.025393920687107,23889.0,-2.34743311940856,24072.0,801.58,29.72,5.8,99,12.2,22.787,121.3125
24757.0,3314.0,7665.0,-2.1680324,-2.424664487276848,23.1823,120.4857,99.0,CHY118,2016,1,19,2,13,26.83,2,95.4,3.02,3.78,5.4,120.0,D4901900.SMT, SMTA,20160100000000.0,297,y,44.22999954,2016-01-19 02:13:43.920,-1.2624134048893556,11937.0,-2.4230248773836056,13181.0,307.98,29.72,5.8,99,12.2,22.787,121.3125
24757.0,3332.0,6581.0,-2.0761645,-1.9981514034929704,23.3513,120.594,956.0,CHY086,2016,1,19,2,13,26.83,3,96.56,4.54,9.44,8.82,120.0,D3501900.SMT, SMTA,20160100000000.0,310,y,44.03499985,2016-01-19 02:13:44.013,-0.9437300792128516,12056.0,-2.0007341712126925,12043.0,451.58,29.72,5.8,99,12.2,22.787,121.3125
24757.0,3343.0,6688.0,-2.2364438,-2.22037054823049,23.3563,120.5918,912.0,CHY042,2016,1,19,2,13,26.83,2,97.09,3.82,4.4,6.14,48.0,16901900.CVA, CVA ,20160100000000.0,310,y,6.125,2016-01-19 02:13:44.074,-1.1790216813219938,4455.0,-2.218821893678061,4554.0,252.29,29.72,5.8,99,12.2,22.787,121.3125
24757.0,3356.0,6529.0,-2.0264714,-1.7925686648156944,22.4788,120.4111,4.0,KAU089,2016,1,19,2,13,26.83,2,98.72,2.98,6.48,5.94,36.0,T481001.019 , A900,20160100000000.0,250,y,3.285000086,2016-01-19 02:13:44.135,-1.0803456069286872,3891.0,-1.7306030150880178,3821.0,191.45,29.72,5.8,99,12.2,22.787,121.3125
24757.0,3387.0,6633.0,-1.9898794,-2.197387637214267,22.8772,120.3791,36.0,KAU012,2016,1,19,2,13,26.83,3,96.31,2.86,8.58,12.22,120.0,F2101900.SMT, SMTA,20160100000000.0,276,y,46.20000076,2016-01-19 02:13:44.287,-0.901995256392366,13245.0,-2.1993408196719253,13270.0,304.66,29.72,5.8,99,12.2,22.787,121.3125
24757.0,3400.0,6837.0,-2.2760835,-2.2143071466820268,23.2651,120.4999,609.0,CHY081,2016,1,19,2,13,26.83,2,98.66,2.66,5.78,5.96,120.0,G3101900.SMT, SMTA,20160100000000.0,302,y,44.43999863,2016-01-19 02:13:44.350,-1.181663954132364,12288.0,-2.21173269941858,12309.0,487.88,29.72,5.8,99,12.2,22.787,121.3125
24757.0,3409.0,6569.0,-2.206853,-2.1018231658787565,23.2873,120.5065,436.0,CHY135,2016,1,19,2,13,26.83,3,99.46,4.78,8.74,6.8,120.0,D9001900.SMT, SMTA,20160100000000.0,304,y,44.79499817,2016-01-19 02:13:44.398,-0.9713176789169412,12118.0,-2.1148501998814107,12104.0,576.91,29.72,5.8,99,12.2,22.787,121.3125
24757.0,3415.0,6652.0,-2.319204,-2.039530234531386,23.4831,120.6544,658.0,CHY011,2016,1,19,2,13,26.83,3,102.39,3.66,9.0,8.34,120.0,D5501900.SMT, SMTA,20160100000000.0,319,y,44.71500015,2016-01-19 02:13:44.428,-0.9614840948406642,12133.0,-2.05141822407282,12164.0,581.47,29.72,5.8,99,12.2,22.787,121.3125
24757.0,3420.0,6589.0,-2.2040043,-1.926498409343831,22.507,120.3934,7.0,KAU017,2016,1,19,2,13,26.83,2,99.42,4.12,6.26,4.5,191.1,16701900.MNS, NANO,20160100000000.0,252,y,44.95999908,2016-01-19 02:13:44.452,-1.2082582500238108,12119.0,-1.9057468258149677,12149.0,252.58,29.72,5.8,99,12.2,22.787,121.3125
24757.0,3471.0,6807.0,-2.065146,-1.5731782438816122,22.6284,120.376,15.0,KAU008,2016,1,19,2,13,26.83,3,97.79,6.46,12.58,17.9,211.3,40801900.MNS, NANO,20160100000000.0,260,y,59.66500092,2016-01-19 02:13:44.706,-0.7286204410549315,15223.0,-1.612321278671882,15325.0,287.45,29.72,5.8,99,12.2,22.787,121.3125
24757.0,3477.0,7513.0,-1.8977154,-2.182542912691625,22.9043,120.3517,44.0,CHY065,2016,1,19,2,13,26.83,2,99.45,3.9,6.64,6.34,54.0,15801900.CVA, CVA ,20160100000000.0,278,y,2.519999981,2016-01-19 02:13:44.742,-1.1413677287023345,4807.0,-2.185024926772809,4525.0,222.69,29.72,5.8,99,12.2,22.787,121.3125
