EQ_ID,p_picks,pgv_time_window,predict,answer,latitude,longitude,elevation,station_name,year,month,day,hour,minute,second,intensity,epdis (km),pga_z,pga_ns,pga_ew,record_time (sec),file_name,instrument_code,start_time,sta_angle,quality_control,p_pick_sec,p_arrival_abs_time,pga,pga_time,pgv,pgv_time_file,Vs30,depth,magnitude,nsta,nearest_sta_dist (km),event_lat,event_lon
24734.0,2164.0,4266.0,-2.0268493,-2.385157164980512,22.8959,121.2487,28.0,TTN034,2016,1,11,4,52,57.55,3,62.09,4.26,11.92,12.8,240.0,M0401100.SMT, SMTA,20160100000000.0,206,y,68.95500183,2016-01-11 04:53:09.079,-0.92520251169417,15856.0,-2.3844579049542105,15875.0,457.49,33.15,5.25,91,5.3,23.433833333333332,121.53066666666666
24734.0,2167.0,5880.0,-1.4148842,-2.319872771150547,23.9953,121.5948,25.0,HWA011,2016,1,11,4,52,57.55,2,62.53,3.2,5.72,5.22,45.0,13101100.CVA, CVA ,20160100000000.0,6,y,4.650000095,2016-01-11 04:53:09.098,-1.2417064719563835,3314.0,-2.324130027398442,4627.0,360.84,33.15,5.25,91,5.3,23.433833333333332,121.53066666666666
24734.0,2177.0,4593.0,-1.4891844,-2.267620867227127,24.0095,121.5805,30.0,HWA048,2016,1,11,4,52,57.55,2,63.96,2.5,6.28,6.78,45.0,12101101.DBL, CVA ,20160100000000.0,5,y,7.295000076,2016-01-11 04:53:09.149,-1.1383590147052896,3862.0,-2.259018258906423,3859.0,349.79,33.15,5.25,91,5.3,23.433833333333332,121.53066666666666
24734.0,2188.0,4096.0,-1.3873625,-2.544200055152205,23.4875,120.9591,3805.0,CHY121,2016,1,11,4,52,57.55,2,58.68,2.64,6.42,6.54,120.0,J1201100.SMT, SMTA,20160100000000.0,276,y,69.15000153,2016-01-11 04:53:09.200,-1.2006220984566165,15784.0,-2.5497097211806827,15722.0,328.58,33.15,5.25,91,5.3,23.433833333333332,121.53066666666666
24734.0,2216.0,5023.0,-1.9547814,-2.47709153294394,22.8784,121.2276,56.0,TTN035,2016,1,11,4,52,57.55,2,68.9,2.9,5.28,6.0,240.0,M3801100.SMT, SMTA,20160100000000.0,207,y,69.87000275,2016-01-11 04:53:09.341,-1.2331827635237531,16745.0,-2.4610990080671447,16764.0,519.75,33.15,5.25,91,5.3,23.433833333333332,121.53066666666666
24734.0,2514.0,4430.0,-2.059442,-2.6320889265916416,23.2525,120.8197,790.0,MTN156,2016,1,11,4,52,57.55,2,75.42,3.4,7.24,4.0,194.3,42501100.MNS, NANO,20160100000000.0,255,y,60.27500153,2016-01-11 04:53:10.829,-1.1444677342260183,13880.0,-2.604314634887634,13879.0,578.53,33.15,5.25,91,5.3,23.433833333333332,121.53066666666666
24738.0,1000.0,1375.0,-1.0488201,-2.135086663178385,23.3821,120.5299,175.0,CHY087,2016,1,13,9,6,57.71,4,5.53,10.72,29.18,26.1,120.0,C2101300.SMT, SMTA,20160100000000.0,130,y,59.65999985,2016-01-13 09:07:00.292,-0.5116090878177746,12273.0,-2.0763173041344025,12289.0,508.0,9.7,3.59,27,5.5,23.414,120.48816666666667
24738.0,1019.0,1827.0,-1.3253702,-2.9282214393108474,23.4592,120.5237,134.0,CHY132,2016,1,13,9,6,57.71,3,6.18,7.22,10.86,11.74,45.0,17001300.CVA, CVA ,20160100000000.0,36,y,16.87999916,2016-01-13 09:07:00.384,-1.1927175485847883,3932.0,-2.921766077739236,3935.0,513.29,9.7,3.59,27,5.5,23.414,120.48816666666667
24738.0,1055.0,1572.0,-1.1003706,-2.9089754000295924,23.4722,120.4674,49.0,CHY119,2016,1,13,9,6,57.71,2,6.78,3.1,4.21,4.38,181.3,38101300.MNS, NANO,20160100000000.0,342,y,58.00500107,2016-01-13 09:07:00.564,-1.481964117940194,12077.0,-2.8764264084976445,12102.0,498.38,9.7,3.59,27,5.5,23.414,120.48816666666667
24738.0,1083.0,1655.0,-1.2127016,-2.71198067427639,23.463,120.5529,211.0,CHY010,2016,1,13,9,6,57.71,3,8.56,4.88,11.56,12.24,120.0,D0001300.SMT, SMTA,20160100000000.0,51,y,60.29999924,2016-01-13 09:07:00.705,-1.1525945726268632,12598.0,-2.6944192890763667,12614.0,816.86,9.7,3.59,27,5.5,23.414,120.48816666666667
24738.0,1083.0,1636.0,-0.75189745,-2.5165395455528734,23.4363,120.4147,32.0,CHY106,2016,1,13,9,6,57.71,2,7.91,5.02,4.4,7.62,184.5,30801300.MNS, NANO,20160100000000.0,288,y,58.13499832,2016-01-13 09:07:00.706,-1.1576851874364735,12172.0,-2.492629773659269,12163.0,227.63,9.7,3.59,27,5.5,23.414,120.48816666666667
24738.0,1094.0,1674.0,-1.1817217,-2.503938908207224,23.4707,120.4453,34.0,CHY048,2016,1,13,9,6,57.71,3,7.65,16.0,16.18,16.3,188.5,31801300.MNS, NANO,20160100000000.0,325,y,60.31000137,2016-01-13 09:07:00.759,-0.968298577527506,12570.0,-2.504670535122892,12625.0,248.65,9.7,3.59,27,5.5,23.414,120.48816666666667
24738.0,1095.0,1648.0,-0.9740739,-2.216355410868774,23.3445,120.438,44.0,CHY088,2016,1,13,9,6,57.71,4,9.25,9.06,13.44,39.18,180.0,15501300.MNS, NANO,20160100000000.0,214,y,59.86000061,2016-01-13 09:07:00.765,-0.5453176055008452,12491.0,-2.173692320582171,12507.0,329.54,9.7,3.59,27,5.5,23.414,120.48816666666667
24738.0,1109.0,1743.0,-1.0059417,-2.7348423729719107,23.483,120.4547,40.0,MND017,2016,1,13,9,6,57.71,3,8.37,7.84,6.64,9.44,45.0,05101300.CVA, CVA ,20160100000000.0,336,y,16.47999954,2016-01-13 09:07:00.835,-1.230547095798759,3818.0,-2.7020789774591845,3914.0,321.4,9.7,3.59,27,5.5,23.414,120.48816666666667
24738.0,1131.0,2545.0,-0.83718294,-2.65489717882239,23.3526,120.4138,39.0,TRB024,2016,1,13,9,6,57.71,3,8.66,10.4,10.74,9.34,45.0,04301300.CVA, CVA ,20160100000000.0,326,y,16.30500031,2016-01-13 09:07:00.943,-0.9311851528770247,3848.0,-2.3845081170350286,3913.0,283.98,9.7,3.59,27,5.5,23.414,120.48816666666667
24738.0,1131.0,1800.0,-1.2002782,-2.4119315214703496,23.4787,120.4405,36.0,CHY015,2016,1,13,9,6,57.71,3,10.19,3.76,9.74,9.18,120.0,C8501300.SMT, SMTA,20160100000000.0,228,y,60.58499908,2016-01-13 09:07:00.946,-1.0883835058225309,12747.0,-2.600153487969757,13513.0,224.73,9.7,3.59,27,5.5,23.414,120.48816666666667
24738.0,1145.0,1748.0,-0.8433469,-2.6797930814437976,23.4936,120.4553,42.0,CHY047,2016,1,13,9,6,57.71,3,9.44,5.46,8.42,6.58,186.4,32801300.MNS, NANO,20160100000000.0,339,y,59.64500046,2016-01-13 09:07:01.016,-1.077343349036945,12755.0,-2.673189598261932,12515.0,183.52,9.7,3.59,27,5.5,23.414,120.48816666666667
24738.0,1159.0,1878.0,-0.8455918,-2.401449012463987,23.4727,120.4164,32.0,CHY009,2016,1,13,9,6,57.71,3,9.8,11.54,8.22,14.6,187.0,37301300.MNS, NANO,20160100000000.0,312,y,59.65999985,2016-01-13 09:07:01.085,-0.9227545753784722,12634.0,-2.381591392439092,12634.0,226.11,9.7,3.59,27,5.5,23.414,120.48816666666667
24738.0,1199.0,1917.0,-0.8915654,-2.625310908192533,23.4963,120.4325,31.0,CHY073,2016,1,13,9,6,57.71,2,10.75,4.8,5.64,5.22,120.0,D3801300.SMT, SMTA,20160100000000.0,328,y,60.90999985,2016-01-13 09:07:01.282,-1.2061190978341272,12884.0,-2.6098084624853626,12883.0,201.48,9.7,3.59,27,5.5,23.414,120.48816666666667
24738.0,1243.0,2041.0,-1.0396066,-2.582255714979436,23.3655,120.3663,24.0,CHY049,2016,1,13,9,6,57.71,2,13.53,3.0,7.38,7.54,45.0,15001300.DBL, CVA ,20160100000000.0,247,y,16.29999924,2016-01-13 09:07:01.504,-1.0957175281150056,3984.0,-2.57161515438561,4041.0,224.82,9.7,3.59,27,5.5,23.414,120.48816666666667
24738.0,1268.0,2016.0,-1.2095033,-2.71853472123031,23.2799,120.4673,128.0,CHY051,2016,1,13,9,6,57.71,2,14.99,3.86,6.92,7.82,182.5,30701300.MNS, NANO,20160100000000.0,188,y,56.39500046,2016-01-13 09:07:01.630,-1.0984591321336152,11992.0,-2.682115492322033,12009.0,363.88,9.7,3.59,27,5.5,23.414,120.48816666666667
24738.0,1276.0,2037.0,-1.2489626,-2.8604528028108787,23.5343,120.4555,49.0,CHY038,2016,1,13,9,6,57.71,2,13.74,2.98,2.86,3.8,180.7,37601300.MNS, NANO,20160100000000.0,346,y,56.61000061,2016-01-13 09:07:01.670,-1.4343375417584106,12135.0,-2.834959323280962,12065.0,372.88,9.7,3.59,27,5.5,23.414,120.48816666666667
24738.0,1350.0,2153.0,-1.2780411,-2.551716034837771,23.2945,120.3867,29.0,CHY128,2016,1,13,9,6,57.71,3,16.82,3.06,5.48,12.96,45.0,15301300.CVA, CVA ,20160100000000.0,218,y,16.11499977,2016-01-13 09:07:02.039,-0.9386079503358226,3993.0,-2.515570446840357,4008.0,253.85,9.7,3.59,27,5.5,23.414,120.48816666666667
24738.0,1353.0,3152.0,-0.7571645,-2.7220266655707857,23.4559,120.3306,18.0,CHY095,2016,1,13,9,6,57.71,2,16.75,7.3,3.88,5.3,120.0,D1801300.SMT, SMTA,20160100000000.0,286,y,61.90499878,2016-01-13 09:07:02.055,-1.346075099032958,14171.0,-2.715126285113858,14163.0,216.36,9.7,3.59,27,5.5,23.414,120.48816666666667
24738.0,1523.0,2403.0,-1.9254181,-3.01431232514888,23.2438,120.6223,555.0,CHY102,2016,1,13,9,6,57.71,2,23.31,3.84,4.06,5.16,120.0,D3601300.SMT, SMTA,20160100000000.0,144,y,62.88000107,2016-01-13 09:07:02.905,-1.3463884660801535,13539.0,-3.0167305355367047,13439.0,836.12,9.7,3.59,27,5.5,23.414,120.48816666666667
24757.0,1000.0,1948.0,-1.5268811,-0.9199197291628008,22.8784,121.2276,56.0,TTN035,2016,1,19,2,13,26.83,5,13.35,70.96,202.9,196.34,240.0,M3801900.SMT, SMTA,20160100000000.0,319,y,92.51999664,2016-01-19 02:13:32.355,0.3273348074487362,19409.0,-0.9170419925238498,19437.0,519.75,29.72,5.8,99,12.2,22.787,121.3125
24757.0,1005.0,1895.0,-1.4412646,-0.9943310808272142,22.8959,121.2487,28.0,TTN034,2016,1,19,2,13,26.83,5,16.29,90.34,170.44,243.58,240.0,M0401900.SMT, SMTA,20160100000000.0,344,y,92.67500305,2016-01-19 02:13:32.378,0.3650366951109217,19407.0,-0.979344777708652,19408.0,457.49,29.72,5.8,99,12.2,22.787,121.3125
24757.0,1010.0,1904.0,-1.9620476,-1.7507112403872338,22.7963,121.1938,34.0,TTN036,2016,1,19,2,13,26.83,3,12.23,13.12,22.26,18.64,240.0,M4001900.SMT, SMTA,20160100000000.0,275,y,92.62000275,2016-01-19 02:13:32.405,-0.6053263146209779,19610.0,-1.705428448454763,19403.0,427.03,29.72,5.8,99,12.2,22.787,121.3125
24757.0,1079.0,2840.0,-1.4311427,-1.3011638033677255,22.908,121.1365,140.0,TTN004,2016,1,19,2,13,26.83,4,22.49,37.44,45.66,62.94,69.0,11201900.CVA, CVA ,20160100000000.0,307,y,19.30999947,2016-01-19 02:13:32.746,-0.180924261576097,5810.0,-1.3056251235141496,5669.0,602.68,29.72,5.8,99,12.2,22.787,121.3125
24757.0,1115.0,2245.0,-1.7336249,-1.484720267526052,22.7567,121.1588,13.0,TTN008,2016,1,19,2,13,26.83,4,16.13,14.6,54.34,28.42,221.2,32501900.MNS, NANO,20160100000000.0,258,y,60.11000061,2016-01-19 02:13:32.927,-0.2718085253038672,13142.0,-1.4816779215152809,13171.0,269.61,29.72,5.8,99,12.2,22.787,121.3125
24757.0,1116.0,2242.0,-1.9069331,-1.1898640601899442,22.7646,121.1525,18.0,TTN056,2016,1,19,2,13,26.83,5,16.61,38.4,215.78,91.44,56.0,14201900.CVA, CVA ,20160100000000.0,261,y,9.194999695,2016-01-19 02:13:32.930,0.2911537820430281,2952.0,-1.201404994212954,2949.0,297.6,29.72,5.8,99,12.2,22.787,121.3125
24757.0,1116.0,2252.0,-1.913528,-1.3422828075057194,22.7705,121.1449,25.0,TTN006,2016,1,19,2,13,26.83,4,17.31,34.94,70.48,77.64,203.5,37801900.MNS, NANO,20160100000000.0,264,y,60.22499847,2016-01-19 02:13:32.930,-0.1497952583149279,13180.0,-1.3370969607001553,13166.0,698.53,29.72,5.8,99,12.2,22.787,121.3125
24757.0,1123.0,2264.0,-1.8628906,-1.389086624157564,22.7615,121.1504,17.0,TTN007,2016,1,19,2,13,26.83,4,16.89,24.52,79.92,53.04,216.5,34501900.MNS, NANO,20160100000000.0,260,y,60.15999985,2016-01-19 02:13:32.966,-0.0842772120139176,13158.0,-1.3907711376518468,13157.0,648.28,29.72,5.8,99,12.2,22.787,121.3125
24757.0,1124.0,2675.0,-1.7526584,-1.8007374885208989,22.7814,121.1193,38.0,TTN011,2016,1,19,2,13,26.83,4,19.84,61.82,26.76,31.88,204.5,34201900.MNS, NANO,20160100000000.0,268,y,60.38999939,2016-01-19 02:13:32.972,-0.3837620890625782,12188.0,-1.801198162291115,13613.0,445.37,29.72,5.8,99,12.2,22.787,121.3125
24757.0,1125.0,2414.0,-1.5133283,-1.8620691798873448,22.8073,121.0938,106.0,TTN027,2016,1,19,2,13,26.83,4,22.56,28.14,31.96,33.6,240.0,L5701900.SMT, SMTA,20160100000000.0,276,y,93.19999695,2016-01-19 02:13:32.977,-0.52977226917795,20305.0,-1.8518639520894744,20092.0,318.22,29.72,5.8,99,12.2,22.787,121.3125
24757.0,1127.0,2344.0,-1.6461846,-1.1403243870107085,22.9725,121.304,46.0,TTN002,2016,1,19,2,13,26.83,5,20.56,67.78,116.26,156.2,70.0,12801900.CVA, CVA ,20160100000000.0,358,y,19.03000069,2016-01-19 02:13:32.990,0.1956042797793794,4988.0,-1.125258859754736,5006.0,663.94,29.72,5.8,99,12.2,22.787,121.3125
24757.0,1128.0,2693.0,-1.4449513,-1.965915357943098,22.8597,121.0918,227.0,TTN026,2016,1,19,2,13,26.83,3,24.04,20.02,23.3,18.36,120.0,F0501900.SMT, SMTA,20160100000000.0,290,y,33.04499817,2016-01-19 02:13:32.990,-0.6463181731202715,8135.0,-1.9745283878976536,8158.0,736.89,29.72,5.8,99,12.2,22.787,121.3125
24757.0,1128.0,2271.0,-1.8305442,-1.4755528109192566,22.764,121.1416,23.0,TTN012,2016,1,19,2,13,26.83,4,17.74,37.96,49.5,47.66,204.0,33401900.MNS, NANO,20160100000000.0,262,y,59.27999878,2016-01-19 02:13:32.991,-0.3091112931522581,12962.0,-1.5064576997547758,12982.0,268.11,29.72,5.8,99,12.2,22.787,121.3125
24757.0,1130.0,2266.0,-1.8063372,-1.4786605055488975,22.7522,121.1549,12.0,TTN015,2016,1,19,2,13,26.83,4,16.64,12.24,35.7,33.98,120.0,F2401900.SMT, SMTA,20160100000000.0,257,y,33.18000031,2016-01-19 02:13:33.003,-0.4049723069118654,7756.0,-1.5114801216135814,7756.0,491.66,29.72,5.8,99,12.2,22.787,121.3125
24757.0,1130.0,2323.0,-1.9404318,-1.2811252476270327,22.766,121.136,26.0,TTN013,2016,1,19,2,13,26.83,5,18.27,70.02,96.0,112.14,201.5,36001900.MNS, NANO,20160100000000.0,263,y,60.38999939,2016-01-19 02:13:33.003,0.0864326571142726,13235.0,-1.2909580953520627,13254.0,268.11,29.72,5.8,99,12.2,22.787,121.3125
24757.0,1136.0,2300.0,-1.7817708,-1.6130852894195555,22.7549,121.1483,19.0,TTN005,2016,1,19,2,13,26.83,4,17.23,15.76,33.44,42.9,214.1,16101900.MNS, NANO,20160100000000.0,258,y,60.20999908,2016-01-19 02:13:33.032,-0.424738836783489,13172.0,-1.6328289398476938,13189.0,655.43,29.72,5.8,99,12.2,22.787,121.3125
24757.0,1137.0,2600.0,-1.7187495,-1.9421536750481607,22.8174,121.08,199.0,TTN018,2016,1,19,2,13,26.83,4,24.1,37.12,24.82,31.26,120.0,F4501900.SMT, SMTA,20160100000000.0,278,y,33.08499908,2016-01-19 02:13:33.037,-0.5388924366918002,8040.0,-1.9546676980764224,8064.0,510.94,29.72,5.8,99,12.2,22.787,121.3125
24757.0,1146.0,2091.0,-1.5300131,-1.3557790668213612,22.9625,121.2409,189.0,TTN046,2016,1,19,2,13,26.83,5,20.77,43.04,94.16,79.24,68.0,11601900.CVA, CVA ,20160100000000.0,339,y,19.19000053,2016-01-19 02:13:33.084,-0.0536704263681841,4905.0,-1.3467328586682072,4768.0,529.1,29.72,5.8,99,12.2,22.787,121.3125
24757.0,1160.0,2655.0,-1.8936386,-1.988298485008728,22.7721,121.091,59.0,TTN048,2016,1,19,2,13,26.83,4,22.8,24.62,29.12,27.14,240.0,L8001900.SMT, SMTA,20160100000000.0,266,y,93.33499908,2016-01-19 02:13:33.154,-0.5460539526686137,19770.0,-2.0320228408859986,20459.0,733.14,29.72,5.8,99,12.2,22.787,121.3125
24757.0,1176.0,2741.0,-1.5236827,-1.74551920180632,22.9023,121.08,247.0,TTN025,2016,1,19,2,13,26.83,4,27.06,31.72,37.58,42.5,240.0,L7801900.SMT, SMTA,20160100000000.0,298,y,93.16500092,2016-01-19 02:13:33.231,-0.3701409931321137,20162.0,-1.7613812046748196,20181.0,701.1,29.72,5.8,99,12.2,22.787,121.3125
24757.0,1185.0,2697.0,-1.8653507,-1.943347489418452,22.7767,121.0629,135.0,TTN028,2016,1,19,2,13,26.83,4,25.66,22.76,28.74,22.36,240.0,L7101900.SMT, SMTA,20160100000000.0,267,y,93.21499634,2016-01-19 02:13:33.279,-0.6525500986991767,20049.0,-1.9169774860742488,20139.0,619.83,29.72,5.8,99,12.2,22.787,121.3125
24757.0,1187.0,2492.0,-1.9651289,-1.749097108367483,22.7368,121.1217,18.0,TTN010,2016,1,19,2,13,26.83,3,20.37,23.24,19.08,24.74,212.5,34301900.MNS, NANO,20160100000000.0,254,y,59.34500122,2016-01-19 02:13:33.286,-0.6130788466698864,13638.0,-1.7417722471705464,13158.0,296.3,29.72,5.8,99,12.2,22.787,121.3125
24757.0,1193.0,2758.0,-1.4244812,-1.2159989444193386,22.9741,121.1564,190.0,TTN045,2016,1,19,2,13,26.83,5,26.18,22.24,72.22,80.38,240.0,L9001900.SMT, SMTA,20160100000000.0,322,y,93.73000336,2016-01-19 02:13:33.318,-0.0439192634861913,20270.0,-1.1848908873897388,20248.0,539.47,29.72,5.8,99,12.2,22.787,121.3125
24757.0,1199.0,3407.0,-1.8859555,-1.8795315407267168,22.7304,121.1074,21.0,TTN049,2016,1,19,2,13,26.83,4,21.98,32.64,19.54,22.28,68.0,09801900.CVA, CVA ,20160100000000.0,253,y,18.96999931,2016-01-19 02:13:33.345,-0.6727321021496202,3964.0,-1.8971662477537283,5985.0,467.11,29.72,5.8,99,12.2,22.787,121.3125
24757.0,1219.0,2676.0,-1.5698161,-1.5229251060177582,22.9703,121.1167,281.0,TTN024,2016,1,19,2,13,26.83,4,28.56,28.48,66.08,45.78,240.0,L8901900.SMT, SMTA,20160100000000.0,315,y,93.36499786,2016-01-19 02:13:33.447,-0.1648538877235335,20184.0,-1.5215962483614625,20146.0,550.11,29.72,5.8,99,12.2,22.787,121.3125
24757.0,1244.0,2363.0,-1.5872372,-0.9165034759140182,23.027,121.3308,28.0,TTN043,2016,1,19,2,13,26.83,6,26.64,154.4,322.68,223.86,72.0,09301900.CVA, CVA ,20160100000000.0,4,y,19.73999977,2016-01-19 02:13:33.573,0.4714645848886784,5031.0,-0.9173622233595018,5050.0,490.6,29.72,5.8,99,12.2,22.787,121.3125
24757.0,1252.0,2322.0,-2.0570939,-1.9751232319674883,22.717309,121.049131,63.0,TTN029,2016,1,19,2,13,26.83,4,28.12,20.18,25.96,22.72,240.0,M3101900.SMT, SMTA,20160100000000.0,254,y,94.46499634,2016-01-19 02:13:33.610,-0.5886430679642244,19956.0,-1.9731448533182148,19948.0,519.26,29.72,5.8,99,12.2,22.787,121.3125
24757.0,1261.0,2950.0,-1.3078073,-1.1144873727537477,23.006,121.174,211.0,TTN044,2016,1,19,2,13,26.83,4,28.11,33.34,55.08,63.24,79.0,09901900.CVA, CVA ,20160100000000.0,330,y,18.10000038,2016-01-19 02:13:33.660,-0.1990593124628272,5242.0,-1.101364553216288,5294.0,353.36,29.72,5.8,99,12.2,22.787,121.3125
24757.0,1286.0,2427.0,-2.120653,-1.893431352949957,22.6725,121.0371,20.0,TTN050,2016,1,19,2,13,26.83,4,31.01,31.88,29.3,31.04,240.0,M2901900.SMT, SMTA,20160100000000.0,246,y,93.72000122,2016-01-19 02:13:33.784,-0.4583205577610583,19846.0,-1.9100190938415087,19844.0,488.32,29.72,5.8,99,12.2,22.787,121.3125
24757.0,1287.0,2335.0,-2.17002,-2.11737356760924,22.6978,121.0259,56.0,TTN030,2016,1,19,2,13,26.83,4,31.05,36.94,30.16,29.1,120.0,L9401900.SMT, SMTA,20160100000000.0,251,y,33.57500076,2016-01-19 02:13:33.788,-0.66517650579933,7752.0,-2.0844826231062217,7746.0,688.94,29.72,5.8,99,12.2,22.787,121.3125
24757.0,1386.0,3086.0,-1.4080955,-1.573381358952403,23.0512,121.1638,231.0,TTN023,2016,1,19,2,13,26.83,4,32.99,16.94,24.04,37.9,221.6,41901900.MNS, NANO,20160100000000.0,332,y,58.97000122,2016-01-19 02:13:34.284,-0.4443690250189991,12945.0,-1.6279844004589654,13478.0,542.2,29.72,5.8,99,12.2,22.787,121.3125
24757.0,1390.0,2622.0,-2.1365633,-1.9237835001142287,22.6156,121.0069,28.0,TTN003,2016,1,19,2,13,26.83,3,36.7,17.82,24.66,23.58,61.0,11401900.CVA, CVA ,20160100000000.0,239,y,18.88999939,2016-01-19 02:13:34.301,-0.5944102231731873,4989.0,-1.9353857274294284,4992.0,508.47,29.72,5.8,99,12.2,22.787,121.3125
24757.0,1418.0,3076.0,-1.9173139,-1.6008007003707916,23.0978,121.3731,37.0,TTN014,2016,1,19,2,13,26.83,5,34.98,30.84,81.8,94.06,120.0,C4601900.SMT, SMTA,20160100000000.0,10,y,34.52999878,2016-01-19 02:13:34.444,-0.1031214361914184,8546.0,-1.5626170657525742,8547.0,539.62,29.72,5.8,99,12.2,22.787,121.3125
24757.0,1487.0,2775.0,-2.407729,-2.146008700978314,22.5957,120.9617,88.0,TTN052,2016,1,19,2,13,26.83,3,41.81,13.9,18.74,17.84,120.0,C1201900.SMT, SMTA,20160100000000.0,240,y,34.72499847,2016-01-19 02:13:34.786,-0.7571590715792875,8227.0,-2.184522811450404,8216.0,679.02,29.72,5.8,99,12.2,22.787,121.3125
24757.0,1492.0,3277.0,-1.5884613,-1.4297422540275473,23.0952,121.2192,286.0,TTN022,2016,1,19,2,13,26.83,4,35.44,31.94,55.44,50.84,120.0,F2601900.SMT, SMTA,20160100000000.0,344,y,34.83000183,2016-01-19 02:13:34.811,-0.1576602421661795,8712.0,-1.454105041110049,8872.0,503.22,29.72,5.8,99,12.2,22.787,121.3125
24757.0,1529.0,3271.0,-2.1909494,-2.214211534941652,23.102,121.1759,307.0,TTN021,2016,1,19,2,13,26.83,4,37.59,23.32,39.54,26.7,205.3,13101900.MNS, NANO,20160100000000.0,338,y,59.32500076,2016-01-19 02:13:34.998,-0.6046717651388249,13537.0,-2.172371920961018,13513.0,673.86,29.72,5.8,99,12.2,22.787,121.3125
24757.0,1575.0,3340.0,-1.8545469,-1.8837598529267665,23.1259,121.2147,278.0,TTN020,2016,1,19,2,13,26.83,3,38.84,20.56,19.22,16.46,210.0,42201900.MNS, NANO,20160100000000.0,345,y,59.83000183,2016-01-19 02:13:35.226,-0.7358167131134389,13547.0,-1.8876988014220493,13714.0,514.45,29.72,5.8,99,12.2,22.787,121.3125
24757.0,1588.0,2872.0,-1.6573566,-1.5661608779126026,23.1324,121.1251,437.0,TTN041,2016,1,19,2,13,26.83,4,42.81,31.82,56.66,46.46,69.0,10001900.CVA, CVA ,20160100000000.0,333,y,17.81999969,2016-01-19 02:13:35.294,-0.1886377285347563,4838.0,-1.553014654780186,4831.0,431.59,29.72,5.8,99,12.2,22.787,121.3125
