EQ_ID,p_picks,pgv_time_window,predict,answer,latitude,longitude,elevation,station_name,year,month,day,hour,minute,second,intensity,epdis (km),pga_z,pga_ns,pga_ew,record_time (sec),file_name,instrument_code,start_time,sta_angle,quality_control,p_pick_sec,p_arrival_abs_time,pga,pga_time,pgv,pgv_time_file,Vs30,depth,magnitude,nsta,nearest_sta_dist (km),event_lat,event_lon
24757.0,4532.0,8228.0,-2.355319,-2.3642816086695806,23.8913,120.7137,113.0,TCU150,2016,1,19,2,13,26.83,2,136.77,2.94,3.48,3.44,181.1,42801900.MNS, NANO,20160100000000.0,333,y,58.31499863,2016-01-19 02:13:50.013,-1.418073205166592,15751.0,-2.3439710136426,15345.0,539.96,29.72,5.8,99,12.2,22.787,121.3125
24757.0,4619.0,8491.0,-2.2880301,-2.235299872124222,23.9139,120.6918,93.0,TCU124,2016,1,19,2,13,26.83,2,140.0,2.97,4.94,6.45,240.0,L7501900.SMT, SMTA,20160100000000.0,333,y,51.25999832,2016-01-19 02:13:50.446,-1.1756949699606238,14036.0,-2.281873626283392,14108.0,242.0,29.72,5.8,99,12.2,22.787,121.3125
24757.0,5124.0,19482.0,-2.2570624,-2.4786945445047426,24.0004,120.4313,11.0,TCU118,2016,1,19,2,13,26.83,2,161.75,4.32,3.42,3.44,181.4,31901900.MNS, NANO,20160100000000.0,326,y,59.19499969,2016-01-19 02:13:52.974,-1.4758107233744944,16299.0,-2.5089330274613526,26200.0,228.55,29.72,5.8,99,12.2,22.787,121.3125
24757.0,5177.0,9927.0,-2.3463924,-2.5022737338328787,24.0828,120.5806,39.0,TCU109,2016,1,19,2,13,26.83,2,161.82,2.66,3.88,5.34,190.5,12801900.MNS, NANO,20160100000000.0,332,y,39.72000122,2016-01-19 02:13:53.237,-1.2681775212086497,12522.0,-2.4909442135485644,12228.0,401.17,29.72,5.8,99,12.2,22.787,121.3125
24757.0,5354.0,14074.0,-2.2851298,-2.538197798686804,24.112,120.4949,13.0,TCU111,2016,1,19,2,13,26.83,2,168.85,3.32,2.9,2.62,179.9,30401900.MNS, NANO,20160100000000.0,330,y,59.69499969,2016-01-19 02:13:54.120,-1.4699270060883538,16517.0,-2.546074240095149,20475.0,233.47,29.72,5.8,99,12.2,22.787,121.3125
24757.0,5425.0,9953.0,-2.2919827,-2.3972025971855664,24.1324,120.4684,6.0,TCU117,2016,1,19,2,13,26.83,2,172.15,3.74,5.76,5.62,180.2,20201900.MNS, NANO,20160100000000.0,330,y,59.56999969,2016-01-19 02:13:54.479,-1.2058968911058283,16354.0,-2.39669084667787,16379.0,207.17,29.72,5.8,99,12.2,22.787,121.3125
24759.0,1000.0,1460.0,-1.0210874,-2.0644682018452163,23.8676,121.5568,51.0,HWA051,2016,1,19,12,4,6.09,4,3.27,10.1,27.28,25.18,49.0,11701901.CVA, CVA ,20160100000000.0,200,y,17.54999924,2016-01-19 12:04:08.385,-0.615002584077485,4063.0,-2.089577756539915,3953.0,449.74,9.69,3.71,12,3.3,23.8955,121.56766666666667
24759.0,1017.0,1408.0,-1.4883037,-2.3737576582378708,23.9047,121.5325,51.0,HWA018,2016,1,19,12,4,6.09,3,3.72,8.68,19.66,7.54,47.0,11101900.CVA, CVA ,20160100000000.0,286,y,18.39500046,2016-01-19 12:04:08.470,-0.8508111197466324,4036.0,-2.368302751414405,4052.0,462.57,9.69,3.71,12,3.3,23.8955,121.56766666666667
24759.0,1019.0,1671.0,-1.1624172,-2.279457091894838,23.9035,121.6017,66.0,HWA060,2016,1,19,12,4,6.09,3,3.57,5.32,15.88,14.66,120.0,F3801900.SMT, SMTA,20160100000000.0,76,y,68.47499847,2016-01-19 12:04:08.476,-0.819593262465998,14362.0,-2.2754499687033225,14330.0,555.88,9.69,3.71,12,3.3,23.8955,121.56766666666667
24759.0,1056.0,1457.0,-1.1423447,-2.442303595951556,23.8706,121.5073,40.0,HWA059,2016,1,19,12,4,6.09,3,6.73,5.02,14.1,9.34,120.0,F4401900.SMT, SMTA,20160100000000.0,246,y,68.51000214,2016-01-19 12:04:08.664,-0.9250031578347808,14067.0,-2.451951893659221,14085.0,265.84,9.69,3.71,12,3.3,23.8955,121.56766666666667
24759.0,1059.0,1507.0,-1.276896,-2.954121435464121,23.9353,121.5777,34.0,HWA029,2016,1,19,12,4,6.09,2,4.53,4.02,4.34,6.92,182.0,38801900.MNS, NANO,20160100000000.0,13,y,59.46500015,2016-01-19 12:04:08.679,-1.261053036860247,12306.0,-2.9109344693201726,12307.0,597.13,9.69,3.71,12,3.3,23.8955,121.56766666666667
24759.0,1178.0,1250.0,-1.2913431,-3.1931372447716404,23.9729,121.5627,44.0,HWA015,2016,1,19,12,4,6.09,2,8.58,5.42,4.16,3.48,120.0,D3701900.SMT, SMTA,20160100000000.0,357,y,68.75499725,2016-01-19 12:04:09.273,-1.483426422500683,13787.0,-3.211355837140957,13804.0,445.6,9.69,3.71,12,3.3,23.8955,121.56766666666667
24759.0,1179.0,1626.0,-1.1052419,-2.715492378280708,23.9659,121.4928,170.0,HWA058,2016,1,19,12,4,6.09,2,10.89,4.02,7.46,6.84,120.0,F3201900.SMT, SMTA,20160100000000.0,316,y,68.95500183,2016-01-19 12:04:09.277,-1.3141908300392453,14205.0,-2.704955395546833,14221.0,525.67,9.69,3.71,12,3.3,23.8955,121.56766666666667
24759.0,1204.0,1880.0,-1.1548783,-2.4867122924430447,23.789,121.5631,34.0,HWA001,2016,1,19,12,4,6.09,2,11.82,4.12,7.12,7.4,180.0,30501901.MNS, NANO,20160100000000.0,182,y,59.75500107,2016-01-19 12:04:09.405,-1.090826390551377,12593.0,-2.4708769975243454,12610.0,565.18,9.69,3.71,12,3.3,23.8955,121.56766666666667
24759.0,1310.0,2320.0,-1.275412,-2.9814493703710463,23.76411,121.50017,90.0,HWA031,2016,1,19,12,4,6.09,2,16.1,4.0,4.84,4.7,186.2,37901901.MNS, NANO,20160100000000.0,205,y,60.06499863,2016-01-19 12:04:09.930,-1.32041090459331,12944.0,-2.9531740101323667,13141.0,593.82,9.69,3.71,12,3.3,23.8955,121.56766666666667
24761.0,1001.0,1941.0,-1.218477,-2.1249365506308706,22.8784,121.2276,56.0,TTN035,2016,1,20,15,35,46.16,3,15.98,5.18,20.62,13.74,240.0,M3802000.SMT, SMTA,20160100000000.0,318,y,112.1549988,2016-01-20 15:35:51.865,-0.7967952264524096,23337.0,-2.105610888529585,23354.0,519.75,29.68,4.16,6,16.0,22.771833333333333,121.33266666666667
24761.0,1003.0,1908.0,-1.0638177,-2.251529069742729,22.8959,121.2487,28.0,TTN034,2016,1,20,15,35,46.16,4,18.55,8.36,14.82,36.8,240.0,M0402000.SMT, SMTA,20160100000000.0,339,y,112.3399963,2016-01-20 15:35:51.877,-0.5798405577312254,23340.0,-2.2078252589226617,23355.0,457.49,29.68,4.16,6,16.0,22.771833333333333,121.33266666666667
24761.0,1123.0,2352.0,-1.5400515,-2.7231209045179,22.9725,121.304,46.0,TTN002,2016,1,20,15,35,46.16,3,22.41,3.5,6.54,10.38,45.0,12802000.CVA, CVA ,20160100000000.0,353,y,13.65999985,2016-01-20 15:35:52.476,-1.0668819712443671,3839.0,-2.6867381429166506,3842.0,663.94,29.68,4.16,6,16.0,22.771833333333333,121.33266666666667
24761.0,1135.0,2408.0,-1.7261105,-2.7766325782422383,22.766,121.136,26.0,TTN013,2016,1,20,15,35,46.16,2,20.2,6.24,4.92,5.86,180.0,36002000.MNS, NANO,20160100000000.0,268,y,53.84000015,2016-01-20 15:35:52.537,-1.300569500692331,12022.0,-2.746296544806072,12023.0,268.11,29.68,4.16,6,16.0,22.771833333333333,121.33266666666667
24761.0,1196.0,2227.0,-1.2081136,-2.5524670243288505,22.9991,121.2852,75.0,TTN042,2016,1,20,15,35,46.16,3,25.64,3.54,11.32,8.12,47.0,09402000.CVA, CVA ,20160100000000.0,349,y,14.84000015,2016-01-20 15:35:52.843,-1.0037714162394584,4059.0,-2.5219404802947785,3981.0,824.52,29.68,4.16,6,16.0,22.771833333333333,121.33266666666667
24761.0,1236.0,2344.0,-1.2420069,-2.436653503724467,23.027,121.3308,28.0,TTN043,2016,1,20,15,35,46.16,3,28.26,6.54,16.02,24.18,46.0,09302000.CVA, CVA ,20160100000000.0,0,y,14.31000042,2016-01-20 15:35:53.041,-0.7274887839697338,3951.0,-2.383604340228183,3953.0,490.6,29.68,4.16,6,16.0,22.771833333333333,121.33266666666667
24784.0,1001.0,1982.0,-1.5745713,-0.8251302231511267,22.976,120.5443,129.0,KAU068,2016,2,5,19,57,26.08,5,5.98,97.16,216.86,184.0,300.0,L9603600.SMT, SMTA,20160200000000.0,0,y,89.82499695,2016-02-05 19:57:29.434,0.4072619238643227,19045.0,-0.907315785418521,18930.0,813.23,14.64,6.6,99,2.5,22.922,120.54383333333334
24784.0,1101.0,3340.0,-1.1629524,-1.3144440723712776,22.826,120.5992,86.0,KAU028,2016,2,5,19,57,26.08,5,12.05,41.52,83.12,63.44,236.7,17203600.MNS, NANO,20160200000000.0,152,y,59.40999985,2016-02-05 19:57:29.934,-0.1356627651080766,13064.0,-1.3228238805532693,14104.0,547.8,14.64,6.6,99,2.5,22.922,120.54383333333334
24784.0,1103.0,1914.0,-1.0052238,-1.0212373444578484,22.8858,120.6647,256.0,KAU069,2016,2,5,19,57,26.08,6,13.03,140.28,285.92,259.24,225.6,40503600.MNS, NANO,20160200000000.0,108,y,60.15999985,2016-02-05 19:57:29.947,0.494993669222118,12808.0,-0.9978555459193008,12826.0,512.65,14.64,6.6,99,2.5,22.922,120.54383333333334
24784.0,1289.0,4371.0,-1.2372028,-1.0102906366218605,22.8215,120.4306,323.0,KAU053,2016,2,5,19,57,26.08,5,16.08,30.88,86.0,56.02,120.0,B9003600.SMT, SMTA,20160200000000.0,226,y,31.29500008,2016-02-05 19:57:30.876,-0.0641901250611185,9643.0,-0.9965811292574122,9326.0,863.23,14.64,6.6,99,2.5,22.922,120.54383333333334
24784.0,1293.0,4752.0,-1.0494288,-1.237154610439566,22.781,120.4958,43.0,KAU070,2016,2,5,19,57,26.08,4,16.37,29.54,69.24,50.48,300.0,N4603600.SMT, SMTA,20160200000000.0,198,y,91.08499908,2016-02-05 19:57:30.894,-0.1671689827191288,19436.0,-1.214087289577178,21662.0,289.39,14.64,6.6,99,2.5,22.922,120.54383333333334
24784.0,1295.0,3352.0,-1.1069677,-0.6622232376730045,22.8772,120.3791,36.0,KAU012,2016,2,5,19,57,26.08,5,17.61,93.86,180.08,210.66,120.0,F2103600.SMT, SMTA,20160200000000.0,254,y,31.95999908,2016-02-05 19:57:30.905,0.3444276568045009,8350.0,-0.5978381953083332,8385.0,304.66,14.64,6.6,99,2.5,22.922,120.54383333333334
24784.0,1313.0,3684.0,-1.3260136,-1.220710193377769,22.754,120.5759,59.0,KAU029,2016,2,5,19,57,26.08,5,18.89,39.62,89.3,67.96,120.0,F0103600.SMT, SMTA,20160200000000.0,170,y,31.52000046,2016-02-05 19:57:30.995,-0.0754782838326867,7469.0,-1.2337631667821003,7454.0,351.91,14.64,6.6,99,2.5,22.922,120.54383333333334
24784.0,1319.0,2502.0,-1.437662,-0.7346498365593946,23.0804,120.5908,282.0,KAU047,2016,2,5,19,57,26.08,5,18.18,70.46,195.4,191.76,120.0,C4403600.SMT, SMTA,20160200000000.0,15,y,30.29999924,2016-02-05 19:57:31.028,0.3500438726874816,7298.0,-0.7332195566190868,7248.0,462.88,14.64,6.6,99,2.5,22.922,120.54383333333334
24784.0,1372.0,3286.0,-0.9536663,-0.3826207482680284,22.9043,120.3517,44.0,CHY065,2016,2,5,19,57,26.08,5,19.81,121.7,165.92,161.9,112.0,15803600.CVA, CVA ,20160200000000.0,264,y,18.91500092,2016-02-05 19:57:31.294,0.3327913240877754,5644.0,-0.365213183489136,5695.0,222.69,14.64,6.6,99,2.5,22.922,120.54383333333334
24784.0,1450.0,3854.0,-1.1081431,-0.6548990812666119,22.884,120.329,28.0,KAU085,2016,2,5,19,57,26.08,5,22.43,72.82,146.78,149.22,300.0,M2503600.SMT, SMTA,20160200000000.0,259,y,92.30500031,2016-02-05 19:57:31.684,0.2505003431979963,20602.0,-0.6731294855597009,20486.0,255.81,14.64,6.6,99,2.5,22.922,120.54383333333334
24784.0,1479.0,2586.0,-1.396281,-0.8798878604085565,22.7068,120.6465,150.0,KAU078,2016,2,5,19,57,26.08,6,25.98,137.8,108.0,274.82,300.0,L6003600.SMT, SMTA,20160200000000.0,156,y,91.96499634,2016-02-05 19:57:31.824,0.4903108531227885,19463.0,-0.8862539659442806,19484.0,553.05,14.64,6.6,99,2.5,22.922,120.54383333333334
24784.0,1529.0,4251.0,-1.091116,-0.8844171283719088,22.7234,120.4987,31.0,KAU048,2016,2,5,19,57,26.08,4,22.47,13.44,33.4,60.34,120.0,C1103600.SMT, SMTA,20160200000000.0,192,y,32.31499863,2016-02-05 19:57:32.078,-0.2221515047062929,9146.0,-0.8595095799989264,9174.0,194.95,14.64,6.6,99,2.5,22.922,120.54383333333334
24784.0,1602.0,4162.0,-1.2092956,-1.1545024837865026,22.7162,120.4468,69.0,KAU021,2016,2,5,19,57,26.08,4,21.72,28.14,49.86,35.3,120.0,C8903600.SMT, SMTA,20160200000000.0,209,y,32.15499878,2016-02-05 19:57:32.439,-0.2869201592119146,9760.0,-1.092098960194528,9007.0,515.06,14.64,6.6,99,2.5,22.922,120.54383333333334
24784.0,1631.0,4603.0,-1.0517025,-0.9524984637196924,22.6979,120.507,35.0,KAU026,2016,2,5,19,57,26.08,4,25.11,17.02,40.9,37.96,300.0,L6503600.SMT, SMTA,20160200000000.0,189,y,93.09999847,2016-02-05 19:57:32.588,-0.3914171636051439,21658.0,-0.9665061066553432,21585.0,275.15,14.64,6.6,99,2.5,22.922,120.54383333333334
24784.0,1631.0,5630.0,-1.169042,-1.0495590322266024,22.7927,120.303,12.0,KAU086,2016,2,5,19,57,26.08,4,28.56,34.06,60.12,64.24,300.0,N3703600.SMT, SMTA,20160200000000.0,240,y,93.38999939,2016-02-05 19:57:32.588,-0.1408537759569563,21119.0,-1.0307680382767683,22537.0,213.47,14.64,6.6,99,2.5,22.922,120.54383333333334
24784.0,1633.0,5178.0,-1.5708613,-1.6130342958186776,22.6672,120.6014,59.0,KAU072,2016,2,5,19,57,26.08,4,28.83,20.34,23.18,25.36,300.0,L9203600.SMT, SMTA,20160200000000.0,168,y,92.79000092,2016-02-05 19:57:32.597,-0.5346030608306933,20333.0,-1.6410111945650503,22627.0,487.13,14.64,6.6,99,2.5,22.922,120.54383333333334
24784.0,1655.0,4023.0,-1.0095766,-0.7350565157444969,22.8675,120.2643,23.0,KAU009,2016,2,5,19,57,26.08,5,29.3,34.02,104.38,95.36,272.5,11903600.MNS, NANO,20160200000000.0,258,y,58.95000076,2016-02-05 19:57:32.708,0.0266848714358357,14035.0,-0.7928925907568366,14000.0,270.54,14.64,6.6,99,2.5,22.922,120.54383333333334
24784.0,1660.0,3356.0,-1.1525809,-0.1252416809151383,23.0753,120.3641,55.0,CHY089,2016,2,5,19,57,26.08,6,25.06,102.86,282.92,394.52,120.0,C1703600.SMT, SMTA,20160200000000.0,313,y,33.21500015,2016-02-05 19:57:32.730,0.5814493432303169,8448.0,-0.0943802073586039,8329.0,396.2,14.64,6.6,99,2.5,22.922,120.54383333333334
24784.0,1664.0,4682.0,-1.2515459,-1.0426876637697693,22.6929,120.4901,28.0,KAU095,2016,2,5,19,57,26.08,4,25.97,18.94,31.74,40.58,300.0,M3403600.SMT, SMTA,20160200000000.0,192,y,92.97499847,2016-02-05 19:57:32.751,-0.3938283729879777,21953.0,-0.996576156796321,21625.0,260.49,14.64,6.6,99,2.5,22.922,120.54383333333334
24784.0,1679.0,3091.0,-1.4528067,-0.9795172039576162,23.185,120.5285,216.0,CHY079,2016,2,5,19,57,26.08,5,29.17,82.6,145.6,122.76,120.0,D7503600.SMT, SMTA,20160200000000.0,357,y,33.08000183,2016-02-05 19:57:32.829,0.1693084917406438,8147.0,-0.9481132973598704,8012.0,625.94,14.64,6.6,99,2.5,22.922,120.54383333333334
24784.0,1692.0,4335.0,-1.1859299,-1.139948188676044,22.7858,120.2865,12.0,KAU010,2016,2,5,19,57,26.08,4,30.42,33.64,56.1,39.26,300.0,N3303600.SMT, SMTA,20160200000000.0,240,y,93.625,2016-02-05 19:57:32.890,-0.2515776578051839,21611.0,-1.0131702349298828,24775.0,236.89,14.64,6.6,99,2.5,22.922,120.54383333333334
24784.0,1702.0,4534.0,-1.4231069,-1.1105954943121803,22.7303,120.3455,22.0,KAU066,2016,2,5,19,57,26.08,4,29.41,50.54,62.84,69.6,274.0,40903600.MNS, NANO,20160200000000.0,224,y,59.93500137,2016-02-05 19:57:32.943,-0.131855616985986,14949.0,-1.0831265466701936,14946.0,228.62,14.64,6.6,99,2.5,22.922,120.54383333333334
24784.0,1706.0,3119.0,-1.4295717,-0.717382264124645,23.1823,120.4857,99.0,CHY118,2016,2,5,19,57,26.08,5,29.44,47.56,169.58,145.84,120.0,D4903600.SMT, SMTA,20160200000000.0,348,y,33.15000153,2016-02-05 19:57:32.960,0.344308132559818,8007.0,-0.7852461067428376,8027.0,307.98,14.64,6.6,99,2.5,22.922,120.54383333333334
24784.0,1710.0,4008.0,-1.3817258,-1.2117030135104323,22.7522,120.3116,16.0,KAU065,2016,2,5,19,57,26.08,4,30.37,29.1,56.0,52.28,300.0,N4903600.SMT, SMTA,20160200000000.0,232,y,94.12999725,2016-02-05 19:57:32.980,-0.1930112552540352,21318.0,-1.1955794707895075,20987.0,244.86,14.64,6.6,99,2.5,22.922,120.54383333333334
24784.0,1714.0,5065.0,-1.2378182,-1.1576070811599752,22.6817,120.4855,30.0,KAU025,2016,2,5,19,57,26.08,4,27.28,20.96,31.9,39.72,300.0,N2503600.SMT, SMTA,20160200000000.0,193,y,93.21499634,2016-02-05 19:57:33.003,-0.3488140449699344,21631.0,-1.1177287924602353,21702.0,272.47,14.64,6.6,99,2.5,22.922,120.54383333333334
24784.0,1731.0,4640.0,-1.3457164,-1.156300659970229,22.6767,120.4961,29.0,KAU023,2016,2,5,19,57,26.08,4,27.61,17.96,28.54,34.48,120.0,D0303600.SMT, SMTA,20160200000000.0,190,y,33.34500122,2016-02-05 19:57:33.087,-0.4243590856750432,9341.0,-1.1196778802024443,9443.0,229.86,14.64,6.6,99,2.5,22.922,120.54383333333334
24784.0,1763.0,4700.0,-1.4293393,-1.0683734965415344,22.6592,120.5091,26.0,KAU027,2016,2,5,19,57,26.08,4,29.32,19.88,33.66,39.34,300.0,N5303600.SMT, SMTA,20160200000000.0,187,y,93.72000122,2016-02-05 19:57:33.249,-0.3555216506421476,21745.0,-1.079676263750485,21533.0,247.33,14.64,6.6,99,2.5,22.922,120.54383333333334
24784.0,1769.0,4755.0,-1.3579102,-1.2828368324805757,22.6633,120.4803,23.0,KAU024,2016,2,5,19,57,26.08,4,29.38,16.84,38.64,38.28,300.0,N3103600.SMT, SMTA,20160200000000.0,193,y,93.55500031,2016-02-05 19:57:33.275,-0.3080954303676648,21476.0,-1.2661536207649615,21504.0,220.6,14.64,6.6,99,2.5,22.922,120.54383333333334
24784.0,1771.0,4689.0,-1.3018167,-1.2077430106878957,22.7279,120.3165,13.0,KAU059,2016,2,5,19,57,26.08,4,31.72,17.3,47.46,40.06,300.0,N3803600.SMT, SMTA,20160200000000.0,227,y,94.09500122,2016-02-05 19:57:33.286,-0.3151357092841436,21698.0,-1.2219147218438722,21723.0,229.55,14.64,6.6,99,2.5,22.922,120.54383333333334
24784.0,1777.0,3498.0,-0.9698145,-0.2793378090122358,23.1196,120.3613,28.0,CHY131,2016,2,5,19,57,26.08,6,28.72,167.62,260.5,263.14,110.0,16703600.CVA, CVA ,20160200000000.0,319,y,18.74500084,2016-02-05 19:57:33.317,0.4954507824526005,5368.0,-0.2235453107604455,5483.0,457.69,14.64,6.6,99,2.5,22.922,120.54383333333334
24784.0,1791.0,4560.0,-1.3140877,-1.1553269789060414,22.6477,120.5214,25.0,KAU071,2016,2,5,19,57,26.08,4,30.47,16.28,43.8,50.96,300.0,N5003600.SMT, SMTA,20160200000000.0,184,y,93.67500305,2016-02-05 19:57:33.389,-0.2827759056903625,21732.0,-1.1856662083812954,21490.0,238.71,14.64,6.6,99,2.5,22.922,120.54383333333334
24784.0,1792.0,4473.0,-1.3339443,-1.0074336095872154,22.7015,120.3488,21.0,KAU014,2016,2,5,19,57,26.08,5,31.57,37.1,80.04,68.98,120.0,F3103600.SMT, SMTA,20160200000000.0,219,y,34.15499878,2016-02-05 19:57:33.393,-0.0322999252243816,9445.0,-1.0042381021753335,9513.0,243.09,14.64,6.6,99,2.5,22.922,120.54383333333334
24784.0,1801.0,8830.0,-1.1526823,-1.070031097657638,22.7601,120.2643,12.0,KAU011,2016,2,5,19,57,26.08,5,33.82,40.4,59.88,83.38,300.0,M9303600.SMT, SMTA,20160200000000.0,238,y,94.35500336,2016-02-05 19:57:33.437,-0.062712964688282,21663.0,-1.0573761051584594,21791.0,145.35,14.64,6.6,99,2.5,22.922,120.54383333333334
24784.0,1830.0,3319.0,-1.1923591,-1.3187784110636358,23.1607,120.7656,642.0,KAU050,2016,2,5,19,57,26.08,4,34.86,22.48,51.64,55.82,120.0,C4303600.SMT, SMTA,20160200000000.0,41,y,33.97000122,2016-02-05 19:57:33.581,-0.1563303104055222,8112.0,-1.313178717765264,8100.0,650.81,14.64,6.6,99,2.5,22.922,120.54383333333334
24784.0,1835.0,3679.0,-1.027345,-0.6547808634574067,22.9813,120.2407,31.0,CHY096,2016,2,5,19,57,26.08,5,31.77,163.8,138.9,164.68,257.2,33203600.MNS, NANO,20160200000000.0,282,y,60.00500107,2016-02-05 19:57:33.609,0.2572590140348206,13937.0,-0.6156185415516585,13704.0,423.01,14.64,6.6,99,2.5,22.922,120.54383333333334
24784.0,1850.0,4516.0,-1.3721405,-1.28335247240408,22.6552,120.4239,27.0,KAU067,2016,2,5,19,57,26.08,4,32.01,16.28,31.34,29.7,246.4,40303600.MNS, NANO,20160200000000.0,203,y,59.08499908,2016-02-05 19:57:33.681,-0.4982266344232507,14782.0,-1.2638085957317913,14471.0,463.64,14.64,6.6,99,2.5,22.922,120.54383333333334
24784.0,1869.0,3488.0,-1.0411973,-0.5241178005472656,23.003,120.2416,27.0,CHY064,2016,2,5,19,57,26.08,5,32.25,86.64,112.72,136.94,180.0,31303600.MNS, NANO,20160200000000.0,286,y,59.54499817,2016-02-05 19:57:33.777,0.1755347778074341,13567.0,-0.447049834733169,13517.0,351.54,14.64,6.6,99,2.5,22.922,120.54383333333334
24784.0,1889.0,5226.0,-1.5219774,-1.236689120774168,22.6101,120.5672,26.0,KAU030,2016,2,5,19,57,26.08,4,34.61,18.3,39.12,35.08,300.0,N4803600.SMT, SMTA,20160200000000.0,176,y,94.15499878,2016-02-05 19:57:33.876,-0.2976686400949344,22443.0,-1.2341228888464526,22156.0,265.21,14.64,6.6,99,2.5,22.922,120.54383333333334
24784.0,1898.0,3375.0,-1.4991834,-0.9873192701959284,23.2462,120.5364,256.0,CHY109,2016,2,5,19,57,26.08,4,35.93,31.2,40.48,72.22,120.0,B9203600.SMT, SMTA,20160200000000.0,359,y,34.125,2016-02-05 19:57:33.922,-0.0969680345697859,8262.0,-1.065038746078265,8288.0,239.95,14.64,6.6,99,2.5,22.922,120.54383333333334
24784.0,1899.0,3370.0,-1.700356,-1.0428991615044516,23.2476,120.5337,146.0,CHY110,2016,2,5,19,57,26.08,5,36.08,42.14,128.06,143.94,300.0,D7103600.SMT, SMTA,20160200000000.0,358,y,94.13500214,2016-02-05 19:57:33.929,0.180440777935051,20242.0,-1.1016185696286205,20281.0,801.58,14.64,6.6,99,2.5,22.922,120.54383333333334
24784.0,1910.0,3310.0,-1.3146573,-0.9090742412268152,23.2438,120.6223,555.0,CHY102,2016,2,5,19,57,26.08,5,36.54,47.5,170.12,119.08,120.0,D3603600.SMT, SMTA,20160200000000.0,13,y,34.31499863,2016-02-05 19:57:33.983,0.1909976816252131,8262.0,-0.8482037903446471,8247.0,836.12,14.64,6.6,99,2.5,22.922,120.54383333333334
