EQ_ID,p_picks,pgv_time_window,predict,answer,latitude,longitude,elevation,station_name,year,month,day,hour,minute,second,intensity,epdis (km),pga_z,pga_ns,pga_ew,record_time (sec),file_name,instrument_code,start_time,sta_angle,quality_control,p_pick_sec,p_arrival_abs_time,pga,pga_time,pgv,pgv_time_file,Vs30,depth,magnitude,nsta,nearest_sta_dist (km),event_lat,event_lon
24784.0,2990.0,7210.0,-1.6983144,-1.8326330148405103,22.9625,121.2409,189.0,TTN046,2016,2,5,19,57,26.08,3,71.63,6.34,15.16,14.22,69.0,11603600.CVA, CVA ,20160200000000.0,86,y,14.43999958,2016-02-05 19:57:39.385,-0.8080083133436042,5802.0,-1.8844578447041465,6857.0,529.1,14.64,6.6,99,2.5,22.922,120.54383333333334
24784.0,2999.0,5322.0,-1.5067887,-0.4956692036886463,23.5193,120.3512,18.0,CHY039,2016,2,5,19,57,26.08,5,69.03,22.98,205.28,219.62,115.0,17703600.CVA, CVA ,20160200000000.0,343,y,18.09499931,2016-02-05 19:57:39.428,0.3859871206252435,5883.0,-0.497294553018661,5929.0,195.15,14.64,6.6,99,2.5,22.922,120.54383333333334
24784.0,3004.0,5414.0,-1.5600958,-0.5793763825333101,23.4835,120.2395,7.0,CHY123,2016,2,5,19,57,26.08,5,69.55,21.1,185.1,169.54,180.0,F2203600.SMT, SMTA,20160200000000.0,333,y,39.43999863,2016-02-05 19:57:39.449,0.3066123048954992,10257.0,-0.6187574780266635,10280.0,212.45,14.64,6.6,99,2.5,22.922,120.54383333333334
24784.0,3012.0,5403.0,-1.6167182,-0.6669420367111313,23.5343,120.4555,49.0,CHY038,2016,2,5,19,57,26.08,5,68.41,48.34,223.86,239.6,249.4,37603600.MNS, NANO,20160200000000.0,352,y,59.68000031,2016-02-05 19:57:39.490,0.4427686325285574,14323.0,-0.6110608310454485,14312.0,372.88,14.64,6.6,99,2.5,22.922,120.54383333333334
24784.0,3017.0,6789.0,-1.9714755,-1.303508828019614,22.261209,120.651519,16.0,KAU037,2016,2,5,19,57,26.08,4,74.01,8.34,34.82,22.94,225.6,12103600.MNS, NANO,20160200000000.0,171,y,53.31000137,2016-02-05 19:57:39.519,-0.4261564615417268,14378.0,-1.2993958904693772,14421.0,277.3,14.64,6.6,99,2.5,22.922,120.54383333333334
24784.0,3066.0,5264.0,-1.9526634,-2.0639064592712058,23.1492,121.2072,311.0,TTN040,2016,2,5,19,57,26.08,3,72.48,7.06,10.0,8.54,62.0,09603600.CVA, CVA ,20160200000000.0,70,y,16.86499977,2016-02-05 19:57:39.763,-0.9410520148021017,5824.0,-2.0632833977091334,5505.0,726.57,14.64,6.6,99,2.5,22.922,120.54383333333334
24784.0,3088.0,5498.0,-1.5922952,-0.5583979667465273,23.5546,120.4292,30.0,CHY037,2016,2,5,19,57,26.08,6,71.02,56.98,212.08,271.08,107.0,18003600.CVA, CVA ,20160200000000.0,350,y,18.43000031,2016-02-05 19:57:39.872,0.4777988937107644,5961.0,-0.523014738844741,6079.0,208.78,14.64,6.6,99,2.5,22.922,120.54383333333334
24784.0,3091.0,6450.0,-1.8867555,-1.5889686843415227,23.0952,121.2192,286.0,TTN022,2016,2,5,19,57,26.08,3,71.83,15.26,22.1,19.04,120.0,F2603600.SMT, SMTA,20160200000000.0,75,y,40.58000183,2016-02-05 19:57:39.887,-0.627184060948899,11429.0,-1.619805209037898,11355.0,503.22,14.64,6.6,99,2.5,22.922,120.54383333333334
24784.0,3091.0,5247.0,-1.9596914,-1.7379259213087903,23.1259,121.2147,278.0,TTN020,2016,2,5,19,57,26.08,3,72.36,7.26,16.38,11.2,224.0,42203600.MNS, NANO,20160200000000.0,72,y,59.40999985,2016-02-05 19:57:39.887,-0.7336689892716418,14045.0,-1.7513124474952957,14023.0,514.45,14.64,6.6,99,2.5,22.922,120.54383333333334
24784.0,3120.0,5682.0,-1.6206818,-0.7078014489115436,23.5796,120.5601,173.0,CHY006,2016,2,5,19,57,26.08,5,72.83,44.9,151.66,159.66,120.0,D9503600.SMT, SMTA,20160200000000.0,1,y,40.18999863,2016-02-05 19:57:40.033,0.2492998678402476,10602.0,-0.7345908861030168,10585.0,422.68,14.64,6.6,99,2.5,22.922,120.54383333333334
24784.0,3121.0,5620.0,-1.5645055,-0.5402497342363642,23.5547,120.3453,16.0,CHY105,2016,2,5,19,57,26.08,5,72.95,25.68,188.92,179.04,286.3,34103600.MNS, NANO,20160200000000.0,344,y,59.18999863,2016-02-05 19:57:40.038,0.3255617126366527,14288.0,-0.5650988656910326,14322.0,204.36,14.64,6.6,99,2.5,22.922,120.54383333333334
24784.0,3137.0,5735.0,-1.7973797,-0.381727174396178,23.5972,120.6769,799.0,CHY080,2016,2,5,19,57,26.08,6,76.03,90.2,233.98,334.0,120.0,G7003600.SMT, SMTA,20160200000000.0,10,y,40.88999939,2016-02-05 19:57:40.114,0.5963447708218803,10720.0,-0.365100876887406,10696.0,499.17,14.64,6.6,99,2.5,22.922,120.54383333333334
24784.0,3174.0,6723.0,-1.9501997,-1.471860328508821,22.3467,120.3691,38.0,KAU084,2016,2,5,19,57,26.08,3,66.19,8.98,19.14,15.84,120.0,B9803600.SMT, SMTA,20160200000000.0,196,y,40.70000076,2016-02-05 19:57:40.303,-0.6837967282123777,11833.0,-1.416143614216703,11770.0,525.64,14.64,6.6,99,2.5,22.922,120.54383333333334
24784.0,3187.0,5744.0,-1.612554,-0.6052512287706061,23.5391,120.2253,5.0,CHY033,2016,2,5,19,57,26.08,5,75.72,30.46,136.86,105.58,277.0,20603600.MNS, NANO,20160200000000.0,335,y,58.34999847,2016-02-05 19:57:40.366,0.1861381336851249,14248.0,-0.6311610083145546,14215.0,193.32,14.64,6.6,99,2.5,22.922,120.54383333333334
24784.0,3188.0,5784.0,-1.7525276,-1.7050516109921017,22.9991,121.2852,75.0,TTN042,2016,2,5,19,57,26.08,3,76.49,9.02,23.94,16.44,71.0,09403600.CVA, CVA ,20160200000000.0,84,y,16.07500076,2016-02-05 19:57:40.370,-0.612144566062952,5772.0,-1.6797791432562832,5795.0,824.52,14.64,6.6,99,2.5,22.922,120.54383333333334
24784.0,3215.0,7148.0,-1.6745846,-1.813541448801078,22.9725,121.304,46.0,TTN002,2016,2,5,19,57,26.08,3,78.2,9.2,17.66,17.7,66.0,12803600.CVA, CVA ,20160200000000.0,86,y,16.17000008,2016-02-05 19:57:40.505,-0.6927004799125875,6154.0,-1.8281317815509528,6524.0,663.94,14.64,6.6,99,2.5,22.922,120.54383333333334
24784.0,3222.0,6114.0,-1.8073742,-1.4193595629939155,23.4875,120.9591,3805.0,CHY121,2016,2,5,19,57,26.08,4,75.68,16.46,43.24,49.22,120.0,J1203600.SMT, SMTA,20160200000000.0,34,y,40.40499878,2016-02-05 19:57:40.541,-0.2864721957496561,10966.0,-1.4217629622015833,10957.0,328.58,14.64,6.6,99,2.5,22.922,120.54383333333334
24784.0,3227.0,5685.0,-1.6779753,-0.749123511451212,23.6052,120.4881,48.0,CHY036,2016,2,5,19,57,26.08,5,75.87,18.66,124.4,108.68,143.0,17303600.CVA, CVA ,20160200000000.0,356,y,19.30999947,2016-02-05 19:57:40.568,0.0919556103454385,6315.0,-0.7393194930624709,6306.0,236.05,14.64,6.6,99,2.5,22.922,120.54383333333334
24784.0,3231.0,6067.0,-1.7296131,-1.6027652047425485,23.1727,121.2483,244.0,HWA004,2016,2,5,19,57,26.08,4,77.34,10.22,26.68,33.9,79.0,11503600.CVA, CVA ,20160200000000.0,69,y,15.69499969,2016-02-05 19:57:40.593,-0.4109060378878024,5933.0,-1.613799950443903,5959.0,319.59,14.64,6.6,99,2.5,22.922,120.54383333333334
24784.0,3249.0,5778.0,-1.7629822,-0.9595816266572308,23.6125,120.5373,111.0,CHY029,2016,2,5,19,57,26.08,5,76.47,31.92,80.14,86.84,238.3,18103600.MNS, NANO,20160200000000.0,0,y,58.84500122,2016-02-05 19:57:40.675,-0.0660876974541253,14223.0,-0.9752508146975838,14283.0,541.66,14.64,6.6,99,2.5,22.922,120.54383333333334
24784.0,3255.0,5855.0,-1.701414,-0.4712342660983656,23.61,120.4217,21.0,CHY005,2016,2,5,19,57,26.08,5,77.21,31.66,206.22,227.62,268.8,31103600.MNS, NANO,20160200000000.0,351,y,59.04000092,2016-02-05 19:57:40.707,0.3987296124756042,14453.0,-0.4557591429980869,14395.0,211.03,14.64,6.6,99,2.5,22.922,120.54383333333334
24784.0,3287.0,5873.0,-1.707716,-0.7718634555662025,23.6308,120.6157,309.0,CHY028,2016,2,5,19,57,26.08,5,78.84,56.22,175.36,244.44,82.0,16603600.CVA, CVA ,20160200000000.0,5,y,18.08499908,2016-02-05 19:57:40.867,0.3804592855347353,6246.0,-0.7654326445064916,6190.0,546.91,14.64,6.6,99,2.5,22.922,120.54383333333334
24784.0,3296.0,6481.0,-1.9789958,-1.729431451399779,23.2199,121.2645,207.0,HWA042,2016,2,5,19,57,26.08,3,80.87,7.84,15.74,13.8,222.6,14403600.MNS, NANO,20160200000000.0,66,y,59.25500107,2016-02-05 19:57:40.912,-0.745156377172282,14233.0,-1.6830530374827226,15022.0,547.99,14.64,6.6,99,2.5,22.922,120.54383333333334
24784.0,3327.0,6816.0,-2.1914833,-1.8221914127073675,22.19,120.6925,14.0,KAU038,2016,2,5,19,57,26.08,3,82.49,5.3,13.18,12.36,300.0,N4703600.SMT, SMTA,20160200000000.0,169,y,102.3150024,2016-02-05 19:57:41.066,-0.8738305440336164,24133.0,-1.762239801268782,23978.0,660.36,14.64,6.6,99,2.5,22.922,120.54383333333334
24784.0,3340.0,5949.0,-1.5301489,-0.8054091131800986,23.642,120.4838,43.0,CHY030,2016,2,5,19,57,26.08,5,79.97,14.98,83.2,102.14,103.0,17803600.CVA, CVA ,20160200000000.0,356,y,16.70499992,2016-02-05 19:57:41.133,0.0945793757926815,5877.0,-0.8195825123105136,5935.0,207.88,14.64,6.6,99,2.5,22.922,120.54383333333334
24784.0,3346.0,6371.0,-1.5465784,-0.5273414697544511,23.6345,120.7193,1557.0,CHY136,2016,2,5,19,57,26.08,6,80.9,99.96,289.8,222.12,300.0,M0203600.SMT, SMTA,20160200000000.0,13,y,101.2050018,2016-02-05 19:57:41.164,0.5515167900799957,23274.0,-0.5063886552148218,23252.0,346.4,14.64,6.6,99,2.5,22.922,120.54383333333334
24784.0,3364.0,6473.0,-1.5026069,-1.8075128989090776,23.027,121.3308,28.0,TTN043,2016,2,5,19,57,26.08,3,81.52,5.86,11.34,16.7,71.0,09303600.CVA, CVA ,20160200000000.0,82,y,14.75500011,2016-02-05 19:57:41.255,-0.7733356499619991,6181.0,-1.78030413657751,6963.0,490.6,14.64,6.6,99,2.5,22.922,120.54383333333334
24784.0,3399.0,6031.0,-1.6629654,-0.7695810986390599,23.5996,120.1795,2.0,CHY004,2016,2,5,19,57,26.08,5,83.79,25.06,112.46,108.44,268.3,16303600.MNS, NANO,20160200000000.0,334,y,59.60499954,2016-02-05 19:57:41.425,0.0541371056799889,14507.0,-0.8192320657115281,14539.0,272.98,14.64,6.6,99,2.5,22.922,120.54383333333334
24784.0,3448.0,6121.0,-1.5730199,-0.7681164178478979,23.6363,120.2298,8.0,CHY076,2016,2,5,19,57,26.08,5,85.38,26.72,161.12,138.12,180.0,B8003600.SMT, SMTA,20160200000000.0,338,y,41.84500122,2016-02-05 19:57:41.672,0.2273698351299733,11123.0,-0.7910747326321663,11027.0,170.89,14.64,6.6,99,2.5,22.922,120.54383333333334
24784.0,3473.0,7960.0,-1.7878362,-1.7596674859015582,23.2648,121.3026,175.0,HWA041,2016,2,5,19,57,26.08,3,86.51,14.36,11.88,18.74,232.7,32903600.MNS, NANO,20160200000000.0,64,y,59.38499832,2016-02-05 19:57:41.794,-0.7186933794034897,15362.0,-1.771658472178368,16410.0,481.85,14.64,6.6,99,2.5,22.922,120.54383333333334
24784.0,3487.0,6228.0,-1.770827,-0.8210080802681389,23.6844,120.5703,80.0,CHY101,2016,2,5,19,57,26.08,5,84.49,19.1,102.72,106.68,120.0,C0103600.SMT, SMTA,20160200000000.0,2,y,42.11000061,2016-02-05 19:57:41.867,0.0248595047176996,11193.0,-0.8521141768623363,11147.0,252.37,14.64,6.6,99,2.5,22.922,120.54383333333334
24784.0,3519.0,6715.0,-1.6633875,-0.8183705055294914,23.6646,120.7685,1660.0,TCU167,2016,2,5,19,57,26.08,5,85.38,29.32,132.46,74.54,300.0,L7303600.SMT, SMTA,20160200000000.0,16,y,102.0350037,2016-02-05 19:57:42.027,0.1646001968784173,23549.0,-0.8264711833158978,23517.0,363.85,14.64,6.6,99,2.5,22.922,120.54383333333334
24784.0,3526.0,6188.0,-1.6872149,-0.8930722992937302,23.6988,120.5305,47.0,CHY126,2016,2,5,19,57,26.08,5,86.02,62.68,94.42,103.02,106.0,04703600.CVA, CVA ,20160200000000.0,359,y,16.67499924,2016-02-05 19:57:42.066,0.0413946668700149,6012.0,-0.8381535559022196,5983.0,332.46,14.64,6.6,99,2.5,22.922,120.54383333333334
24784.0,3530.0,6331.0,-1.6792874,-0.8281792016780892,23.69951,120.53902,55.0,CHY103,2016,2,5,19,57,26.08,5,86.11,21.0,102.94,146.24,120.0,D6003600.SMT, SMTA,20160200000000.0,0,y,42.40000153,2016-02-05 19:57:42.081,0.1701382009062657,11216.0,-0.7983398225471287,11193.0,223.66,14.64,6.6,99,2.5,22.922,120.54383333333334
24784.0,3548.0,6581.0,-1.767977,-1.7881662965862504,23.0978,121.3731,37.0,TTN014,2016,2,5,19,57,26.08,3,87.21,7.18,12.44,13.88,120.0,C4603600.SMT, SMTA,20160200000000.0,77,y,42.47000122,2016-02-05 19:57:42.174,-0.8035112075494509,12092.0,-1.7646588269602037,11513.0,539.62,14.64,6.6,99,2.5,22.922,120.54383333333334
24784.0,3558.0,6332.0,-1.6260005,-0.8514580486742293,23.6513,120.1552,3.0,CHY093,2016,2,5,19,57,26.08,5,90.02,31.9,91.94,128.14,274.8,16003600.MNS, NANO,20160200000000.0,334,y,59.04000092,2016-02-05 19:57:42.224,0.1042335696182389,14402.0,-0.8384368989442018,14471.0,191.39,14.64,6.6,99,2.5,22.922,120.54383333333334
24784.0,3575.0,6266.0,-1.7504793,-0.9488071694698929,23.7149,120.5385,52.0,CHY003,2016,2,5,19,57,26.08,4,87.8,19.9,73.18,68.18,180.0,D5303600.SMT, SMTA,20160200000000.0,0,y,42.88499832,2016-02-05 19:57:42.305,-0.0254360164667182,11284.0,-0.8879947978680477,11255.0,183.19,14.64,6.6,99,2.5,22.922,120.54383333333334
24784.0,3594.0,6412.0,-1.8081256,-0.8214813277569716,23.7168,120.4201,27.0,CHY002,2016,2,5,19,57,26.08,5,89.0,29.3,93.92,102.78,271.4,14903600.MNS, NANO,20160200000000.0,352,y,58.68500137,2016-02-05 19:57:42.403,0.0442501921737602,14469.0,-0.8137153117385886,14457.0,229.62,14.64,6.6,99,2.5,22.922,120.54383333333334
24784.0,3594.0,7783.0,-2.2734938,-2.1452643473429225,23.3508,121.3053,254.0,HWA024,2016,2,5,19,57,26.08,2,91.3,3.36,4.26,5.24,120.0,E9703600.SMT, SMTA,20160200000000.0,59,y,42.73500061,2016-02-05 19:57:42.403,-1.258902965778676,12261.0,-2.1878547589396056,13606.0,693.6,14.64,6.6,99,2.5,22.922,120.54383333333334
24784.0,3599.0,8730.0,-2.0196545,-1.85827219332338,23.3292,121.3194,129.0,HWA065,2016,2,5,19,57,26.08,3,91.33,5.46,11.08,15.0,225.6,35703600.MNS, NANO,20160200000000.0,60,y,58.03499985,2016-02-05 19:57:42.427,-0.8427404768422001,15007.0,-1.8425752260003287,15144.0,371.26,14.64,6.6,99,2.5,22.922,120.54383333333334
24784.0,3612.0,6297.0,-1.8720835,-0.8121653608051851,23.7222,120.5858,69.0,CHY083,2016,2,5,19,57,26.08,5,88.72,19.66,126.18,87.54,120.0,C0003600.SMT, SMTA,20160200000000.0,3,y,43.43999863,2016-02-05 19:57:42.490,0.1080136580440881,11395.0,-0.8334678866829445,11360.0,374.02,14.64,6.6,99,2.5,22.922,120.54383333333334
24784.0,3614.0,6438.0,-1.7668444,-0.8720461052373837,23.7268,120.464,32.0,CHY084,2016,2,5,19,57,26.08,5,89.5,30.54,70.44,90.04,250.3,30203600.MNS, NANO,20160200000000.0,355,y,58.77999878,2016-02-05 19:57:42.501,-0.0334634321459207,14699.0,-0.8460738207948778,14487.0,259.07,14.64,6.6,99,2.5,22.922,120.54383333333334
24784.0,3614.0,6448.0,-1.8251637,-0.9595539848809064,23.7046,120.2491,8.0,CHY001,2016,2,5,19,57,26.08,5,91.77,34.82,85.62,100.58,284.8,19903600.MNS, NANO,20160200000000.0,341,y,59.43999863,2016-02-05 19:57:42.501,0.0398060563337779,14607.0,-0.9700068845523534,14582.0,229.88,14.64,6.6,99,2.5,22.922,120.54383333333334
24784.0,3630.0,6407.0,-1.7820292,-1.0110830243720157,23.7227,120.3067,11.0,CHY082,2016,2,5,19,57,26.08,5,91.93,27.78,93.04,128.32,283.5,20003600.MNS, NANO,20160200000000.0,345,y,58.86500168,2016-02-05 19:57:42.583,0.1126178361952739,14345.0,-0.9853426796040504,14377.0,194.81,14.64,6.6,99,2.5,22.922,120.54383333333334
24784.0,3643.0,8422.0,-1.7959151,-1.6581087425425736,23.3207,121.34,152.0,HWA055,2016,2,5,19,57,26.08,3,92.72,9.54,18.82,16.44,78.0,09503600.CVA, CVA ,20160200000000.0,62,y,13.67000008,2016-02-05 19:57:42.652,-0.6638703198365411,6078.0,-1.6247288722058375,7500.0,524.43,14.64,6.6,99,2.5,22.922,120.54383333333334
24784.0,3652.0,6420.0,-1.7083949,-1.0116275916596076,23.7025,120.193,3.0,CHY112,2016,2,5,19,57,26.08,5,93.59,26.58,78.16,85.92,271.9,12703600.MNS, NANO,20160200000000.0,337,y,58.84000015,2016-02-05 19:57:42.694,-0.0263417339006126,14464.0,-0.9598519884019554,14434.0,239.71,14.64,6.6,99,2.5,22.922,120.54383333333334
24784.0,3712.0,6674.0,-2.0150654,-1.2729071822795517,23.7553,120.6156,101.0,CHY024,2016,2,5,19,57,26.08,4,92.58,23.44,70.32,79.34,227.7,14303600.MNS, NANO,20160200000000.0,5,y,58.54000092,2016-02-05 19:57:42.990,-0.0823084924632047,14630.0,-1.3150622799907248,14653.0,408.5,14.64,6.6,99,2.5,22.922,120.54383333333334
24784.0,3721.0,6736.0,-1.9130814,-0.978859341412292,23.2573,119.6675,34.0,CHY124,2016,2,5,19,57,26.08,4,97.15,36.06,59.06,44.72,120.0,I9703600.SMT, SMTA,20160200000000.0,292,y,42.47999954,2016-02-05 19:57:43.034,-0.1193493113023448,11470.0,-1.055870680091354,11408.0,819.2,14.64,6.6,99,2.5,22.922,120.54383333333334
24784.0,3722.0,8027.0,-2.3463774,-2.2107742861418416,23.4064,121.3204,137.0,HWA053,2016,2,5,19,57,26.08,2,95.9,3.7,4.58,6.3,47.0,11303600.CVA, CVA ,20160200000000.0,56,y,3.440000057,2016-02-05 19:57:43.046,-1.1656537939108136,3974.0,-2.160270890439464,4786.0,829.07,14.64,6.6,99,2.5,22.922,120.54383333333334
24784.0,3738.0,6642.0,-1.7847266,-1.0742601232580302,23.751,120.2543,10.0,CHY027,2016,2,5,19,57,26.08,5,96.35,44.76,86.5,103.66,121.0,16303600.CVA, CVA ,20160200000000.0,342,y,17.07999992,2016-02-05 19:57:43.124,0.0478464730808415,6201.0,-1.0863511427833412,6239.0,209.5,14.64,6.6,99,2.5,22.922,120.54383333333334
24784.0,3747.0,6743.0,-1.999684,-1.3115132811383403,23.7634,120.6862,154.0,TCU126,2016,2,5,19,57,26.08,4,94.3,17.16,42.92,65.24,219.1,24603600.MNS, NANO,20160200000000.0,9,y,58.78499985,2016-02-05 19:57:43.165,-0.1307487177641742,14630.0,-1.3193665680145898,14737.0,469.08,14.64,6.6,99,2.5,22.922,120.54383333333334
24784.0,3752.0,6674.0,-1.7605917,-0.7469437932665766,23.7774,120.5229,47.0,CHY025,2016,2,5,19,57,26.08,5,94.77,25.76,85.12,171.92,240.1,37103600.MNS, NANO,20160200000000.0,359,y,59.50500107,2016-02-05 19:57:43.191,0.2389994394705886,14780.0,-0.7760491132774604,14808.0,276.5,14.64,6.6,99,2.5,22.922,120.54383333333334
24784.0,3773.0,9160.0,-2.0737507,-1.8240594144286253,23.383,121.3593,141.0,HWA039,2016,2,5,19,57,26.08,3,97.87,6.78,15.24,15.18,231.0,36303600.MNS, NANO,20160200000000.0,59,y,58.36999893,2016-02-05 19:57:43.298,-0.7523488091862048,15329.0,-1.758990744315678,16242.0,504.91,14.64,6.6,99,2.5,22.922,120.54383333333334
24784.0,3792.0,6665.0,-1.8185328,-0.889592461569087,23.7889,120.4862,34.0,CHY092,2016,2,5,19,57,26.08,5,96.18,15.22,54.72,122.48,253.4,12503600.MNS, NANO,20160200000000.0,356,y,58.88000107,2016-02-05 19:57:43.393,0.092800968255868,14596.0,-0.9208355436904004,14636.0,252.21,14.64,6.6,99,2.5,22.922,120.54383333333334
24784.0,3813.0,7967.0,-2.0542536,-1.8097163128493328,23.2447,121.4141,31.0,TTN032,2016,2,5,19,57,26.08,3,96.05,4.22,11.24,15.28,300.0,M3303600.SMT, SMTA,20160200000000.0,68,y,103.7600021,2016-02-05 19:57:43.497,-0.8148694882440051,24168.0,-1.8545379155192496,24891.0,736.11,14.64,6.6,99,2.5,22.922,120.54383333333334
24784.0,3840.0,6775.0,-1.8614994,-0.9369227570150194,23.7966,120.4195,27.0,CHY026,2016,2,5,19,57,26.08,5,97.68,30.02,99.66,103.44,264.6,14203600.MNS, NANO,20160200000000.0,353,y,58.64500046,2016-02-05 19:57:43.632,0.0299101007753863,14618.0,-0.9543789104413172,14670.0,220.64,14.64,6.6,99,2.5,22.922,120.54383333333334
24784.0,3842.0,8102.0,-2.1230838,-1.8010677353422544,23.4305,121.3487,93.0,HWA054,2016,2,5,19,57,26.08,3,99.8,5.36,8.68,9.6,217.5,33603600.MNS, NANO,20160200000000.0,56,y,57.25,2016-02-05 19:57:43.642,-0.9619694158596526,15569.0,-1.7157675402671024,15696.0,521.6,14.64,6.6,99,2.5,22.922,120.54383333333334
24784.0,3863.0,6606.0,-1.7428912,-1.0987271490493409,23.7896,120.2335,4.0,CHY111,2016,2,5,19,57,26.08,5,101.19,30.44,84.24,103.18,180.0,D3203600.SMT, SMTA,20160200000000.0,342,y,44.29999924,2016-02-05 19:57:43.744,0.0206661237020091,11597.0,-1.0682642030149596,11588.0,269.64,14.64,6.6,99,2.5,22.922,120.54383333333334
24784.0,3879.0,6825.0,-2.0076287,-1.2363162378636303,23.8118,120.6179,85.0,TCU122,2016,2,5,19,57,26.08,4,98.84,14.24,29.72,56.2,120.0,C9303600.SMT, SMTA,20160200000000.0,4,y,44.43500137,2016-02-05 19:57:43.827,-0.2504175130581731,11793.0,-1.2949952511704697,11818.0,623.58,14.64,6.6,99,2.5,22.922,120.54383333333334
24784.0,3892.0,8109.0,-2.0526876,-1.8462511784736464,22.0569,120.7119,5.0,KAU080,2016,2,5,19,57,26.08,2,97.35,2.5,5.82,7.82,300.0,N5203600.SMT, SMTA,20160200000000.0,170,y,104.6800003,2016-02-05 19:57:43.890,-1.097287875988304,24836.0,-1.7929009780381802,24939.0,399.33,14.64,6.6,99,2.5,22.922,120.54383333333334
24784.0,3912.0,6728.0,-1.8010318,-1.1159036677557033,23.8044,120.2232,10.0,CHY117,2016,2,5,19,57,26.08,4,103.07,53.42,58.88,68.4,180.0,C3403600.SMT, SMTA,20160200000000.0,341,y,44.52999878,2016-02-05 19:57:43.990,-0.1403985794599016,11814.0,-1.0796503784005635,11706.0,227.64,14.64,6.6,99,2.5,22.922,120.54383333333334
24784.0,3917.0,8385.0,-2.2553763,-1.873868574780168,23.4588,121.3519,223.0,HWA038,2016,2,5,19,57,26.08,3,101.86,7.3,10.58,8.28,215.5,35803600.MNS, NANO,20160200000000.0,54,y,57.52999878,2016-02-05 19:57:44.016,-0.913053137858133,15202.0,-1.90584425588103,15752.0,661.52,14.64,6.6,99,2.5,22.922,120.54383333333334
