EQ_ID,p_picks,pgv_time_window,predict,answer,latitude,longitude,elevation,station_name,year,month,day,hour,minute,second,intensity,epdis (km),pga_z,pga_ns,pga_ew,record_time (sec),file_name,instrument_code,start_time,sta_angle,quality_control,p_pick_sec,p_arrival_abs_time,pga,pga_time,pgv,pgv_time_file,Vs30,depth,magnitude,nsta,nearest_sta_dist (km),event_lat,event_lon
24784.0,1931.0,3385.0,-1.7991819,-1.7868554242786316,22.591,120.6325,89.0,KAU079,2016,2,5,19,57,26.08,4,37.77,17.64,26.84,24.5,180.0,30803600.SMT, SMTA,20160200000000.0,166,y,34.82500076,2016-02-05 19:57:34.086,-0.5065390677421813,8383.0,-1.8051093867071344,8403.0,593.77,14.64,6.6,99,2.5,22.922,120.54383333333334
24784.0,1947.0,3978.0,-1.21659,-0.7137641826731885,22.9043,120.1826,5.0,KAU063,2016,2,5,19,57,26.08,5,37.11,54.4,97.42,105.96,294.7,43203600.MNS, NANO,20160200000000.0,267,y,59.33000183,2016-02-05 19:57:34.167,-0.0020740429404379,13628.0,-0.661699905613825,13647.0,211.6,14.64,6.6,99,2.5,22.922,120.54383333333334
24784.0,1953.0,3849.0,-1.1432611,-0.5162273629373445,23.038,120.2366,11.0,CHY078,2016,2,5,19,57,26.08,5,34.03,43.6,101.86,143.86,120.0,D2303600.SMT, SMTA,20160200000000.0,292,y,34.31499863,2016-02-05 19:57:34.194,0.1586251742954665,8645.0,-0.4818724487988937,8758.0,162.25,14.64,6.6,99,2.5,22.922,120.54383333333334
24784.0,1962.0,3837.0,-1.3949443,-0.5179536269429752,22.98603333,120.2096722,20.0,CHY068,2016,2,5,19,57,26.08,5,35.01,54.44,135.54,165.38,90.0,T442001.036 , A900,20160200000000.0,282,y,18.09000015,2016-02-05 19:57:34.242,0.234011425031358,5453.0,-0.4883655095747122,5403.0,196.05,14.64,6.6,99,2.5,22.922,120.54383333333334
24784.0,1974.0,8456.0,-1.2616014,-1.1956631341312431,22.6426,120.3686,24.0,KAU007,2016,2,5,19,57,26.08,4,35.81,28.94,46.4,65.22,120.0,F4803600.SMT, SMTA,20160200000000.0,210,y,34.92499924,2016-02-05 19:57:34.302,-0.1711066823586456,10077.0,-1.1994490655989172,9692.0,256.55,14.64,6.6,99,2.5,22.922,120.54383333333334
24784.0,1977.0,8987.0,-1.3200245,-1.192315467512516,22.6543,120.3414,12.0,KAU015,2016,2,5,19,57,26.08,4,36.2,24.06,53.14,48.94,120.0,F3703600.SMT, SMTA,20160200000000.0,215,y,34.79499817,2016-02-05 19:57:34.318,-0.2432652359170269,10131.0,-1.2015845777327694,9883.0,227.14,14.64,6.6,99,2.5,22.922,120.54383333333334
24784.0,1987.0,3526.0,-1.474987,-0.4840460622551893,23.2224,120.4002,130.0,CHY018,2016,2,5,19,57,26.08,5,36.38,61.62,227.42,165.08,120.0,D7803600.SMT, SMTA,20160200000000.0,336,y,34.57500076,2016-02-05 19:57:34.366,0.36489144268957,8415.0,-0.5020555590177788,8439.0,594.65,14.64,6.6,99,2.5,22.922,120.54383333333334
24784.0,1988.0,3681.0,-0.87381256,-0.3194242433647418,23.1714,120.3271,20.0,CHY058,2016,2,5,19,57,26.08,6,35.43,67.44,250.12,233.22,93.0,16403600.CVA, CVA ,20160200000000.0,321,y,18.80999947,2016-02-05 19:57:34.369,0.4339026784368749,5381.0,-0.3060791693244121,5532.0,271.13,14.64,6.6,99,2.5,22.922,120.54383333333334
24784.0,1989.0,3739.0,-1.4236773,-0.4757040439763678,23.0089,120.2115,16.0,CHY097,2016,2,5,19,57,26.08,5,35.41,48.02,125.36,127.46,120.0,C9503600.SMT, SMTA,20160200000000.0,286,y,34.90000153,2016-02-05 19:57:34.377,0.212462278217202,8645.0,-0.5094123967374159,8733.0,341.38,14.64,6.6,99,2.5,22.922,120.54383333333334
24784.0,1991.0,3867.0,-1.003145,-0.4862070484461904,22.9932,120.2048,19.0,CHY085,2016,2,5,19,57,26.08,5,35.66,90.34,163.26,231.74,120.0,J0503600.SMT, SMTA,20160200000000.0,283,y,34.15999985,2016-02-05 19:57:34.388,0.3966067094275533,8648.0,-0.4893307519347193,8618.0,272.65,14.64,6.6,99,2.5,22.922,120.54383333333334
24784.0,2001.0,3691.0,-1.6458,-1.0771452074347403,23.2651,120.4999,609.0,CHY081,2016,2,5,19,57,26.08,4,38.23,46.6,65.12,46.58,120.0,G3103600.SMT, SMTA,20160200000000.0,353,y,34.66500092,2016-02-05 19:57:34.435,-0.1152257448581818,8585.0,-1.0846921332621189,8607.0,487.88,14.64,6.6,99,2.5,22.922,120.54383333333334
24784.0,2008.0,3990.0,-1.2120142,-0.3352669718113357,22.9732,120.1897,7.0,CHY069,2016,2,5,19,57,26.08,5,36.74,79.26,119.2,230.22,109.0,15903600.CVA, CVA ,20160200000000.0,279,y,16.33499908,2016-02-05 19:57:34.469,0.3611950879120127,5196.0,-0.3827733584287929,5266.0,219.98,14.64,6.6,99,2.5,22.922,120.54383333333334
24784.0,2022.0,4954.0,-1.491404,-1.1023726082984644,22.6475,120.329,11.0,KAU058,2016,2,5,19,57,26.08,4,37.56,24.46,60.94,53.64,180.0,F1103600.SMT, SMTA,20160200000000.0,216,y,34.95500183,2016-02-05 19:57:34.541,-0.1634494126555806,9954.0,-1.0811717296818923,9908.0,232.38,14.64,6.6,99,2.5,22.922,120.54383333333334
24784.0,2023.0,8596.0,-1.4845271,-1.2894589092663231,22.573,120.572,23.0,KAU074,2016,2,5,19,57,26.08,4,38.76,22.34,30.54,28.38,300.0,N2003600.SMT, SMTA,20160200000000.0,176,y,94.73000336,2016-02-05 19:57:34.548,-0.4602727481755503,21779.0,-1.3056905166855155,26071.0,224.89,14.64,6.6,99,2.5,22.922,120.54383333333334
24784.0,2039.0,3948.0,-1.1793214,-0.3666645277702923,22.9975,120.1922,10.0,CHY067,2016,2,5,19,57,26.08,5,36.99,77.76,147.14,207.74,120.0,C8203600.SMT, SMTA,20160200000000.0,283,y,34.95000076,2016-02-05 19:57:34.625,0.3234087150637091,8849.0,-0.4359805428937068,8898.0,229.04,14.64,6.6,99,2.5,22.922,120.54383333333334
24784.0,2043.0,4986.0,-1.3150098,-1.1263243491994963,22.631,120.3515,14.0,KAU004,2016,2,5,19,57,26.08,4,37.79,24.34,45.36,52.8,286.7,40103600.MNS, NANO,20160200000000.0,211,y,59.13000107,2016-02-05 19:57:34.647,-0.2529826303413632,14768.0,-1.1755812686183502,14755.0,221.89,14.64,6.6,99,2.5,22.922,120.54383333333334
24784.0,2052.0,4998.0,-1.3338814,-1.101005787655449,22.644,120.3187,12.0,KAU088,2016,2,5,19,57,26.08,4,38.5,30.3,63.28,44.88,90.0,T306001.036 , A900,20160200000000.0,217,y,19.375,2016-02-05 19:57:34.693,-0.1349658192165722,6763.0,-1.0715198723052546,6806.0,228.7,14.64,6.6,99,2.5,22.922,120.54383333333334
24784.0,2066.0,3787.0,-1.6466837,-0.8254098287935265,23.2873,120.5065,436.0,CHY135,2016,2,5,19,57,26.08,5,40.64,63.84,97.38,172.52,120.0,D9003600.SMT, SMTA,20160200000000.0,355,y,34.93999863,2016-02-05 19:57:34.761,0.257790779726301,8728.0,-0.8114122008587333,8693.0,576.91,14.64,6.6,99,2.5,22.922,120.54383333333334
24784.0,2066.0,3733.0,-1.4656494,-0.5962587737110366,23.2799,120.4673,128.0,CHY051,2016,2,5,19,57,26.08,5,40.41,53.32,215.84,186.18,242.0,30703600.MNS, NANO,20160200000000.0,349,y,59.04999924,2016-02-05 19:57:34.763,0.3412627368284768,13480.0,-0.5914131461091559,13463.0,363.88,14.64,6.6,99,2.5,22.922,120.54383333333334
24784.0,2066.0,5399.0,-1.4150258,-1.057021469691198,22.5821,120.4888,18.0,KAU031,2016,2,5,19,57,26.08,4,38.05,13.92,39.02,50.64,120.0,F2503600.SMT, SMTA,20160200000000.0,189,y,35.27500153,2016-02-05 19:57:34.764,-0.2925235446713452,10327.0,-1.107754173961336,10375.0,219.55,14.64,6.6,99,2.5,22.922,120.54383333333334
24784.0,2075.0,3865.0,-1.474007,-0.8544317869689249,23.2945,120.5927,260.0,CHY014,2016,2,5,19,57,26.08,5,41.55,55.52,165.08,185.32,120.0,D7003600.SMT, SMTA,20160200000000.0,7,y,34.84500122,2016-02-05 19:57:34.807,0.3200075782373457,8524.0,-0.8374728332723451,8744.0,341.8,14.64,6.6,99,2.5,22.922,120.54383333333334
24784.0,2080.0,3978.0,-1.2867286,-0.3346945429354768,23.1234,120.2458,10.0,CHY060,2016,2,5,19,57,26.08,5,37.82,79.1,170.76,237.26,296.6,32403600.MNS, NANO,20160200000000.0,306,y,59.875,2016-02-05 19:57:34.831,0.3831419467175168,13993.0,-0.3693012676827817,13761.0,223.92,14.64,6.6,99,2.5,22.922,120.54383333333334
24784.0,2101.0,5059.0,-1.4994074,-1.1183261124389705,22.6167,120.3492,19.0,KAU005,2016,2,5,19,57,26.08,4,39.28,26.8,58.3,56.22,90.0,T570001.036 , A900,20160200000000.0,211,y,20.25,2016-02-05 19:57:34.937,-0.1921843727042622,7131.0,-1.158764102687209,6993.0,253.46,14.64,6.6,99,2.5,22.922,120.54383333333334
24784.0,2101.0,4289.0,-1.0527599,-0.3736504391920621,22.9922,120.1666,13.0,CHY125,2016,2,5,19,57,26.08,5,39.43,48.18,81.72,133.16,114.0,05003600.CVA, CVA ,20160200000000.0,281,y,16.39999962,2016-02-05 19:57:34.938,0.1907543715044761,5392.0,-0.4270535714856514,5329.0,271.64,14.64,6.6,99,2.5,22.922,120.54383333333334
24784.0,2105.0,5203.0,-1.3888,-1.0623610276204476,22.5895,120.4158,12.0,KAU090,2016,2,5,19,57,26.08,5,39.1,18.2,57.82,88.26,300.0,N2203600.SMT, SMTA,20160200000000.0,200,y,96.31500244,2016-02-05 19:57:34.956,-0.0036424101079274,22321.0,-1.0695731786006664,22345.0,226.47,14.64,6.6,99,2.5,22.922,120.54383333333334
24784.0,2106.0,4958.0,-1.4962497,-0.9922860403396596,22.6387,120.2999,9.0,KAU061,2016,2,5,19,57,26.08,5,40.15,38.56,82.02,90.0,300.0,N2103600.SMT, SMTA,20160200000000.0,219,y,95.37000275,2016-02-05 19:57:34.963,-0.008222522908659,22129.0,-1.0030478615238978,21911.0,214.35,14.64,6.6,99,2.5,22.922,120.54383333333334
24784.0,2116.0,4176.0,-1.2368081,-0.3741889802467931,23.0006,120.1661,8.0,CHY098,2016,2,5,19,57,26.08,5,39.69,69.22,129.02,192.14,265.1,33703600.MNS, NANO,20160200000000.0,283,y,59.31499863,2016-02-05 19:57:35.010,0.2897450178292785,13863.0,-0.4303293900402514,13801.0,229.21,14.64,6.6,99,2.5,22.922,120.54383333333334
24784.0,2124.0,3716.0,-2.0280855,-1.2540803167465937,23.2765,120.7206,720.0,KAU054,2016,2,5,19,57,26.08,5,43.23,31.94,77.9,110.26,120.0,F3603600.SMT, SMTA,20160200000000.0,25,y,35.22999954,2016-02-05 19:57:35.049,0.078902019650835,8525.0,-1.2597738282648272,8545.0,502.77,14.64,6.6,99,2.5,22.922,120.54383333333334
24784.0,2142.0,5594.0,-2.0995393,-2.018713915031923,22.5283,120.6278,107.0,KAU034,2016,2,5,19,57,26.08,3,44.44,5.08,9.78,7.3,120.0,F0703600.SMT, SMTA,20160200000000.0,169,y,34.875,2016-02-05 19:57:35.143,-1.028324343775246,10195.0,-2.0370465504688173,10092.0,999.17,14.64,6.6,99,2.5,22.922,120.54383333333334
24784.0,2143.0,4163.0,-1.3246546,-1.2546018158939318,23.3003,120.6669,418.0,CHY045,2016,2,5,19,57,26.08,5,43.75,36.74,75.4,82.22,84.0,17603600.CVA, CVA ,20160200000000.0,17,y,18.20000076,2016-02-05 19:57:35.145,-0.0258061305609126,5623.0,-1.2156681071995994,5468.0,627.55,14.64,6.6,99,2.5,22.922,120.54383333333334
24784.0,2160.0,5103.0,-1.4589344,-1.413677221155902,22.637,120.2751,97.0,KAU057,2016,2,5,19,57,26.08,4,41.92,25.4,46.88,44.76,300.0,L8503600.SMT, SMTA,20160200000000.0,221,y,95.66999817,2016-02-05 19:57:35.230,-0.3291737659519102,22151.0,-1.3185736531551189,22062.0,534.56,14.64,6.6,99,2.5,22.922,120.54383333333334
24784.0,2168.0,8973.0,-1.4140757,-1.3420082789520005,22.6119,120.3188,8.0,KAU087,2016,2,5,19,57,26.08,4,41.38,25.76,39.76,40.74,300.0,N3903600.SMT, SMTA,20160200000000.0,214,y,95.52999878,2016-02-05 19:57:35.273,-0.4173195000665289,22024.0,-1.3001023786989525,25901.0,247.4,14.64,6.6,99,2.5,22.922,120.54383333333334
24784.0,2176.0,5424.0,-1.5367848,-1.1069187837044423,22.561,120.458,6.0,KAU083,2016,2,5,19,57,26.08,4,40.94,9.76,36.08,41.44,300.0,M9503600.SMT, SMTA,20160200000000.0,192,y,96.27500153,2016-02-05 19:57:35.310,-0.3622783297369744,22595.0,-1.0500161580072709,22345.0,229.77,14.64,6.6,99,2.5,22.922,120.54383333333334
24784.0,2177.0,5216.0,-1.3892602,-1.1688929549244786,22.5925,120.3593,5.0,KAU093,2016,2,5,19,57,26.08,4,41.11,16.38,53.1,56.26,116.0,04603600.CVA, CVA ,20160200000000.0,207,y,17.68000031,2016-02-05 19:57:35.319,-0.2211925201986365,6530.0,-1.1494626123386522,6489.0,395.82,14.64,6.6,99,2.5,22.922,120.54383333333334
24784.0,2183.0,4031.0,-1.3478183,-0.6339692785413853,23.18597221,120.2542801,6.0,CHY108,2016,2,5,19,57,26.08,5,41.65,39.94,100.0,82.4,120.0,C8603600.SMT, SMTA,20160200000000.0,315,y,35.70999908,2016-02-05 19:57:35.347,0.0475028753760235,9014.0,-0.660250134270069,8827.0,249.68,14.64,6.6,99,2.5,22.922,120.54383333333334
24784.0,2183.0,4200.0,-1.1551228,-0.4366251819937981,23.063,120.1728,8.0,CHY071,2016,2,5,19,57,26.08,5,41.11,64.52,122.86,187.52,123.0,14903700.CVA, CVA ,20160200000000.0,292,y,17.64500046,2016-02-05 19:57:35.348,0.2685410375716475,5442.0,-0.4326488859175303,5424.0,200.52,14.64,6.6,99,2.5,22.922,120.54383333333334
24784.0,2191.0,5256.0,-1.4529605,-1.4996585787012635,22.6308,120.2636,49.0,KAU003,2016,2,5,19,57,26.08,4,43.22,19.84,28.28,38.56,120.0,D6803600.SMT, SMTA,20160200000000.0,222,y,35.89500046,2016-02-05 19:57:35.385,-0.4221657268421221,10087.0,-1.466572939369004,10107.0,887.71,14.64,6.6,99,2.5,22.922,120.54383333333334
24784.0,2202.0,3989.0,-1.2936529,-0.2766202478260222,23.2137,120.2769,8.0,CHY017,2016,2,5,19,57,26.08,5,42.32,38.88,210.14,177.16,276.4,37403600.MNS, NANO,20160200000000.0,320,y,60.22999954,2016-02-05 19:57:35.443,0.3933131244819476,13788.0,-0.3398460834488346,13837.0,196.02,14.64,6.6,99,2.5,22.922,120.54383333333334
24784.0,2235.0,4085.0,-1.158675,-0.5113621512838255,23.2945,120.3867,29.0,CHY128,2016,2,5,19,57,26.08,5,44.28,34.16,163.34,199.12,113.0,15303600.CVA, CVA ,20160200000000.0,339,y,17.84000015,2016-02-05 19:57:35.609,0.2955637054761207,5426.0,-0.5420149626390893,5403.0,253.85,14.64,6.6,99,2.5,22.922,120.54383333333334
24784.0,2244.0,5369.0,-1.3389194,-0.8975356984114493,22.5437,120.4606,8.0,KAU032,2016,2,5,19,57,26.08,4,42.76,11.44,55.18,35.42,120.0,F2803601.SMT, SMTA,20160200000000.0,192,y,35.10499954,2016-02-05 19:57:35.649,-0.2553301879470762,10213.0,-0.8289597810208619,10140.0,190.7,14.64,6.6,99,2.5,22.922,120.54383333333334
24784.0,2248.0,4091.0,-1.1083703,-0.5889510598041896,23.2864,120.3637,20.0,CHY053,2016,2,5,19,57,26.08,5,44.37,25.14,177.52,171.82,267.9,38603600.MNS, NANO,20160200000000.0,335,y,58.84000015,2016-02-05 19:57:35.670,0.263819016781421,13573.0,-0.6452644470760928,13495.0,272.67,14.64,6.6,99,2.5,22.922,120.54383333333334
24784.0,2249.0,9363.0,-1.500279,-1.3277712467941247,22.5809,120.3421,6.0,KAU055,2016,2,5,19,57,26.08,4,43.08,14.24,58.1,44.5,300.0,M4403600.SMT, SMTA,20160200000000.0,209,y,95.94999695,2016-02-05 19:57:35.678,-0.2152009318709777,22241.0,-1.3288724449403353,27234.0,224.51,14.64,6.6,99,2.5,22.922,120.54383333333334
24784.0,2253.0,4362.0,-1.2744012,-0.3885882760247628,23.1023,120.1583,7.0,CHY020,2016,2,5,19,57,26.08,5,44.27,58.32,76.76,174.2,285.0,39703600.MNS, NANO,20160200000000.0,297,y,58.47499847,2016-02-05 19:57:35.695,0.2492376010225401,13730.0,-0.4387453430230174,13693.0,214.14,14.64,6.6,99,2.5,22.922,120.54383333333334
24784.0,2257.0,9394.0,-1.3234564,-1.2776039281872449,22.5936,120.3071,4.0,KAU100,2016,2,5,19,57,26.08,3,43.76,16.6,24.6,22.54,116.0,04803600.CVA, CVA ,20160200000000.0,214,y,13.14000034,2016-02-05 19:57:35.716,-0.5929048612326191,7831.0,-1.2686020206164446,9646.0,293.21,14.64,6.6,99,2.5,22.922,120.54383333333334
24784.0,2261.0,4336.0,-1.3560523,-0.580316827769197,23.1735,120.2017,8.0,CHY077,2016,2,5,19,57,26.08,5,44.78,52.3,231.72,224.14,180.0,B8903600.SMT, SMTA,20160200000000.0,308,y,35.52999878,2016-02-05 19:57:35.738,0.3702624460663639,9199.0,-0.5722502495005192,8974.0,124.9,14.64,6.6,99,2.5,22.922,120.54383333333334
24784.0,2266.0,6580.0,-1.1651803,-0.6810078572934904,23.0367,120.1269,4.0,CHY114,2016,2,5,19,57,26.08,5,44.58,50.8,85.14,139.16,272.6,32103600.MNS, NANO,20160200000000.0,287,y,58.57500076,2016-02-05 19:57:35.761,0.2062449218654012,13749.0,-0.5524261476149984,13740.0,215.08,14.64,6.6,99,2.5,22.922,120.54383333333334
24784.0,2290.0,4199.0,-1.463336,-1.0498721569255482,23.3513,120.594,956.0,CHY086,2016,2,5,19,57,26.08,5,47.82,55.84,102.16,86.4,120.0,D3503600.SMT, SMTA,20160200000000.0,6,y,35.81499863,2016-02-05 19:57:35.881,0.0351107238891165,8824.0,-1.0331146810732228,9057.0,451.58,14.64,6.6,99,2.5,22.922,120.54383333333334
24784.0,2304.0,4245.0,-1.7110236,-1.0850556621469092,23.3563,120.5918,912.0,CHY042,2016,2,5,19,57,26.08,5,48.35,34.64,85.58,92.58,82.0,16903600.CVA, CVA ,20160200000000.0,6,y,16.87000084,2016-02-05 19:57:35.953,-0.0275317182582459,5271.0,-1.1078513085063346,5303.0,252.29,14.64,6.6,99,2.5,22.922,120.54383333333334
24784.0,2307.0,8116.0,-1.4851414,-1.3037006313286637,22.5599,120.3572,8.0,KAU056,2016,2,5,19,57,26.08,4,44.43,17.32,28.96,61.34,300.0,N4203600.SMT, SMTA,20160200000000.0,206,y,89.56999969,2016-02-05 19:57:35.966,-0.1980130759507486,20975.0,-1.2789703387819382,23580.0,248.29,14.64,6.6,99,2.5,22.922,120.54383333333334
24784.0,2320.0,4202.0,-1.3761561,-0.5288215128290169,23.3445,120.438,44.0,CHY088,2016,2,5,19,57,26.08,6,48.03,39.04,204.2,252.46,180.0,15503600.MNS, NANO,20160200000000.0,347,y,58.85499954,2016-02-05 19:57:36.029,0.4347424856660856,13605.0,-0.5791079294936011,13638.0,329.54,14.64,6.6,99,2.5,22.922,120.54383333333334
24784.0,2331.0,4471.0,-1.1662606,-0.5091964001051869,23.0768,120.1167,7.0,CHY116,2016,2,5,19,57,26.08,5,47.01,55.52,115.86,166.1,293.6,37703600.MNS, NANO,20160200000000.0,291,y,59.01499939,2016-02-05 19:57:36.087,0.2196878326727485,13884.0,-0.4473154244200562,13845.0,194.34,14.64,6.6,99,2.5,22.922,120.54383333333334
24784.0,2340.0,12074.0,-1.3334767,-1.154164261148386,22.5662,120.3157,1.0,KAU045,2016,2,5,19,57,26.08,4,45.84,20.2,32.9,33.2,180.0,E0203600.SMT, SMTA,20160200000000.0,211,y,36.31499863,2016-02-05 19:57:36.133,-0.457582438768693,11163.0,-1.135317761499719,14340.0,145.22,14.64,6.6,99,2.5,22.922,120.54383333333334
24784.0,2349.0,4410.0,-1.2927219,-0.6213013312744825,23.2687,120.2768,13.0,CHY055,2016,2,5,19,57,26.08,5,47.14,33.1,167.22,143.76,270.4,38903600.MNS, NANO,20160200000000.0,325,y,59.77999878,2016-02-05 19:57:36.174,0.2380349249808765,13699.0,-0.5305225856675301,13686.0,221.45,14.64,6.6,99,2.5,22.922,120.54383333333334
24784.0,2375.0,4446.0,-1.701601,-1.126273474097627,23.3821,120.5299,175.0,CHY087,2016,2,5,19,57,26.08,5,50.98,64.8,126.76,126.5,120.0,C2103600.SMT, SMTA,20160200000000.0,358,y,36.38999939,2016-02-05 19:57:36.307,0.1098925595919297,9338.0,-1.123606264231716,9300.0,508.0,14.64,6.6,99,2.5,22.922,120.54383333333334
24784.0,2377.0,5959.0,-1.5395653,-0.95318418037686,22.4711,120.5518,14.0,KAU036,2016,2,5,19,57,26.08,4,49.95,11.4,72.14,36.96,300.0,N3003600.SMT, SMTA,20160200000000.0,179,y,96.80500031,2016-02-05 19:57:36.316,-0.1217190619334215,22937.0,-1.0225093928617313,22928.0,234.59,14.64,6.6,99,2.5,22.922,120.54383333333334
24784.0,2384.0,9424.0,-1.3968519,-1.1897150743764886,22.554,120.315,4.0,KAU092,2016,2,5,19,57,26.08,4,47.04,24.92,32.62,37.64,300.3,15303600.MNS, NANO,20160200000000.0,210,y,58.98500061,2016-02-05 19:57:36.354,-0.4296306748187665,14947.0,-1.1461859948010706,18829.0,226.17,14.64,6.6,99,2.5,22.922,120.54383333333334
24784.0,2385.0,4327.0,-1.2748624,-0.4897034543061048,23.3057,120.3175,21.0,CHY054,2016,2,5,19,57,26.08,5,48.4,36.34,163.02,200.78,111.0,15503601.DBL, CVA ,20160200000000.0,331,y,17.48999977,2016-02-05 19:57:36.354,0.3840434693543916,5442.0,-0.5240173999692868,5425.0,175.11,14.64,6.6,99,2.5,22.922,120.54383333333334
24784.0,2385.0,4350.0,-1.2471522,-0.443201066617216,23.3526,120.4138,39.0,CHY015,2016,2,5,19,57,26.08,6,49.52,29.12,169.04,262.36,120.0,C8503600.SMT, SMTA,20160200000000.0,344,y,36.52000046,2016-02-05 19:57:36.358,0.4263609521336441,9211.0,-0.4536194981875505,9254.0,224.73,14.64,6.6,99,2.5,22.922,120.54383333333334
24784.0,2390.0,5939.0,-1.5789315,-0.8949976117672721,22.4882,120.5062,6.0,KAU075,2016,2,5,19,57,26.08,4,48.2,13.64,61.2,60.76,300.0,N2303600.SMT, SMTA,20160200000000.0,185,y,96.99500275,2016-02-05 19:57:36.381,-0.1913824072606693,22957.0,-0.927688710159702,23019.0,196.82,14.64,6.6,99,2.5,22.922,120.54383333333334
24784.0,2394.0,4371.0,-1.2679989,-0.5668887910492972,23.2977,120.2992,15.0,CHY107,2016,2,5,19,57,26.08,5,48.57,52.58,162.96,241.12,276.0,34603600.MNS, NANO,20160200000000.0,329,y,59.40499878,2016-02-05 19:57:36.400,0.3748842746360372,13867.0,-0.5198011560381021,13760.0,181.05,14.64,6.6,99,2.5,22.922,120.54383333333334
24784.0,2420.0,4518.0,-1.8636574,-1.827532455716546,22.5957,120.9617,88.0,TTN052,2016,2,5,19,57,26.08,3,56.1,10.72,17.8,22.72,120.0,C1203600.SMT, SMTA,20160200000000.0,130,y,36.56499863,2016-02-05 19:57:36.531,-0.5950131673341804,8869.0,-1.8136303446975128,9257.0,679.02,14.64,6.6,99,2.5,22.922,120.54383333333334
24784.0,2441.0,4549.0,-1.3036906,-0.5093046879363722,23.2191,120.1621,7.0,CHY016,2016,2,5,19,57,26.08,5,51.11,45.28,210.08,221.26,283.8,32603600.MNS, NANO,20160200000000.0,310,y,58.97000122,2016-02-05 19:57:36.635,0.3696467453184166,13848.0,-0.5702323560827796,13898.0,199.47,14.64,6.6,99,2.5,22.922,120.54383333333334
