EQ_ID,p_picks,pgv_time_window,predict,answer,latitude,longitude,elevation,station_name,year,month,day,hour,minute,second,intensity,epdis (km),pga_z,pga_ns,pga_ew,record_time (sec),file_name,instrument_code,start_time,sta_angle,quality_control,p_pick_sec,p_arrival_abs_time,pga,pga_time,pgv,pgv_time_file,Vs30,depth,magnitude,nsta,nearest_sta_dist (km),event_lat,event_lon
24757.0,3498.0,6584.0,-2.1379437,-1.9616649657116665,23.2799,120.4673,128.0,CHY051,2016,1,19,2,13,26.83,3,102.38,4.56,11.3,8.66,207.6,30701900.MNS, NANO,20160100000000.0,302,y,55.56499863,2016-01-19 02:13:44.840,-0.8896615221515287,14254.0,-2.013563505353108,14274.0,363.88,29.72,5.8,99,12.2,22.787,121.3125
24757.0,3501.0,6843.0,-2.0559955,-1.7553082540748377,22.6426,120.3686,24.0,KAU007,2016,1,19,2,13,26.83,3,98.26,6.48,8.08,8.0,120.0,F4801900.SMT, SMTA,20160100000000.0,261,y,46.63999939,2016-01-19 02:13:44.858,-1.0133573973896337,12597.0,-1.8219028855310209,12663.0,256.55,29.72,5.8,99,12.2,22.787,121.3125
24757.0,3517.0,6717.0,-2.0703013,-1.912140011615018,23.3821,120.5299,175.0,CHY087,2016,1,19,2,13,26.83,3,103.79,6.06,11.46,18.9,120.0,C2101900.SMT, SMTA,20160100000000.0,309,y,45.24000168,2016-01-19 02:13:44.940,-0.6931574905580666,12240.0,-1.9306913659577205,12639.0,508.0,29.72,5.8,99,12.2,22.787,121.3125
24757.0,3550.0,7031.0,-2.1245213,-2.0234664619062346,22.5925,120.3593,5.0,KAU093,2016,1,19,2,13,26.83,3,100.26,2.86,6.02,8.06,47.0,04601900.CVA, CVA ,20160100000000.0,258,y,3.349999905,2016-01-19 02:13:45.106,-1.0861513014345816,4298.0,-1.9479783315447403,3920.0,395.82,29.72,5.8,99,12.2,22.787,121.3125
24757.0,3572.0,6920.0,-2.0524697,-1.8524058110985235,22.631,120.3515,14.0,KAU004,2016,1,19,2,13,26.83,3,100.22,4.4,9.56,8.0,216.2,40101900.MNS, NANO,20160100000000.0,260,y,60.25,2016-01-19 02:13:45.211,-0.9618232092483922,15352.0,-1.953998134837457,15385.0,221.89,29.72,5.8,99,12.2,22.787,121.3125
24757.0,3606.0,6995.0,-2.042656,-2.240673669961708,22.7522,120.3116,16.0,KAU065,2016,1,19,2,13,26.83,2,102.85,3.52,5.84,4.44,240.0,N4901900.SMT, SMTA,20160100000000.0,268,y,47.23500061,2016-01-19 02:13:45.381,-1.1906439859278757,12796.0,-2.244254108602697,12821.0,244.86,29.72,5.8,99,12.2,22.787,121.3125
24757.0,3613.0,7434.0,-2.0322819,-2.1921728815211807,22.6543,120.3414,12.0,KAU015,2016,1,19,2,13,26.83,2,100.83,3.12,6.38,5.46,120.0,F3701900.SMT, SMTA,20160100000000.0,262,y,46.90499878,2016-01-19 02:13:45.416,-1.1897311682740326,13201.0,-2.206118857312586,13422.0,227.14,29.72,5.8,99,12.2,22.787,121.3125
24757.0,3615.0,6957.0,-1.9653565,-1.9941478992117423,22.7927,120.303,12.0,KAU086,2016,1,19,2,13,26.83,2,103.64,4.76,5.76,7.88,240.0,N3701900.SMT, SMTA,20160100000000.0,270,y,47.20999908,2016-01-19 02:13:45.426,-1.1041351961496682,12820.0,-1.9801343181196955,12768.0,213.47,29.72,5.8,99,12.2,22.787,121.3125
24757.0,3618.0,8166.0,-1.9036574,-2.2885214790684545,23.0259,120.3495,48.0,CHY063,2016,1,19,2,13,26.83,2,102.26,3.56,5.9,6.28,57.0,16201900.CVA, CVA ,20160100000000.0,285,y,2.075000048,2016-01-19 02:13:45.448,-1.1182934578581591,4922.0,-2.2925417616705226,4904.0,287.66,29.72,5.8,99,12.2,22.787,121.3125
24757.0,3642.0,6903.0,-2.1804576,-2.103984713148472,23.463,120.5529,211.0,CHY010,2016,1,19,2,13,26.83,3,107.95,3.3,10.82,9.14,120.0,D0001900.SMT, SMTA,20160100000000.0,314,y,46.02000046,2016-01-19 02:13:45.562,-0.9339672308393732,12177.0,-2.104243274340703,12458.0,816.86,29.72,5.8,99,12.2,22.787,121.3125
24757.0,3644.0,6808.0,-2.211334,-2.1649868166430504,23.2224,120.4002,130.0,CHY018,2016,1,19,2,13,26.83,3,105.2,3.44,11.04,5.34,120.0,D7801900.SMT, SMTA,20160100000000.0,297,y,46.41999817,2016-01-19 02:13:45.573,-0.9311345776762252,12506.0,-2.101639092832579,12310.0,594.65,29.72,5.8,99,12.2,22.787,121.3125
24757.0,3656.0,7046.0,-1.9768337,-2.129908755223746,22.7858,120.2865,12.0,KAU010,2016,1,19,2,13,26.83,2,105.33,2.82,5.1,5.62,240.0,N3301900.SMT, SMTA,20160100000000.0,270,y,47.36999893,2016-01-19 02:13:45.633,-1.2317440573278453,12809.0,-2.083082054771826,12849.0,236.89,29.72,5.8,99,12.2,22.787,121.3125
24757.0,3668.0,7410.0,-1.8589653,-2.144492690631993,23.0753,120.3641,55.0,CHY089,2016,1,19,2,13,26.83,3,102.38,3.22,9.26,9.06,120.0,C1701900.SMT, SMTA,20160100000000.0,288,y,46.47499847,2016-01-19 02:13:45.691,-0.957744964023462,12994.0,-2.171612751282677,12988.0,396.2,29.72,5.8,99,12.2,22.787,121.3125
24757.0,3671.0,8533.0,-2.0451875,-2.252846319780548,22.644,120.3187,12.0,KAU088,2016,1,19,2,13,26.83,2,103.3,3.02,5.94,5.18,37.0,T306001.019 , A900,20160100000000.0,261,y,3.289999962,2016-01-19 02:13:45.714,-1.2315863134747156,4139.0,-2.2949494619927813,5952.0,228.7,29.72,5.8,99,12.2,22.787,121.3125
24757.0,3680.0,7590.0,-1.8528488,-2.2441785454161622,23.1196,120.3613,28.0,CHY131,2016,1,19,2,13,26.83,2,104.22,3.56,6.88,5.0,51.0,16701900.CVA, CVA ,20160100000000.0,291,y,2.825000048,2016-01-19 02:13:45.756,-1.1464971922642408,4437.0,-2.233840395028325,4525.0,457.69,29.72,5.8,99,12.2,22.787,121.3125
24757.0,3689.0,6775.0,-2.1450324,-2.06564037285668,23.5972,120.6769,799.0,CHY080,2016,1,19,2,13,26.83,3,110.82,3.82,8.88,11.2,120.0,G7001900.SMT, SMTA,20160100000000.0,324,y,45.91500092,2016-01-19 02:13:45.799,-0.9474233764057132,12702.0,-2.0602765471265005,12254.0,499.17,29.72,5.8,99,12.2,22.787,121.3125
24757.0,3690.0,6984.0,-2.0453458,-1.650738696535459,23.3445,120.438,44.0,CHY088,2016,1,19,2,13,26.83,3,108.81,10.24,18.84,20.36,180.0,15501900.MNS, NANO,20160100000000.0,305,y,59.22499847,2016-01-19 02:13:45.804,-0.6301253163015142,15086.0,-1.6723142087106275,15490.0,329.54,29.72,5.8,99,12.2,22.787,121.3125
24757.0,3692.0,7402.0,-2.127972,-2.135843687441729,22.5896,120.3255,5.0,KAU006,2016,1,19,2,13,26.83,2,103.73,3.36,4.5,7.36,39.0,T508001.019 , A900,20160100000000.0,258,y,4.090000153,2016-01-19 02:13:45.819,-1.1328526604185691,4489.0,-2.1434635717453334,4450.0,218.97,29.72,5.8,99,12.2,22.787,121.3125
24757.0,3705.0,7021.0,-2.1588807,-2.0266278087560523,23.4592,120.5237,134.0,CHY132,2016,1,19,2,13,26.83,3,109.85,5.7,8.88,11.54,52.0,17001900.CVA, CVA ,20160100000000.0,313,y,5.289999962,2016-01-19 02:13:45.882,-0.93552056428494,4330.0,-2.0313367411238583,4317.0,513.29,29.72,5.8,99,12.2,22.787,121.3125
24757.0,3706.0,7129.0,-1.8081249,-2.2974944068450425,22.8675,120.2643,23.0,KAU009,2016,1,19,2,13,26.83,2,107.95,5.1,3.18,5.26,179.9,11901900.MNS, NANO,20160100000000.0,275,y,58.83499908,2016-01-19 02:13:45.883,-1.2443179967028797,15036.0,-2.2436403736380264,15174.0,270.54,29.72,5.8,99,12.2,22.787,121.3125
24757.0,3720.0,7162.0,-2.085447,-2.258790765850554,22.6387,120.2999,9.0,KAU061,2016,1,19,2,13,26.83,2,105.31,3.4,4.18,5.32,240.0,N2101900.SMT, SMTA,20160100000000.0,261,y,47.55500031,2016-01-19 02:13:45.952,-1.2661545769057845,13029.0,-2.2279338524234067,12937.0,214.35,29.72,5.8,99,12.2,22.787,121.3125
24757.0,3725.0,7554.0,-2.061154,-2.08442384426412,22.5662,120.3157,1.0,KAU045,2016,1,19,2,13,26.83,2,105.3,2.6,6.42,6.52,120.0,E0201900.SMT, SMTA,20160100000000.0,257,y,47.56000137,2016-01-19 02:13:45.976,-1.1332799350669809,13018.0,-2.06501648040716,13328.0,145.22,29.72,5.8,99,12.2,22.787,121.3125
24757.0,3727.0,7400.0,-2.0566545,-2.016969423452076,22.7834,120.2482,10.0,KAU064,2016,1,19,2,13,26.83,2,109.27,3.2,5.25,7.93,184.6,43001900.MNS, NANO,20160100000000.0,270,y,58.89500046,2016-01-19 02:13:45.986,-1.0520080130480869,15410.0,-2.0497553571690363,15438.0,242.46,29.72,5.8,99,12.2,22.787,121.3125
24757.0,3782.0,7509.0,-2.0706258,-1.638171914111415,23.6345,120.7193,1557.0,CHY136,2016,1,19,2,13,26.83,4,111.76,10.46,23.1,30.34,300.0,M0201900.SMT, SMTA,20160100000000.0,327,y,106.2699966,2016-01-19 02:13:46.260,-0.4821134447884974,24978.0,-1.644523466219217,24965.0,346.4,29.72,5.8,99,12.2,22.787,121.3125
24757.0,3784.0,7052.0,-1.931456,-1.7908355653402712,23.2945,120.3867,29.0,CHY128,2016,1,19,2,13,26.83,3,110.27,5.02,14.58,22.08,60.0,15301900.CVA, CVA ,20160100000000.0,301,y,3.684999943,2016-01-19 02:13:46.277,-0.6208554830355827,4010.0,-1.7153640111399502,3992.0,253.85,29.72,5.8,99,12.2,22.787,121.3125
24757.0,3787.0,8425.0,-1.9211359,-1.7767226945684895,23.3526,120.4138,39.0,CHY015,2016,1,19,2,13,26.83,3,111.36,4.16,12.28,15.88,120.0,C8501900.SMT, SMTA,20160100000000.0,304,y,46.75,2016-01-19 02:13:46.290,-0.7954402976022601,13941.0,-1.7952502029189343,13977.0,224.73,29.72,5.8,99,12.2,22.787,121.3125
24757.0,3790.0,7016.0,-2.0155866,-2.136669625401656,23.1714,120.3271,20.0,CHY058,2016,1,19,2,13,26.83,2,109.62,2.5,6.42,4.56,45.0,16401900.CVA, CVA ,20160100000000.0,293,y,2.690000057,2016-01-19 02:13:46.305,-1.1507658187508805,4639.0,-2.185329809787661,3751.0,271.13,29.72,5.8,99,12.2,22.787,121.3125
24757.0,3792.0,7404.0,-1.9973526,-2.008408383803684,23.2256,120.3503,31.0,CHY100,2016,1,19,2,13,26.83,3,109.94,3.72,11.36,7.54,120.0,D1901900.SMT, SMTA,20160100000000.0,296,y,46.75,2016-01-19 02:13:46.311,-0.9157296064990034,12954.0,-1.9882441961615944,12946.0,344.25,29.72,5.8,99,12.2,22.787,121.3125
24757.0,3848.0,7139.0,-2.0501096,-1.935814000302128,23.2864,120.3637,20.0,CHY053,2016,1,19,2,13,26.83,3,111.86,2.58,11.6,8.7,207.0,38601900.MNS, NANO,20160100000000.0,300,y,44.90999985,2016-01-19 02:13:46.591,-0.8869272111899263,12294.0,-1.8549479652192356,12258.0,272.67,29.72,5.8,99,12.2,22.787,121.3125
24757.0,3865.0,11645.0,-2.061453,-2.397286022454001,22.9813,120.2407,31.0,CHY096,2016,1,19,2,13,26.83,2,112.05,3.04,5.73,3.6,179.9,33201900.MNS, NANO,20160100000000.0,281,y,53.92499924,2016-01-19 02:13:46.677,-1.2489150226267522,15267.0,-2.413307057703297,18551.0,423.01,29.72,5.8,99,12.2,22.787,121.3125
24757.0,3922.0,7104.0,-2.1349556,-2.020867917604735,23.4753,120.4713,82.0,CHY046,2016,1,19,2,13,26.83,2,115.03,4.18,7.42,7.72,51.0,18201900.CVA, CVA ,20160100000000.0,312,y,3.565000057,2016-01-19 02:13:46.965,-1.0859973712538662,4545.0,-1.9539881047705585,3880.0,446.46,29.72,5.8,99,12.2,22.787,121.3125
24757.0,3927.0,7096.0,-2.1783972,-2.029953177708131,23.4722,120.4674,49.0,CHY119,2016,1,19,2,13,26.83,3,115.09,3.96,6.58,8.92,196.1,38101900.MNS, NANO,20160100000000.0,311,y,45.54999924,2016-01-19 02:13:46.987,-1.046880572377837,12620.0,-1.9939759437386144,12265.0,498.38,29.72,5.8,99,12.2,22.787,121.3125
24757.0,3940.0,7371.0,-2.108681,-2.027137874456657,23.5796,120.5601,173.0,CHY006,2016,1,19,2,13,26.83,2,116.76,5.32,7.4,4.5,120.0,D9501900.SMT, SMTA,20160100000000.0,319,y,47.41999817,2016-01-19 02:13:47.054,-1.107524666066395,14146.0,-2.02057488196988,14168.0,422.68,29.72,5.8,99,12.2,22.787,121.3125
24757.0,3950.0,7267.0,-2.0056958,-1.8372735815540764,23.3057,120.3175,21.0,CHY054,2016,1,19,2,13,26.83,3,117.02,3.7,12.1,11.12,59.0,15501900.CVA, CVA ,20160100000000.0,299,y,3.630000114,2016-01-19 02:13:47.109,-0.8604867978066101,4310.0,-1.8480140655631427,4063.0,175.11,29.72,5.8,99,12.2,22.787,121.3125
24757.0,3951.0,7277.0,-2.0909095,-2.1782942873993867,22.9732,120.1897,7.0,CHY069,2016,1,19,2,13,26.83,3,117.01,4.46,8.5,7.28,48.0,15901900.CVA, CVA ,20160100000000.0,280,y,3.345000029,2016-01-19 02:13:47.111,-0.9740640489622816,3989.0,-2.1324481442163,3980.0,219.98,29.72,5.8,99,12.2,22.787,121.3125
24757.0,3960.0,7304.0,-2.1836312,-2.0715258775895764,23.6308,120.6157,309.0,CHY028,2016,1,19,2,13,26.83,2,117.55,3.38,6.4,6.3,48.0,16601900.CVA, CVA ,20160100000000.0,323,y,3.890000105,2016-01-19 02:13:47.156,-1.1269744931172143,4086.0,-2.1098573510058443,4105.0,546.91,29.72,5.8,99,12.2,22.787,121.3125
24757.0,3964.0,9425.0,-2.052127,-2.2721032508286405,22.9975,120.1922,10.0,CHY067,2016,1,19,2,13,26.83,2,117.25,2.82,4.98,7.3,120.0,C8201900.SMT, SMTA,20160100000000.0,281,y,48.83499908,2016-01-19 02:13:47.173,-1.1578222581066604,13485.0,-2.3464538588584163,15214.0,229.04,29.72,5.8,99,12.2,22.787,121.3125
24757.0,3973.0,7239.0,-2.009185,-1.8049094579477671,23.3655,120.3663,24.0,CHY049,2016,1,19,2,13,26.83,3,116.16,2.66,10.96,10.1,65.0,15001900.DBL, CVA ,20160100000000.0,303,y,3.470000029,2016-01-19 02:13:47.222,-0.9145312563190824,4040.0,-1.815782017934048,3945.0,224.82,29.72,5.8,99,12.2,22.787,121.3125
24757.0,3981.0,7345.0,-1.9893212,-1.833366344035676,23.2977,120.2992,15.0,CHY107,2016,1,19,2,13,26.83,3,118.24,3.76,10.98,9.48,199.2,34601900.MNS, NANO,20160100000000.0,299,y,43.72499847,2016-01-19 02:13:47.257,-0.9197945121021656,12375.0,-1.8654076311648324,12095.0,181.05,29.72,5.8,99,12.2,22.787,121.3125
24757.0,3990.0,7351.0,-2.028702,-1.958423223899697,23.2687,120.2768,13.0,CHY055,2016,1,19,2,13,26.83,2,118.79,2.62,7.68,7.86,199.5,38901900.MNS, NANO,20160100000000.0,297,y,44.02500153,2016-01-19 02:13:47.305,-1.018158746352392,12258.0,-1.986321262240501,12151.0,221.45,29.72,5.8,99,12.2,22.787,121.3125
24757.0,3997.0,7205.0,-1.9899737,-1.7862380683449808,23.4363,120.4147,32.0,CHY106,2016,1,19,2,13,26.83,3,116.73,3.18,10.28,7.02,182.4,30801900.MNS, NANO,20160100000000.0,308,y,58.74000168,2016-01-19 02:13:47.340,-0.978593800608044,14911.0,-1.8103789487755904,14942.0,227.63,29.72,5.8,99,12.2,22.787,121.3125
24757.0,4005.0,7212.0,-2.092727,-1.835810478535332,23.4707,120.4453,34.0,CHY048,2016,1,19,2,13,26.83,3,116.7,5.28,13.86,12.38,221.9,31801900.MNS, NANO,20160100000000.0,310,y,58.70500183,2016-01-19 02:13:47.376,-0.7929481851832685,14884.0,-1.8538650358129372,14979.0,248.65,29.72,5.8,99,12.2,22.787,121.3125
24757.0,4005.0,7563.0,-2.0267715,-2.185341231790645,22.9922,120.1666,13.0,CHY125,2016,1,19,2,13,26.83,2,119.71,3.22,7.8,6.56,45.0,05001900.CVA, CVA ,20160100000000.0,281,y,1.784999967,2016-01-19 02:13:47.382,-1.0578464695830496,3876.0,-2.231579411534715,3899.0,271.64,29.72,5.8,99,12.2,22.787,121.3125
24757.0,4009.0,7557.0,-1.9746553,-2.1523272003837928,23.0006,120.1661,8.0,CHY098,2016,1,19,2,13,26.83,3,119.95,5.22,9.38,10.46,196.7,33701900.MNS, NANO,20160100000000.0,281,y,43.81499863,2016-01-19 02:13:47.399,-0.9694853085139882,12478.0,-2.1544472687082665,12158.0,229.21,29.72,5.8,99,12.2,22.787,121.3125
24757.0,4024.0,7225.0,-1.9705946,-1.7711561979950723,23.4936,120.4553,42.0,CHY047,2016,1,19,2,13,26.83,3,117.59,4.9,12.96,14.22,215.6,32801900.MNS, NANO,20160100000000.0,312,y,59.00999832,2016-01-19 02:13:47.473,-0.7590619845691655,14898.0,-1.7679719583970337,14989.0,183.52,29.72,5.8,99,12.2,22.787,121.3125
24757.0,4045.0,7294.0,-2.005608,-1.6523313838157452,23.4727,120.4164,32.0,CHY009,2016,1,19,2,13,26.83,3,119.11,4.18,16.14,15.02,182.9,37301900.MNS, NANO,20160100000000.0,310,y,59.15999985,2016-01-19 02:13:47.579,-0.6956859050054574,15029.0,-1.670219044776388,15068.0,226.11,29.72,5.8,99,12.2,22.787,121.3125
24757.0,4061.0,7358.0,-2.164994,-1.796126415261869,23.5319,120.4744,102.0,CHY133,2016,1,19,2,13,26.83,3,119.03,4.18,9.16,8.26,120.0,D5801900.SMT, SMTA,20160100000000.0,314,y,47.88000107,2016-01-19 02:13:47.658,-1.0228586577114145,13316.0,-1.778738635231841,12858.0,499.63,29.72,5.8,99,12.2,22.787,121.3125
24757.0,4096.0,7365.0,-2.047066,-1.8018492651161848,23.4963,120.4325,31.0,CHY073,2016,1,19,2,13,26.83,3,119.54,3.3,16.16,11.36,120.0,D3801900.SMT, SMTA,20160100000000.0,311,y,48.26499939,2016-01-19 02:13:47.831,-0.7041445198899544,12839.0,-1.7979011119543014,12909.0,201.48,29.72,5.8,99,12.2,22.787,121.3125
24757.0,4142.0,7490.0,-2.0382519,-1.905899332513901,23.5546,120.4292,30.0,CHY037,2016,1,19,2,13,26.83,3,124.11,9.74,10.9,11.52,53.0,18001900.CVA, CVA ,20160100000000.0,313,y,2.875,2016-01-19 02:13:48.066,-0.8106771218883544,3974.0,-1.9289167916503889,3966.0,208.78,29.72,5.8,99,12.2,22.787,121.3125
24757.0,4165.0,7534.0,-2.1009808,-1.8588499539049,23.4559,120.3306,18.0,CHY095,2016,1,19,2,13,26.83,3,124.9,5.46,9.1,8.52,120.0,D1801900.SMT, SMTA,20160100000000.0,306,y,49.06999969,2016-01-19 02:13:48.179,-0.9285800348486228,13281.0,-1.838450337136813,13167.0,216.36,29.72,5.8,99,12.2,22.787,121.3125
24757.0,4205.0,8744.0,-2.176767,-2.104393721517749,23.6844,120.5703,80.0,CHY101,2016,1,19,2,13,26.83,2,125.09,2.98,6.48,4.88,120.0,C0101900.SMT, SMTA,20160100000000.0,323,y,48.93000031,2016-01-19 02:13:48.380,-1.200661807196972,14191.0,-2.0771267096329398,14312.0,252.37,29.72,5.8,99,12.2,22.787,121.3125
24757.0,4213.0,7659.0,-2.0738144,-1.9683891704725809,23.5193,120.3512,18.0,CHY039,2016,1,19,2,13,26.83,3,127.54,3.2,9.54,10.46,54.0,17701900.CVA, CVA ,20160100000000.0,309,y,3.25,2016-01-19 02:13:48.421,-0.920933127487192,4187.0,-1.9432984500927055,4143.0,195.15,29.72,5.8,99,12.2,22.787,121.3125
24757.0,4223.0,7727.0,-2.0335681,-1.8207811620019465,23.642,120.4838,43.0,CHY030,2016,1,19,2,13,26.83,3,127.11,2.6,11.12,6.9,57.0,17801900.CVA, CVA ,20160100000000.0,318,y,2.154999971,2016-01-19 02:13:48.471,-0.9500248530898412,4010.0,-1.802540634795058,3922.0,207.88,29.72,5.8,99,12.2,22.787,121.3125
24757.0,4244.0,7515.0,-2.2905092,-2.259317218403107,23.7634,120.6862,154.0,TCU126,2016,1,19,2,13,26.83,2,125.68,3.22,3.9,3.92,180.3,24601900.MNS, NANO,20160100000000.0,329,y,59.31000137,2016-01-19 02:13:48.574,-1.357916642590653,15507.0,-2.1954534044092844,15120.0,469.08,29.72,5.8,99,12.2,22.787,121.3125
24757.0,4248.0,7728.0,-2.1036658,-1.957014327869918,23.457,120.2939,17.0,CHY120,2016,1,19,2,13,26.83,3,128.02,3.94,8.0,6.92,197.4,35301900.MNS, NANO,20160100000000.0,305,y,43.15999985,2016-01-19 02:13:48.592,-1.0771358009929537,12243.0,-1.9170585267285625,12097.0,220.13,29.72,5.8,99,12.2,22.787,121.3125
24757.0,4265.0,7564.0,-2.2373781,-2.1929449235604936,23.7222,120.5858,69.0,CHY083,2016,1,19,2,13,26.83,2,127.49,2.72,5.26,6.64,120.0,C0001900.SMT, SMTA,20160100000000.0,324,y,49.84000015,2016-01-19 02:13:48.679,-1.1742669471549776,14447.0,-2.1838197616541195,13254.0,374.02,29.72,5.8,99,12.2,22.787,121.3125
24757.0,4277.0,8001.0,-2.049444,-1.988904468270517,23.5547,120.3453,16.0,CHY105,2016,1,19,2,13,26.83,3,130.5,4.28,11.76,16.78,199.5,34101900.MNS, NANO,20160100000000.0,311,y,43.38999939,2016-01-19 02:13:48.736,-0.7829603571454985,12182.0,-1.9351216259254,13420.0,204.36,29.72,5.8,99,12.2,22.787,121.3125
24757.0,4287.0,7748.0,-2.1350477,-2.122902800481093,23.6988,120.5305,47.0,CHY126,2016,1,19,2,13,26.83,2,128.82,2.92,5.96,6.42,45.0,04701900.CVA, CVA ,20160100000000.0,322,y,1.605000019,2016-01-19 02:13:48.791,-1.0944316964963263,3851.0,-2.1110401652695354,3832.0,332.46,29.72,5.8,99,12.2,22.787,121.3125
24757.0,4299.0,7775.0,-2.2857966,-2.3542629241209143,23.7553,120.6156,101.0,CHY024,2016,1,19,2,13,26.83,2,128.77,3.02,3.86,4.98,180.4,14301900.MNS, NANO,20160100000000.0,326,y,58.88999939,2016-01-19 02:13:48.848,-1.303379892555757,15471.0,-2.373871964846387,15242.0,408.5,29.72,5.8,99,12.2,22.787,121.3125
24757.0,4317.0,8100.0,-2.089651,-2.1270281239707907,23.4836,120.2776,11.0,CHY008,2016,1,19,2,13,26.83,2,131.09,3.32,5.2,5.12,120.0,C9701900.SMT, SMTA,20160100000000.0,306,y,49.31000137,2016-01-19 02:13:48.939,-1.243725510547585,13552.0,-2.1242495260680503,13417.0,209.5,29.72,5.8,99,12.2,22.787,121.3125
24757.0,4414.0,9395.0,-2.1491776,-2.1780375927711435,23.7268,120.464,32.0,CHY084,2016,1,19,2,13,26.83,2,135.53,4.04,5.26,5.44,180.4,30201900.MNS, NANO,20160100000000.0,320,y,56.23500061,2016-01-19 02:13:49.422,-1.3440821790664754,16168.0,-2.118390542414374,16087.0,259.07,29.72,5.8,99,12.2,22.787,121.3125
24757.0,4450.0,9716.0,-2.2403924,-2.0316096711373914,23.7168,120.4201,27.0,CHY002,2016,1,19,2,13,26.83,2,137.65,2.58,4.74,3.8,199.9,14901900.MNS, NANO,20160100000000.0,318,y,41.79499817,2016-01-19 02:13:49.603,-1.2653952303184344,13425.0,-2.0324620828118585,13465.0,229.62,29.72,5.8,99,12.2,22.787,121.3125
24757.0,4527.0,8214.0,-2.3790348,-2.4946807320453943,23.8764,120.6926,113.0,TCU166,2016,1,19,2,13,26.83,2,136.27,3.84,4.44,2.6,120.0,B8201900.SMT, SMTA,20160100000000.0,332,y,50.31499863,2016-01-19 02:13:49.989,-1.358481776926614,13707.0,-2.531643345225799,13735.0,480.39,29.72,5.8,99,12.2,22.787,121.3125
24757.0,4529.0,8212.0,-2.3670826,-2.4883814814285112,23.8766,120.6925,113.0,TCU129,2016,1,19,2,13,26.83,2,136.3,4.3,4.88,2.9,120.0,C4501900.SMT, SMTA,20160100000000.0,332,y,50.33499908,2016-01-19 02:13:49.999,-1.3262059336219278,13708.0,-2.5292520343742777,13736.0,506.46,29.72,5.8,99,12.2,22.787,121.3125
