EQ_ID,p_picks,pga_time_window,predict,answer,latitude,longitude,elevation,station_name,year,month,day,hour,minute,second,intensity,epdis (km),pga_z,pga_ns,pga_ew,record_time (sec),file_name,instrument_code,start_time,sta_angle,quality_control,p_pick_sec,p_arrival_abs_time,pga,pga_time_file,pgv,pgv_time,Vs30,depth,magnitude,nsta,nearest_sta_dist (km),event_lat,event_lon
24784.0,2444.0,4367.0,-0.49900872,0.1969317742805856,23.323,120.3096,12.0,CHY122,2016,2,5,19,57,26.08,5,50.46,49.28,87.0,142.26,286.0,36903600.MNS, NANO,20160200000000.0,332,y,58.95500183,2016-02-05 19:57:36.650,0.1969317742805856,13714.0,-0.6410024560090783,13781.0,224.98,14.64,6.6,99,2.5,22.922,120.54383333333334
24784.0,2454.0,4616.0,-0.39011106,0.1860553885561552,23.146882,120.085954,1.0,CHY115,2016,2,5,19,57,26.08,5,53.14,30.84,102.08,157.94,120.0,F0603600.SMT, SMTA,20160200000000.0,298,y,36.59999847,2016-02-05 19:57:36.703,0.1860553885561552,9482.0,-0.6293302388503177,9572.0,185.48,14.64,6.6,99,2.5,22.922,120.54383333333334
24784.0,2456.0,4536.0,-0.4738651,-0.4405134418755486,22.9023,121.08,247.0,TTN025,2016,2,5,19,57,26.08,4,55.04,16.92,27.46,33.9,300.0,L7803600.SMT, SMTA,20160200000000.0,92,y,96.90000153,2016-02-05 19:57:36.710,-0.4405134418755486,21460.0,-1.6409272853602634,21498.0,701.1,14.64,6.6,99,2.5,22.922,120.54383333333334
24784.0,2458.0,4655.0,-0.40952808,0.2684776184066654,23.2926,120.2441,9.0,CHY129,2016,2,5,19,57,26.08,5,51.26,34.9,136.1,171.34,281.3,12003600.MNS, NANO,20160200000000.0,323,y,58.97000122,2016-02-05 19:57:36.723,0.2684776184066654,13991.0,-0.6791849900843593,13873.0,210.34,14.64,6.6,99,2.5,22.922,120.54383333333334
24784.0,2480.0,6060.0,-0.45911187,-0.7437527566686083,22.6725,121.0371,20.0,TTN050,2016,2,5,19,57,26.08,3,57.68,10.2,15.48,15.84,300.0,M2903600.SMT, SMTA,20160200000000.0,119,y,97.0,2016-02-05 19:57:36.832,-0.7437527566686083,22980.0,-1.8785528261795463,22912.0,488.32,14.64,6.6,99,2.5,22.922,120.54383333333334
24784.0,2484.0,4294.0,-0.99640065,-0.8905687199904145,22.6156,121.0069,28.0,TTN003,2016,2,5,19,57,26.08,3,58.41,11.1,12.16,10.44,64.0,11403600.CVA, CVA ,20160200000000.0,126,y,14.18999958,2016-02-05 19:57:36.852,-0.8905687199904145,4648.0,-2.0241887206241747,5929.0,508.47,14.64,6.6,99,2.5,22.922,120.54383333333334
24784.0,2490.0,4806.0,-0.5770374,-0.7103298924434224,22.7767,121.0629,135.0,TTN028,2016,2,5,19,57,26.08,3,55.64,17.0,15.8,17.92,300.0,L7103600.SMT, SMTA,20160200000000.0,107,y,97.02999878,2016-02-05 19:57:36.883,-0.7103298924434224,21722.0,-1.8424286421885487,22678.0,619.83,14.64,6.6,99,2.5,22.922,120.54383333333334
24784.0,2492.0,4412.0,-0.75668335,-0.5822970645299934,22.8174,121.08,199.0,TTN018,2016,2,5,19,57,26.08,3,56.22,10.38,13.56,22.2,120.0,F4503600.SMT, SMTA,20160200000000.0,102,y,37.125,2016-02-05 19:57:36.890,-0.5822970645299934,9345.0,-1.5643676036596514,9388.0,510.94,14.64,6.6,99,2.5,22.922,120.54383333333334
24784.0,2496.0,4485.0,-0.63010746,-0.5043230402365015,22.8597,121.0918,227.0,TTN026,2016,2,5,19,57,26.08,4,56.64,14.8,19.16,31.3,120.0,F0503600.SMT, SMTA,20160200000000.0,97,y,37.23500061,2016-02-05 19:57:36.911,-0.5043230402365015,9436.0,-1.5835776983344565,9396.0,736.89,14.64,6.6,99,2.5,22.922,120.54383333333334
24784.0,2496.0,4954.0,-0.9062132,-0.9357964301358044,22.717309,121.049131,63.0,TTN029,2016,2,5,19,57,26.08,3,56.6,9.58,11.2,9.84,300.0,M3103600.SMT, SMTA,20160200000000.0,114,y,97.91500092,2016-02-05 19:57:36.912,-0.9357964301358044,22041.0,-2.0155120465050853,21413.0,519.26,14.64,6.6,99,2.5,22.922,120.54383333333334
24784.0,2500.0,6268.0,-1.1143763,-0.5701710926168966,22.4263,120.5649,17.0,KAU076,2016,2,5,19,57,26.08,4,54.93,8.4,22.14,25.82,300.0,N3603600.SMT, SMTA,20160200000000.0,178,y,97.36499786,2016-02-05 19:57:36.932,-0.5701710926168966,23241.0,-1.1751770981438514,23127.0,280.18,14.64,6.6,99,2.5,22.922,120.54383333333334
24784.0,2535.0,6791.0,-0.92993444,-0.4277604385940789,22.4622,120.4606,5.0,KAU033,2016,2,5,19,57,26.08,4,51.58,13.12,31.42,32.12,88.0,T380001.036 , A900,20160200000000.0,189,y,15.64000034,2016-02-05 19:57:37.109,-0.4277604385940789,7384.0,-1.2871109145396673,8468.0,186.55,14.64,6.6,99,2.5,22.922,120.54383333333334
24784.0,2546.0,4352.0,-0.7720788,-0.7472987050149751,23.1871,121.0251,1058.0,TTN051,2016,2,5,19,57,26.08,3,57.38,12.42,14.58,14.92,120.0,F0003600.SMT, SMTA,20160200000000.0,59,y,37.88000107,2016-02-05 19:57:37.160,-0.7472987050149751,9382.0,-1.7454989060808477,9582.0,902.74,14.64,6.6,99,2.5,22.922,120.54383333333334
24784.0,2547.0,6250.0,-0.92768496,-0.421757174395299,22.4367,120.5115,4.0,KAU044,2016,2,5,19,57,26.08,4,53.85,10.16,31.54,32.32,120.0,F4303600.SMT, SMTA,20160200000000.0,184,y,37.99000168,2016-02-05 19:57:37.169,-0.421757174395299,11301.0,-1.177968473208311,11205.0,215.93,14.64,6.6,99,2.5,22.922,120.54383333333334
24784.0,2548.0,4441.0,-0.4904426,-0.4045446051342751,22.8073,121.0938,106.0,TTN027,2016,2,5,19,57,26.08,4,57.84,18.44,22.06,37.68,300.0,L5703600.SMT, SMTA,20160200000000.0,103,y,97.57499695,2016-02-05 19:57:37.173,-0.4045446051342751,21408.0,-1.560359176506872,21550.0,318.22,14.64,6.6,99,2.5,22.922,120.54383333333334
24784.0,2553.0,6843.0,-0.88535386,-0.4178061443761504,22.4788,120.4111,4.0,KAU089,2016,2,5,19,57,26.08,4,50.93,11.84,33.18,37.32,89.0,T481001.036 , A900,20160200000000.0,196,y,17.59000015,2016-02-05 19:57:37.196,-0.4178061443761504,7808.0,-1.2044892080571747,7790.0,191.45,14.64,6.6,99,2.5,22.922,120.54383333333334
24784.0,2568.0,4689.0,-0.42728755,0.2676518598005744,23.2621,120.1392,3.0,CHY056,2016,2,5,19,57,26.08,5,56.01,35.94,165.5,165.38,117.0,15703600.CVA, CVA ,20160200000000.0,312,y,17.65999985,2016-02-05 19:57:37.272,0.2676518598005744,5653.0,-0.4376424986492823,5800.0,189.0,14.64,6.6,99,2.5,22.922,120.54383333333334
24784.0,2579.0,4739.0,-0.49739474,0.2300949095686585,23.3561,120.2738,15.0,CHY013,2016,2,5,19,57,26.08,5,55.46,47.56,170.66,102.76,288.9,31203600.MNS, NANO,20160200000000.0,330,y,59.41999817,2016-02-05 19:57:37.327,0.2300949095686585,14044.0,-0.7273269517293315,14049.0,216.23,14.64,6.6,99,2.5,22.922,120.54383333333334
24784.0,2587.0,5542.0,-0.36412498,-0.4525460540859117,22.908,121.1365,140.0,TTN004,2016,2,5,19,57,26.08,4,60.81,16.38,35.28,23.12,83.0,11203600.CVA, CVA ,20160200000000.0,91,y,18.64999962,2016-02-05 19:57:37.364,-0.4525460540859117,6685.0,-1.3753458008746329,6234.0,602.68,14.64,6.6,99,2.5,22.922,120.54383333333334
24784.0,2597.0,4789.0,-0.54347867,-0.5606493754926044,22.9703,121.1167,281.0,TTN024,2016,2,5,19,57,26.08,3,58.99,14.36,22.78,22.14,300.0,L8903600.SMT, SMTA,20160200000000.0,85,y,98.18000031,2016-02-05 19:57:37.418,-0.5606493754926044,21828.0,-1.53375521252615,21498.0,550.11,14.64,6.6,99,2.5,22.922,120.54383333333334
24784.0,2599.0,4504.0,-0.8649517,-0.6385403004992761,22.7721,121.091,59.0,TTN048,2016,2,5,19,57,26.08,3,58.55,14.54,15.16,21.88,300.0,L8003600.SMT, SMTA,20160200000000.0,106,y,97.73999786,2016-02-05 19:57:37.427,-0.6385403004992761,21453.0,-1.7753705115240834,21633.0,733.14,14.64,6.6,99,2.5,22.922,120.54383333333334
24784.0,2607.0,4592.0,-0.75629956,-0.8071954242041758,22.5321,120.9667,24.0,TTN037,2016,2,5,19,57,26.08,3,61.23,5.16,15.88,7.7,300.0,N2703600.SMT, SMTA,20160200000000.0,135,y,97.42500305,2016-02-05 19:57:37.468,-0.8071954242041758,21470.0,-2.087995243993128,21481.0,738.19,14.64,6.6,99,2.5,22.922,120.54383333333334
24784.0,2626.0,6376.0,-1.1538106,-0.7699851873153026,22.3703,120.6282,66.0,KAU051,2016,2,5,19,57,26.08,3,61.7,7.86,9.8,16.16,120.0,D1203600.SMT, SMTA,20160200000000.0,172,y,37.59999847,2016-02-05 19:57:37.563,-0.7699851873153026,11270.0,-1.7217059576548046,10999.0,1019.54,14.64,6.6,99,2.5,22.922,120.54383333333334
24784.0,2628.0,4711.0,-0.42858192,0.1713156650727812,23.3473,120.2227,6.0,CHY134,2016,2,5,19,57,26.08,5,57.45,37.52,131.84,147.34,180.0,D9303600.SMT, SMTA,20160200000000.0,325,y,38.11500168,2016-02-05 19:57:37.571,0.1713156650727812,9706.0,-0.6896108670341637,9757.0,215.92,14.64,6.6,99,2.5,22.922,120.54383333333334
24784.0,2640.0,4946.0,-0.91931874,-0.5870022282035394,22.8383,121.1385,113.0,TTN047,2016,2,5,19,57,26.08,3,61.71,8.98,20.6,17.88,300.0,L6703600.SMT, SMTA,20160200000000.0,99,y,98.83000183,2016-02-05 19:57:37.630,-0.5870022282035394,22072.0,-1.7830436105071328,21786.0,503.27,14.64,6.6,99,2.5,22.922,120.54383333333334
24784.0,2653.0,4545.0,-0.46431637,0.3904871843760107,23.4048,120.3363,19.0,CHY043,2016,2,5,19,57,26.08,5,57.54,42.16,214.66,136.86,142.0,17403600.CVA, CVA ,20160200000000.0,338,y,17.04999924,2016-02-05 19:57:37.697,0.3904871843760107,5302.0,-0.637005979815444,5461.0,225.41,14.64,6.6,99,2.5,22.922,120.54383333333334
24784.0,2659.0,4889.0,-0.6047798,-0.0209399994695911,23.463,120.5529,211.0,CHY010,2016,2,5,19,57,26.08,5,59.92,24.36,73.06,85.08,120.0,D0003600.SMT, SMTA,20160200000000.0,1,y,37.78499985,2016-02-05 19:57:37.724,-0.0209399994695911,9787.0,-1.1518607548769535,9695.0,816.86,14.64,6.6,99,2.5,22.922,120.54383333333334
24784.0,2664.0,4682.0,-0.52133775,0.0078119352458524,23.4592,120.5237,134.0,CHY132,2016,2,5,19,57,26.08,5,59.52,48.74,82.82,78.46,87.0,17003600.CVA, CVA ,20160200000000.0,358,y,17.86499977,2016-02-05 19:57:37.752,0.0078119352458524,5591.0,-1.0640887539817971,5604.0,513.29,14.64,6.6,99,2.5,22.922,120.54383333333334
24784.0,2666.0,5085.0,-0.57480884,0.1423399685976365,23.3304,120.1597,5.0,CHY012,2016,2,5,19,57,26.08,5,59.94,37.72,131.68,108.9,120.0,C8003600.SMT, SMTA,20160200000000.0,319,y,38.01499939,2016-02-05 19:57:37.762,0.1423399685976365,10022.0,-0.6669381697651168,10091.0,192.22,14.64,6.6,99,2.5,22.922,120.54383333333334
24784.0,2681.0,3464.0,-0.82635343,-0.7051230836300996,22.7814,121.1193,38.0,TTN011,2016,2,5,19,57,26.08,3,61.08,20.82,15.6,14.46,207.9,34203600.MNS, NANO,20160200000000.0,105,y,59.30500031,2016-02-05 19:57:37.839,-0.7051230836300996,12644.0,-1.7809517739471,15625.0,445.37,14.64,6.6,99,2.5,22.922,120.54383333333334
24784.0,2692.0,3481.0,-0.8544523,-0.780948617350799,22.7304,121.1074,21.0,TTN049,2016,2,5,19,57,26.08,3,61.6,17.7,10.96,11.52,72.0,09803600.CVA, CVA ,20160200000000.0,110,y,18.42499924,2016-02-05 19:57:37.889,-0.780948617350799,4474.0,-1.7588972110123524,7988.0,467.11,14.64,6.6,99,2.5,22.922,120.54383333333334
24784.0,2700.0,5076.0,-0.42790753,0.1858186455568235,23.4363,120.4147,32.0,CHY106,2016,2,5,19,57,26.08,5,58.47,38.16,149.96,121.04,263.7,30803600.MNS, NANO,20160200000000.0,347,y,59.43500137,2016-02-05 19:57:37.932,0.1858186455568235,14263.0,-0.6489577390117315,13904.0,227.63,14.64,6.6,99,2.5,22.922,120.54383333333334
24784.0,2714.0,4817.0,-0.91121304,-0.7300732743607622,22.9741,121.1564,190.0,TTN045,2016,2,5,19,57,26.08,3,63.07,11.56,14.14,15.64,300.0,L9003600.SMT, SMTA,20160200000000.0,85,y,98.75,2016-02-05 19:57:38.002,-0.7300732743607622,21853.0,-1.6178210326366382,21853.0,539.47,14.64,6.6,99,2.5,22.922,120.54383333333334
24784.0,2718.0,6187.0,-0.9093065,-0.9546278665162438,22.462,120.9409,17.0,TTN038,2016,2,5,19,57,26.08,3,65.26,4.68,9.4,5.78,240.0,M9903600.SMT, SMTA,20160200000000.0,141,y,98.06999969,2016-02-05 19:57:38.021,-0.9546278665162438,23083.0,-2.0682233605539952,23125.0,402.23,14.64,6.6,99,2.5,22.922,120.54383333333334
24784.0,2719.0,5026.0,-0.4441939,-0.3505487594250895,23.1324,121.1251,437.0,TTN041,2016,2,5,19,57,26.08,4,63.98,22.28,30.76,40.46,81.0,10003600.CVA, CVA ,20160200000000.0,69,y,18.81999969,2016-02-05 19:57:38.027,-0.3505487594250895,6071.0,-1.5424258992393087,5753.0,431.59,14.64,6.6,99,2.5,22.922,120.54383333333334
24784.0,2723.0,5102.0,-0.7072239,0.2147151177149846,23.4831,120.6544,658.0,CHY011,2016,2,5,19,57,26.08,5,63.15,39.08,89.7,157.52,120.0,D5503600.SMT, SMTA,20160200000000.0,10,y,38.16500092,2016-02-05 19:57:38.049,0.2147151177149846,10012.0,-1.0186330840036135,10053.0,581.47,14.64,6.6,99,2.5,22.922,120.54383333333334
24784.0,2750.0,4065.0,-0.87644583,-0.668895324170399,22.7368,121.1217,18.0,TTN010,2016,2,5,19,57,26.08,3,62.75,23.22,14.38,15.76,230.9,34303600.MNS, NANO,20160200000000.0,109,y,58.66500092,2016-02-05 19:57:38.183,-0.668895324170399,13048.0,-1.693529873587604,15690.0,296.3,14.64,6.6,99,2.5,22.922,120.54383333333334
24784.0,2758.0,5182.0,-1.0297499,-0.8679536912728392,22.766,121.136,26.0,TTN013,2016,2,5,19,57,26.08,3,63.18,7.6,9.42,10.18,208.6,36003600.MNS, NANO,20160200000000.0,106,y,58.72000122,2016-02-05 19:57:38.220,-0.8679536912728392,14168.0,-1.80219851396812,15879.0,268.11,14.64,6.6,99,2.5,22.922,120.54383333333334
24784.0,2765.0,4855.0,-0.6194161,0.1213693575322415,23.4722,120.4674,49.0,CHY119,2016,2,5,19,57,26.08,5,61.43,56.7,116.32,108.28,253.6,38103600.MNS, NANO,20160200000000.0,353,y,59.59500122,2016-02-05 19:57:38.257,0.1213693575322415,14009.0,-1.0317707930905493,14015.0,498.38,14.64,6.6,99,2.5,22.922,120.54383333333334
24784.0,2774.0,4866.0,-0.5254365,0.2547555884455061,23.4753,120.4713,82.0,CHY046,2016,2,5,19,57,26.08,5,61.73,51.88,183.86,131.32,99.0,18203600.CVA, CVA ,20160200000000.0,353,y,17.45999908,2016-02-05 19:57:38.303,0.2547555884455061,5584.0,-1.0608189352340092,5724.0,446.46,14.64,6.6,99,2.5,22.922,120.54383333333334
24784.0,2785.0,6003.0,-1.0190969,-0.8302677097668404,22.7705,121.1449,25.0,TTN006,2016,2,5,19,57,26.08,3,63.92,8.98,13.98,13.24,210.2,37803600.MNS, NANO,20160200000000.0,105,y,59.26499939,2016-02-05 19:57:38.354,-0.8302677097668404,15071.0,-1.7286764426528112,15499.0,698.53,14.64,6.6,99,2.5,22.922,120.54383333333334
24784.0,2788.0,4785.0,-0.74380904,0.171317812747603,23.4707,120.4453,34.0,CHY048,2016,2,5,19,57,26.08,5,61.59,31.88,136.64,88.04,258.5,31803600.MNS, NANO,20160200000000.0,351,y,59.00500107,2016-02-05 19:57:38.372,0.171317812747603,13798.0,-0.8458864713150561,13845.0,248.65,14.64,6.6,99,2.5,22.922,120.54383333333334
24784.0,2804.0,5084.0,-0.4626365,0.2671325260896462,23.4559,120.3306,18.0,CHY095,2016,2,5,19,57,26.08,5,63.03,29.66,117.68,189.3,180.0,D1803600.SMT, SMTA,20160200000000.0,340,y,38.58499908,2016-02-05 19:57:38.452,0.2671325260896462,9997.0,-0.8162647439517265,10004.0,216.36,14.64,6.6,99,2.5,22.922,120.54383333333334
24784.0,2815.0,4984.0,-0.46438307,0.2913335701728149,23.4727,120.4164,32.0,CHY009,2016,2,5,19,57,26.08,5,62.36,38.76,176.74,188.62,272.3,37303600.MNS, NANO,20160200000000.0,348,y,58.99499893,2016-02-05 19:57:38.505,0.2913335701728149,13968.0,-0.6810975845774011,13915.0,226.11,14.64,6.6,99,2.5,22.922,120.54383333333334
24784.0,2815.0,5165.0,-0.835232,-0.506757010861598,23.006,121.174,211.0,TTN044,2016,2,5,19,57,26.08,4,65.28,15.8,30.38,23.32,92.0,09903600.CVA, CVA ,20160200000000.0,82,y,18.21500015,2016-02-05 19:57:38.508,-0.506757010861598,5993.0,-1.3694332643477936,7301.0,353.36,14.64,6.6,99,2.5,22.922,120.54383333333334
24784.0,2821.0,6603.0,-1.1136421,-0.8799633840012461,22.382,120.8564,457.0,TTN053,2016,2,5,19,57,26.08,3,67.88,6.48,10.2,9.7,120.0,E9003600.SMT, SMTA,20160200000000.0,152,y,38.68000031,2016-02-05 19:57:38.537,-0.8799633840012461,11518.0,-1.8537647597814693,11931.0,627.81,14.64,6.6,99,2.5,22.922,120.54383333333334
24784.0,2822.0,5917.0,-0.8526872,-0.8423056858394119,22.7646,121.1525,18.0,TTN007,2016,2,5,19,57,26.08,3,64.73,7.72,12.84,13.78,236.4,34503600.MNS, NANO,20160200000000.0,106,y,58.41500092,2016-02-05 19:57:38.540,-0.8472418499178404,15333.0,-1.6888526609417105,15386.0,648.28,14.64,6.6,99,2.5,22.922,120.54383333333334
24784.0,2822.0,6472.0,-0.9746781,-0.8472418499178404,22.7615,121.1504,17.0,TTN056,2016,2,5,19,57,26.08,3,64.85,6.2,12.34,12.84,65.0,14203600.CVA, CVA ,20160200000000.0,106,y,6.539999962,2016-02-05 19:57:38.548,-0.8423056858394119,4403.0,-1.6522604822834817,6312.0,297.6,14.64,6.6,99,2.5,22.922,120.54383333333334
24784.0,2828.0,5172.0,-0.70337886,-0.2900866476879969,23.0512,121.1638,231.0,TTN023,2016,2,5,19,57,26.08,4,65.15,19.82,44.56,37.08,252.7,41903600.MNS, NANO,20160200000000.0,77,y,60.22000122,2016-02-05 19:57:38.570,-0.2900866476879969,14388.0,-1.248557892806704,14443.0,542.2,14.64,6.6,99,2.5,22.922,120.54383333333334
24784.0,2828.0,5088.0,-0.50652874,0.2375239512198993,23.4201,120.2139,4.0,CHY113,2016,2,5,19,57,26.08,5,64.69,43.78,157.4,159.64,293.9,12903600.MNS, NANO,20160200000000.0,329,y,59.90999985,2016-02-05 19:57:38.573,0.2375239512198993,14242.0,-0.6317826081368375,14279.0,240.64,14.64,6.6,99,2.5,22.922,120.54383333333334
24784.0,2848.0,5272.0,-0.52800936,0.2012852542271276,23.457,120.2939,17.0,CHY120,2016,2,5,19,57,26.08,5,64.54,40.86,103.34,154.56,276.8,35303600.MNS, NANO,20160200000000.0,337,y,58.63000107,2016-02-05 19:57:38.674,0.2012852542271276,14150.0,-0.8399400675689805,14093.0,220.13,14.64,6.6,99,2.5,22.922,120.54383333333334
24784.0,2860.0,5565.0,-1.0127088,-0.7054457758091106,22.7522,121.1549,12.0,TTN015,2016,2,5,19,57,26.08,3,65.46,8.9,12.04,17.02,120.0,F2403600.SMT, SMTA,20160200000000.0,107,y,39.68000031,2016-02-05 19:57:38.733,-0.7054457758091106,10641.0,-1.6175760890736066,10693.0,491.66,14.64,6.6,99,2.5,22.922,120.54383333333334
24784.0,2861.0,5070.0,-0.4012885,0.5271360819903467,23.4936,120.4553,42.0,CHY047,2016,2,5,19,57,26.08,6,63.95,75.44,279.2,244.22,256.4,32803600.MNS, NANO,20160200000000.0,352,y,59.02500153,2016-02-05 19:57:38.739,0.5271360819903467,14014.0,-0.7647501671447784,14151.0,183.52,14.64,6.6,99,2.5,22.922,120.54383333333334
24784.0,2868.0,5537.0,-1.0278056,-0.7463156097374137,22.7567,121.1588,13.0,TTN008,2016,2,5,19,57,26.08,3,65.72,9.32,16.72,17.08,230.7,32503600.MNS, NANO,20160200000000.0,106,y,57.75500107,2016-02-05 19:57:38.770,-0.7463156097374137,14220.0,-1.5673488433223617,15878.0,269.61,14.64,6.6,99,2.5,22.922,120.54383333333334
24784.0,2885.0,6468.0,-0.90136325,-0.695011376199223,22.8784,121.2276,56.0,TTN035,2016,2,5,19,57,26.08,3,70.31,7.24,19.66,16.52,300.0,M3803600.SMT, SMTA,20160200000000.0,94,y,100.5650024,2016-02-05 19:57:38.859,-0.695011376199223,23696.0,-1.7090942490096908,23927.0,519.75,14.64,6.6,99,2.5,22.922,120.54383333333334
24784.0,2886.0,5298.0,-0.7050025,0.2435173602004628,23.5207,120.5525,138.0,CHY034,2016,2,5,19,57,26.08,5,66.3,44.22,139.34,156.58,120.0,D8803600.SMT, SMTA,20160200000000.0,1,y,39.0,2016-02-05 19:57:38.862,0.2435173602004628,10212.0,-0.8737171180939375,10109.0,383.14,14.64,6.6,99,2.5,22.922,120.54383333333334
24784.0,2892.0,5053.0,-0.5608094,0.2299407095424793,23.4963,120.4325,31.0,CHY073,2016,2,5,19,57,26.08,5,64.62,38.96,116.34,167.56,180.0,D3803600.SMT, SMTA,20160200000000.0,350,y,39.68000031,2016-02-05 19:57:38.893,0.2299407095424793,10097.0,-0.7052645459354002,10135.0,201.48,14.64,6.6,99,2.5,22.922,120.54383333333334
24784.0,2905.0,5320.0,-1.1377933,-0.9692601920380484,22.7963,121.1938,34.0,TTN036,2016,2,5,19,57,26.08,3,68.13,5.44,6.14,10.36,300.0,M4003600.SMT, SMTA,20160200000000.0,102,y,100.1600037,2016-02-05 19:57:38.955,-0.9692601920380484,22447.0,-1.8096719100340724,22498.0,427.03,14.64,6.6,99,2.5,22.922,120.54383333333334
24784.0,2911.0,5395.0,-0.74426115,-0.8981472381522284,23.102,121.1759,307.0,TTN021,2016,2,5,19,57,26.08,3,67.79,11.52,13.8,12.4,206.1,13103600.MNS, NANO,20160200000000.0,73,y,59.11500168,2016-02-05 19:57:38.985,-0.8981472381522284,14307.0,-1.8057711784681243,13970.0,673.86,14.64,6.6,99,2.5,22.922,120.54383333333334
24784.0,2950.0,5576.0,-0.9263125,-0.6906655810720821,22.8959,121.2487,28.0,TTN034,2016,2,5,19,57,26.08,3,74.31,9.24,19.18,19.28,300.0,M0403600.SMT, SMTA,20160200000000.0,89,y,100.8649979,2016-02-05 19:57:39.181,-0.6906655810720821,22799.0,-1.7221620070959118,23575.0,457.49,14.64,6.6,99,2.5,22.922,120.54383333333334
24784.0,2958.0,5308.0,-0.563211,0.3126791213209625,23.4836,120.2776,11.0,CHY008,2016,2,5,19,57,26.08,5,67.91,52.5,158.82,193.18,180.0,C9703600.SMT, SMTA,20160200000000.0,336,y,39.29999924,2016-02-05 19:57:39.220,0.3126791213209625,10210.0,-0.6099865307227559,10262.0,209.5,14.64,6.6,99,2.5,22.922,120.54383333333334
24784.0,2969.0,5701.0,-0.73872554,-0.0653392731497783,23.5084,120.8134,2417.0,CHY074,2016,2,5,19,57,26.08,5,70.55,33.28,81.34,70.18,120.0,C4203600.SMT, SMTA,20160200000000.0,23,y,39.5,2016-02-05 19:57:39.276,-0.0653392731497783,10632.0,-1.1795022643173885,10812.0,524.61,14.64,6.6,99,2.5,22.922,120.54383333333334
