EQ_ID,p_picks,pga_time_window,predict,answer,latitude,longitude,elevation,station_name,year,month,day,hour,minute,second,intensity,epdis (km),pga_z,pga_ns,pga_ew,record_time (sec),file_name,instrument_code,start_time,sta_angle,quality_control,p_pick_sec,p_arrival_abs_time,pga,pga_time_file,pgv,pgv_time,Vs30,depth,magnitude,nsta,nearest_sta_dist (km),event_lat,event_lon
24757.0,3498.0,6639.0,-0.88556844,-0.8896615221515287,23.2799,120.4673,128.0,CHY051,2016,1,19,2,13,26.83,3,102.38,4.56,11.3,8.66,207.6,30701900.MNS, NANO,20160100000000.0,302,y,55.56499863,2016-01-19 02:13:44.840,-0.8896615221515287,14254.0,-1.9616649657116665,14199.0,363.88,29.72,5.8,99,12.2,22.787,121.3125
24757.0,3501.0,6770.0,-0.9401686,-1.0133573973896337,22.6426,120.3686,24.0,KAU007,2016,1,19,2,13,26.83,3,98.26,6.48,8.08,8.0,120.0,F4801900.SMT, SMTA,20160100000000.0,261,y,46.63999939,2016-01-19 02:13:44.858,-1.0133573973896337,12597.0,-1.7553082540748377,12670.0,256.55,29.72,5.8,99,12.2,22.787,121.3125
24757.0,3517.0,6709.0,-0.68078166,-0.6931574905580666,23.3821,120.5299,175.0,CHY087,2016,1,19,2,13,26.83,3,103.79,6.06,11.46,18.9,120.0,C2101900.SMT, SMTA,20160100000000.0,309,y,45.24000168,2016-01-19 02:13:44.940,-0.6931574905580666,12240.0,-1.912140011615018,12248.0,508.0,29.72,5.8,99,12.2,22.787,121.3125
24757.0,3550.0,7178.0,-1.0863674,-1.0861513014345816,22.5925,120.3593,5.0,KAU093,2016,1,19,2,13,26.83,3,100.26,2.86,6.02,8.06,47.0,04601900.CVA, CVA ,20160100000000.0,258,y,3.349999905,2016-01-19 02:13:45.106,-1.0861513014345816,4298.0,-2.0234664619062346,4151.0,395.82,29.72,5.8,99,12.2,22.787,121.3125
24757.0,3572.0,6874.0,-0.86584616,-0.9618232092483922,22.631,120.3515,14.0,KAU004,2016,1,19,2,13,26.83,3,100.22,4.4,9.56,8.0,216.2,40101900.MNS, NANO,20160100000000.0,260,y,60.25,2016-01-19 02:13:45.211,-0.9618232092483922,15352.0,-1.8524058110985235,15398.0,221.89,29.72,5.8,99,12.2,22.787,121.3125
24757.0,3606.0,6955.0,-0.91033024,-1.1906439859278757,22.7522,120.3116,16.0,KAU065,2016,1,19,2,13,26.83,2,102.85,3.52,5.84,4.44,240.0,N4901900.SMT, SMTA,20160100000000.0,268,y,47.23500061,2016-01-19 02:13:45.381,-1.1906439859278757,12796.0,-2.240673669961708,12836.0,244.86,29.72,5.8,99,12.2,22.787,121.3125
24757.0,3613.0,7433.0,-0.9675271,-1.1897311682740326,22.6543,120.3414,12.0,KAU015,2016,1,19,2,13,26.83,2,100.83,3.12,6.38,5.46,120.0,F3701900.SMT, SMTA,20160100000000.0,262,y,46.90499878,2016-01-19 02:13:45.416,-1.1897311682740326,13201.0,-2.1921728815211807,13202.0,227.14,29.72,5.8,99,12.2,22.787,121.3125
24757.0,3615.0,6993.0,-0.9128244,-1.1041351961496682,22.7927,120.303,12.0,KAU086,2016,1,19,2,13,26.83,2,103.64,4.76,5.76,7.88,240.0,N3701900.SMT, SMTA,20160100000000.0,270,y,47.20999908,2016-01-19 02:13:45.426,-1.1041351961496682,12820.0,-1.9941478992117423,12784.0,213.47,29.72,5.8,99,12.2,22.787,121.3125
24757.0,3618.0,8125.0,-0.87845415,-1.1182934578581591,23.0259,120.3495,48.0,CHY063,2016,1,19,2,13,26.83,2,102.26,3.56,5.9,6.28,57.0,16201900.CVA, CVA ,20160100000000.0,285,y,2.075000048,2016-01-19 02:13:45.448,-1.1182934578581591,4922.0,-2.2885214790684545,4963.0,287.66,29.72,5.8,99,12.2,22.787,121.3125
24757.0,3642.0,6615.0,-0.9607329,-0.9339672308393732,23.463,120.5529,211.0,CHY010,2016,1,19,2,13,26.83,3,107.95,3.3,10.82,9.14,120.0,D0001900.SMT, SMTA,20160100000000.0,314,y,46.02000046,2016-01-19 02:13:45.562,-0.9339672308393732,12177.0,-2.103984713148472,12465.0,816.86,29.72,5.8,99,12.2,22.787,121.3125
24757.0,3644.0,6866.0,-0.8644413,-0.9311345776762252,23.2224,120.4002,130.0,CHY018,2016,1,19,2,13,26.83,3,105.2,3.44,11.04,5.34,120.0,D7801900.SMT, SMTA,20160100000000.0,297,y,46.41999817,2016-01-19 02:13:45.573,-0.9311345776762252,12506.0,-2.1649868166430504,12448.0,594.65,29.72,5.8,99,12.2,22.787,121.3125
24757.0,3656.0,6991.0,-0.9324861,-1.2317440573278453,22.7858,120.2865,12.0,KAU010,2016,1,19,2,13,26.83,2,105.33,2.82,5.1,5.62,240.0,N3301900.SMT, SMTA,20160100000000.0,270,y,47.36999893,2016-01-19 02:13:45.633,-1.2317440573278453,12809.0,-2.129908755223746,12864.0,236.89,29.72,5.8,99,12.2,22.787,121.3125
24757.0,3668.0,7367.0,-0.76453304,-0.957744964023462,23.0753,120.3641,55.0,CHY089,2016,1,19,2,13,26.83,3,102.38,3.22,9.26,9.06,120.0,C1701900.SMT, SMTA,20160100000000.0,288,y,46.47499847,2016-01-19 02:13:45.691,-0.957744964023462,12994.0,-2.144492690631993,13037.0,396.2,29.72,5.8,99,12.2,22.787,121.3125
24757.0,3671.0,7152.0,-0.9805701,-1.2315863134747156,22.644,120.3187,12.0,KAU088,2016,1,19,2,13,26.83,2,103.3,3.02,5.94,5.18,37.0,T306001.019 , A900,20160100000000.0,261,y,3.289999962,2016-01-19 02:13:45.714,-1.2315863134747156,4139.0,-2.252846319780548,5520.0,228.7,29.72,5.8,99,12.2,22.787,121.3125
24757.0,3680.0,7552.0,-0.7097699,-1.1464971922642408,23.1196,120.3613,28.0,CHY131,2016,1,19,2,13,26.83,2,104.22,3.56,6.88,5.0,51.0,16701900.CVA, CVA ,20160100000000.0,291,y,2.825000048,2016-01-19 02:13:45.756,-1.1464971922642408,4437.0,-2.2441785454161622,4475.0,457.69,29.72,5.8,99,12.2,22.787,121.3125
24757.0,3689.0,7208.0,-0.8792532,-0.9474233764057132,23.5972,120.6769,799.0,CHY080,2016,1,19,2,13,26.83,3,110.82,3.82,8.88,11.2,120.0,G7001900.SMT, SMTA,20160100000000.0,324,y,45.91500092,2016-01-19 02:13:45.799,-0.9474233764057132,12702.0,-2.06564037285668,12269.0,499.17,29.72,5.8,99,12.2,22.787,121.3125
24757.0,3690.0,6931.0,-0.78749686,-0.6301253163015142,23.3445,120.438,44.0,CHY088,2016,1,19,2,13,26.83,3,108.81,10.24,18.84,20.36,180.0,15501900.MNS, NANO,20160100000000.0,305,y,59.22499847,2016-01-19 02:13:45.804,-0.6301253163015142,15086.0,-1.650738696535459,15139.0,329.54,29.72,5.8,99,12.2,22.787,121.3125
24757.0,3692.0,7363.0,-1.1330981,-1.1328526604185691,22.5896,120.3255,5.0,KAU006,2016,1,19,2,13,26.83,2,103.73,3.36,4.5,7.36,39.0,T508001.019 , A900,20160100000000.0,258,y,4.090000153,2016-01-19 02:13:45.819,-1.1328526604185691,4489.0,-2.135843687441729,4528.0,218.97,29.72,5.8,99,12.2,22.787,121.3125
24757.0,3705.0,6977.0,-0.9560638,-0.93552056428494,23.4592,120.5237,134.0,CHY132,2016,1,19,2,13,26.83,3,109.85,5.7,8.88,11.54,52.0,17001900.CVA, CVA ,20160100000000.0,313,y,5.289999962,2016-01-19 02:13:45.882,-0.93552056428494,4330.0,-2.0266278087560523,4374.0,513.29,29.72,5.8,99,12.2,22.787,121.3125
24757.0,3706.0,6975.0,-0.8907258,-1.2443179967028797,22.8675,120.2643,23.0,KAU009,2016,1,19,2,13,26.83,2,107.95,5.1,3.18,5.26,179.9,11901900.MNS, NANO,20160100000000.0,275,y,58.83499908,2016-01-19 02:13:45.883,-1.2443179967028797,15036.0,-2.2974944068450425,15190.0,270.54,29.72,5.8,99,12.2,22.787,121.3125
24757.0,3720.0,7238.0,-1.0456401,-1.2661545769057845,22.6387,120.2999,9.0,KAU061,2016,1,19,2,13,26.83,2,105.31,3.4,4.18,5.32,240.0,N2101900.SMT, SMTA,20160100000000.0,261,y,47.55500031,2016-01-19 02:13:45.952,-1.2661545769057845,13029.0,-2.258790765850554,12953.0,214.35,29.72,5.8,99,12.2,22.787,121.3125
24757.0,3725.0,7231.0,-1.0196012,-1.1332799350669809,22.5662,120.3157,1.0,KAU045,2016,1,19,2,13,26.83,2,105.3,2.6,6.42,6.52,120.0,E0201900.SMT, SMTA,20160100000000.0,257,y,47.56000137,2016-01-19 02:13:45.976,-1.1332799350669809,13018.0,-2.08442384426412,13341.0,145.22,29.72,5.8,99,12.2,22.787,121.3125
24757.0,3727.0,7358.0,-0.88199407,-1.0520080130480869,22.7834,120.2482,10.0,KAU064,2016,1,19,2,13,26.83,2,109.27,3.2,5.25,7.93,184.6,43001900.MNS, NANO,20160100000000.0,270,y,58.89500046,2016-01-19 02:13:45.986,-1.0520080130480869,15410.0,-2.016969423452076,15452.0,242.46,29.72,5.8,99,12.2,22.787,121.3125
24757.0,3782.0,7506.0,-0.7971999,-0.4821134447884974,23.6345,120.7193,1557.0,CHY136,2016,1,19,2,13,26.83,4,111.76,10.46,23.1,30.34,300.0,M0201900.SMT, SMTA,20160100000000.0,327,y,106.2699966,2016-01-19 02:13:46.260,-0.4821134447884974,24978.0,-1.638171914111415,24981.0,346.4,29.72,5.8,99,12.2,22.787,121.3125
24757.0,3784.0,7057.0,-0.69559324,-0.6208554830355827,23.2945,120.3867,29.0,CHY128,2016,1,19,2,13,26.83,3,110.27,5.02,14.58,22.08,60.0,15301900.CVA, CVA ,20160100000000.0,301,y,3.684999943,2016-01-19 02:13:46.277,-0.6208554830355827,4010.0,-1.7908355653402712,4005.0,253.85,29.72,5.8,99,12.2,22.787,121.3125
24757.0,3787.0,8378.0,-0.7211573,-0.7954402976022601,23.3526,120.4138,39.0,CHY015,2016,1,19,2,13,26.83,3,111.36,4.16,12.28,15.88,120.0,C8501900.SMT, SMTA,20160100000000.0,304,y,46.75,2016-01-19 02:13:46.290,-0.7954402976022601,13941.0,-1.7767226945684895,13988.0,224.73,29.72,5.8,99,12.2,22.787,121.3125
24757.0,3790.0,7891.0,-0.7373182,-1.1507658187508805,23.1714,120.3271,20.0,CHY058,2016,1,19,2,13,26.83,2,109.62,2.5,6.42,4.56,45.0,16401900.CVA, CVA ,20160100000000.0,293,y,2.690000057,2016-01-19 02:13:46.305,-1.1507658187508805,4639.0,-2.136669625401656,3764.0,271.13,29.72,5.8,99,12.2,22.787,121.3125
24757.0,3792.0,7396.0,-0.74364716,-0.9157296064990034,23.2256,120.3503,31.0,CHY100,2016,1,19,2,13,26.83,3,109.94,3.72,11.36,7.54,120.0,D1901900.SMT, SMTA,20160100000000.0,296,y,46.75,2016-01-19 02:13:46.311,-0.9157296064990034,12954.0,-2.008408383803684,12962.0,344.25,29.72,5.8,99,12.2,22.787,121.3125
24757.0,3848.0,7160.0,-0.74995023,-0.8869272111899263,23.2864,120.3637,20.0,CHY053,2016,1,19,2,13,26.83,3,111.86,2.58,11.6,8.7,207.0,38601900.MNS, NANO,20160100000000.0,300,y,44.90999985,2016-01-19 02:13:46.591,-0.8869272111899263,12294.0,-1.935814000302128,12273.0,272.67,29.72,5.8,99,12.2,22.787,121.3125
24757.0,3865.0,8347.0,-1.0260421,-1.2489150226267522,22.9813,120.2407,31.0,CHY096,2016,1,19,2,13,26.83,2,112.05,3.04,5.73,3.6,179.9,33201900.MNS, NANO,20160100000000.0,281,y,53.92499924,2016-01-19 02:13:46.677,-1.2489150226267522,15267.0,-2.397286022454001,18565.0,423.01,29.72,5.8,99,12.2,22.787,121.3125
24757.0,3922.0,7754.0,-0.9810461,-1.0859973712538662,23.4753,120.4713,82.0,CHY046,2016,1,19,2,13,26.83,2,115.03,4.18,7.42,7.72,51.0,18201900.CVA, CVA ,20160100000000.0,312,y,3.565000057,2016-01-19 02:13:46.965,-1.0859973712538662,4545.0,-2.020867917604735,3895.0,446.46,29.72,5.8,99,12.2,22.787,121.3125
24757.0,3927.0,7437.0,-1.0033418,-1.046880572377837,23.4722,120.4674,49.0,CHY119,2016,1,19,2,13,26.83,3,115.09,3.96,6.58,8.92,196.1,38101900.MNS, NANO,20160100000000.0,311,y,45.54999924,2016-01-19 02:13:46.987,-1.046880572377837,12620.0,-2.029953177708131,12279.0,498.38,29.72,5.8,99,12.2,22.787,121.3125
24757.0,3940.0,8602.0,-0.9422238,-1.107524666066395,23.5796,120.5601,173.0,CHY006,2016,1,19,2,13,26.83,2,116.76,5.32,7.4,4.5,120.0,D9501900.SMT, SMTA,20160100000000.0,319,y,47.41999817,2016-01-19 02:13:47.054,-1.107524666066395,14146.0,-2.027137874456657,12915.0,422.68,29.72,5.8,99,12.2,22.787,121.3125
24757.0,3950.0,7534.0,-0.78256476,-0.8604867978066101,23.3057,120.3175,21.0,CHY054,2016,1,19,2,13,26.83,3,117.02,3.7,12.1,11.12,59.0,15501900.CVA, CVA ,20160100000000.0,299,y,3.630000114,2016-01-19 02:13:47.109,-0.8604867978066101,4310.0,-1.8372735815540764,4043.0,175.11,29.72,5.8,99,12.2,22.787,121.3125
24757.0,3951.0,7271.0,-0.89871967,-0.9740640489622816,22.9732,120.1897,7.0,CHY069,2016,1,19,2,13,26.83,3,117.01,4.46,8.5,7.28,48.0,15901900.CVA, CVA ,20160100000000.0,280,y,3.345000029,2016-01-19 02:13:47.111,-0.9740640489622816,3989.0,-2.1782942873993867,3995.0,219.98,29.72,5.8,99,12.2,22.787,121.3125
24757.0,3960.0,7268.0,-0.95756155,-1.1269744931172143,23.6308,120.6157,309.0,CHY028,2016,1,19,2,13,26.83,2,117.55,3.38,6.4,6.3,48.0,16601900.CVA, CVA ,20160100000000.0,323,y,3.890000105,2016-01-19 02:13:47.156,-1.1269744931172143,4086.0,-2.0715258775895764,4122.0,546.91,29.72,5.8,99,12.2,22.787,121.3125
24757.0,3964.0,7682.0,-0.8609535,-1.1578222581066604,22.9975,120.1922,10.0,CHY067,2016,1,19,2,13,26.83,2,117.25,2.82,4.98,7.3,120.0,C8201900.SMT, SMTA,20160100000000.0,281,y,48.83499908,2016-01-19 02:13:47.173,-1.1578222581066604,13485.0,-2.2721032508286405,15228.0,229.04,29.72,5.8,99,12.2,22.787,121.3125
24757.0,3973.0,7319.0,-0.773394,-0.9145312563190824,23.3655,120.3663,24.0,CHY049,2016,1,19,2,13,26.83,3,116.16,2.66,10.96,10.1,65.0,15001900.DBL, CVA ,20160100000000.0,303,y,3.470000029,2016-01-19 02:13:47.222,-0.9145312563190824,4040.0,-1.8049094579477671,3960.0,224.82,29.72,5.8,99,12.2,22.787,121.3125
24757.0,3981.0,7611.0,-0.8454552,-0.9197945121021656,23.2977,120.2992,15.0,CHY107,2016,1,19,2,13,26.83,3,118.24,3.76,10.98,9.48,199.2,34601900.MNS, NANO,20160100000000.0,299,y,43.72499847,2016-01-19 02:13:47.257,-0.9197945121021656,12375.0,-1.833366344035676,12109.0,181.05,29.72,5.8,99,12.2,22.787,121.3125
24757.0,3990.0,7443.0,-0.83381194,-1.018158746352392,23.2687,120.2768,13.0,CHY055,2016,1,19,2,13,26.83,2,118.79,2.62,7.68,7.86,199.5,38901900.MNS, NANO,20160100000000.0,297,y,44.02500153,2016-01-19 02:13:47.305,-1.018158746352392,12258.0,-1.958423223899697,12166.0,221.45,29.72,5.8,99,12.2,22.787,121.3125
24757.0,3997.0,7160.0,-0.8184586,-0.978593800608044,23.4363,120.4147,32.0,CHY106,2016,1,19,2,13,26.83,3,116.73,3.18,10.28,7.02,182.4,30801900.MNS, NANO,20160100000000.0,308,y,58.74000168,2016-01-19 02:13:47.340,-0.978593800608044,14911.0,-1.7862380683449808,14956.0,227.63,29.72,5.8,99,12.2,22.787,121.3125
24757.0,4005.0,7148.0,-0.94631684,-0.7929481851832685,23.4707,120.4453,34.0,CHY048,2016,1,19,2,13,26.83,3,116.7,5.28,13.86,12.38,221.9,31801900.MNS, NANO,20160100000000.0,310,y,58.70500183,2016-01-19 02:13:47.376,-0.7929481851832685,14884.0,-1.835810478535332,14948.0,248.65,29.72,5.8,99,12.2,22.787,121.3125
24757.0,4005.0,7524.0,-0.94699466,-1.0578464695830496,22.9922,120.1666,13.0,CHY125,2016,1,19,2,13,26.83,2,119.71,3.22,7.8,6.56,45.0,05001900.CVA, CVA ,20160100000000.0,281,y,1.784999967,2016-01-19 02:13:47.382,-1.0578464695830496,3876.0,-2.185341231790645,3915.0,271.64,29.72,5.8,99,12.2,22.787,121.3125
24757.0,4009.0,7724.0,-0.82214254,-0.9694853085139882,23.0006,120.1661,8.0,CHY098,2016,1,19,2,13,26.83,3,119.95,5.22,9.38,10.46,196.7,33701900.MNS, NANO,20160100000000.0,281,y,43.81499863,2016-01-19 02:13:47.399,-0.9694853085139882,12478.0,-2.1523272003837928,12311.0,229.21,29.72,5.8,99,12.2,22.787,121.3125
24757.0,4024.0,7120.0,-0.7735328,-0.7590619845691655,23.4936,120.4553,42.0,CHY047,2016,1,19,2,13,26.83,3,117.59,4.9,12.96,14.22,215.6,32801900.MNS, NANO,20160100000000.0,312,y,59.00999832,2016-01-19 02:13:47.473,-0.7590619845691655,14898.0,-1.7711561979950723,15003.0,183.52,29.72,5.8,99,12.2,22.787,121.3125
24757.0,4045.0,7242.0,-0.83164966,-0.6956859050054574,23.4727,120.4164,32.0,CHY009,2016,1,19,2,13,26.83,3,119.11,4.18,16.14,15.02,182.9,37301900.MNS, NANO,20160100000000.0,310,y,59.15999985,2016-01-19 02:13:47.579,-0.6956859050054574,15029.0,-1.6523313838157452,15081.0,226.11,29.72,5.8,99,12.2,22.787,121.3125
24757.0,4061.0,7801.0,-0.9130769,-1.0228586577114145,23.5319,120.4744,102.0,CHY133,2016,1,19,2,13,26.83,3,119.03,4.18,9.16,8.26,120.0,D5801900.SMT, SMTA,20160100000000.0,314,y,47.88000107,2016-01-19 02:13:47.658,-1.0228586577114145,13316.0,-1.796126415261869,12873.0,499.63,29.72,5.8,99,12.2,22.787,121.3125
24757.0,4096.0,7282.0,-0.83386946,-0.7041445198899544,23.4963,120.4325,31.0,CHY073,2016,1,19,2,13,26.83,3,119.54,3.3,16.16,11.36,120.0,D3801900.SMT, SMTA,20160100000000.0,311,y,48.26499939,2016-01-19 02:13:47.831,-0.7041445198899544,12839.0,-1.8018492651161848,12922.0,201.48,29.72,5.8,99,12.2,22.787,121.3125
24757.0,4142.0,7541.0,-0.8977034,-0.8106771218883544,23.5546,120.4292,30.0,CHY037,2016,1,19,2,13,26.83,3,124.11,9.74,10.9,11.52,53.0,18001900.CVA, CVA ,20160100000000.0,313,y,2.875,2016-01-19 02:13:48.066,-0.8106771218883544,3974.0,-1.905899332513901,3923.0,208.78,29.72,5.8,99,12.2,22.787,121.3125
24757.0,4165.0,7632.0,-0.7707483,-0.9285800348486228,23.4559,120.3306,18.0,CHY095,2016,1,19,2,13,26.83,3,124.9,5.46,9.1,8.52,120.0,D1801900.SMT, SMTA,20160100000000.0,306,y,49.06999969,2016-01-19 02:13:48.179,-0.9285800348486228,13281.0,-1.8588499539049,13183.0,216.36,29.72,5.8,99,12.2,22.787,121.3125
24757.0,4205.0,8610.0,-1.083214,-1.200661807196972,23.6844,120.5703,80.0,CHY101,2016,1,19,2,13,26.83,2,125.09,2.98,6.48,4.88,120.0,C0101900.SMT, SMTA,20160100000000.0,323,y,48.93000031,2016-01-19 02:13:48.380,-1.200661807196972,14191.0,-2.104393721517749,14325.0,252.37,29.72,5.8,99,12.2,22.787,121.3125
24757.0,4213.0,7750.0,-0.7772289,-0.920933127487192,23.5193,120.3512,18.0,CHY039,2016,1,19,2,13,26.83,3,127.54,3.2,9.54,10.46,54.0,17701900.CVA, CVA ,20160100000000.0,309,y,3.25,2016-01-19 02:13:48.421,-0.920933127487192,4187.0,-1.9683891704725809,4096.0,195.15,29.72,5.8,99,12.2,22.787,121.3125
24757.0,4223.0,7802.0,-0.8400541,-0.9500248530898412,23.642,120.4838,43.0,CHY030,2016,1,19,2,13,26.83,3,127.11,2.6,11.12,6.9,57.0,17801900.CVA, CVA ,20160100000000.0,318,y,2.154999971,2016-01-19 02:13:48.471,-0.9500248530898412,4010.0,-1.8207811620019465,3935.0,207.88,29.72,5.8,99,12.2,22.787,121.3125
24757.0,4244.0,7889.0,-1.0510832,-1.357916642590653,23.7634,120.6862,154.0,TCU126,2016,1,19,2,13,26.83,2,125.68,3.22,3.9,3.92,180.3,24601900.MNS, NANO,20160100000000.0,329,y,59.31000137,2016-01-19 02:13:48.574,-1.357916642590653,15507.0,-2.259317218403107,15133.0,469.08,29.72,5.8,99,12.2,22.787,121.3125
24757.0,4248.0,7859.0,-0.86495245,-1.0771358009929537,23.457,120.2939,17.0,CHY120,2016,1,19,2,13,26.83,3,128.02,3.94,8.0,6.92,197.4,35301900.MNS, NANO,20160100000000.0,305,y,43.15999985,2016-01-19 02:13:48.592,-1.0771358009929537,12243.0,-1.957014327869918,12112.0,220.13,29.72,5.8,99,12.2,22.787,121.3125
24757.0,4265.0,8744.0,-1.0296539,-1.1742669471549776,23.7222,120.5858,69.0,CHY083,2016,1,19,2,13,26.83,2,127.49,2.72,5.26,6.64,120.0,C0001900.SMT, SMTA,20160100000000.0,324,y,49.84000015,2016-01-19 02:13:48.679,-1.1742669471549776,14447.0,-2.1929449235604936,13267.0,374.02,29.72,5.8,99,12.2,22.787,121.3125
24757.0,4277.0,7781.0,-0.8364467,-0.7829603571454985,23.5547,120.3453,16.0,CHY105,2016,1,19,2,13,26.83,3,130.5,4.28,11.76,16.78,199.5,34101900.MNS, NANO,20160100000000.0,311,y,43.38999939,2016-01-19 02:13:48.736,-0.7829603571454985,12182.0,-1.988904468270517,12402.0,204.36,29.72,5.8,99,12.2,22.787,121.3125
24757.0,4287.0,7817.0,-0.9564182,-1.0944316964963263,23.6988,120.5305,47.0,CHY126,2016,1,19,2,13,26.83,2,128.82,2.92,5.96,6.42,45.0,04701900.CVA, CVA ,20160100000000.0,322,y,1.605000019,2016-01-19 02:13:48.791,-1.0944316964963263,3851.0,-2.122902800481093,3782.0,332.46,29.72,5.8,99,12.2,22.787,121.3125
24757.0,4299.0,7992.0,-1.0308647,-1.303379892555757,23.7553,120.6156,101.0,CHY024,2016,1,19,2,13,26.83,2,128.77,3.02,3.86,4.98,180.4,14301900.MNS, NANO,20160100000000.0,326,y,58.88999939,2016-01-19 02:13:48.848,-1.303379892555757,15471.0,-2.3542629241209143,15254.0,408.5,29.72,5.8,99,12.2,22.787,121.3125
24757.0,4317.0,8007.0,-0.8643248,-1.243725510547585,23.4836,120.2776,11.0,CHY008,2016,1,19,2,13,26.83,2,131.09,3.32,5.2,5.12,120.0,C9701900.SMT, SMTA,20160100000000.0,306,y,49.31000137,2016-01-19 02:13:48.939,-1.243725510547585,13552.0,-2.1270281239707907,13645.0,209.5,29.72,5.8,99,12.2,22.787,121.3125
24757.0,4414.0,9335.0,-0.9580975,-1.3440821790664754,23.7268,120.464,32.0,CHY084,2016,1,19,2,13,26.83,2,135.53,4.04,5.26,5.44,180.4,30201900.MNS, NANO,20160100000000.0,320,y,56.23500061,2016-01-19 02:13:49.422,-1.3440821790664754,16168.0,-2.1780375927711435,16228.0,259.07,29.72,5.8,99,12.2,22.787,121.3125
24757.0,4450.0,9516.0,-1.0580024,-1.2653952303184344,23.7168,120.4201,27.0,CHY002,2016,1,19,2,13,26.83,2,137.65,2.58,4.74,3.8,199.9,14901900.MNS, NANO,20160100000000.0,318,y,41.79499817,2016-01-19 02:13:49.603,-1.2653952303184344,13425.0,-2.0316096711373914,13625.0,229.62,29.72,5.8,99,12.2,22.787,121.3125
24757.0,4527.0,8171.0,-1.1198568,-1.358481776926614,23.8764,120.6926,113.0,TCU166,2016,1,19,2,13,26.83,2,136.27,3.84,4.44,2.6,120.0,B8201900.SMT, SMTA,20160100000000.0,332,y,50.31499863,2016-01-19 02:13:49.989,-1.358481776926614,13707.0,-2.4946807320453943,13750.0,480.39,29.72,5.8,99,12.2,22.787,121.3125
24757.0,4529.0,8170.0,-1.0687797,-1.3262059336219278,23.8766,120.6925,113.0,TCU129,2016,1,19,2,13,26.83,2,136.3,4.3,4.88,2.9,120.0,C4501900.SMT, SMTA,20160100000000.0,332,y,50.33499908,2016-01-19 02:13:49.999,-1.3262059336219278,13708.0,-2.4883814814285112,13750.0,506.46,29.72,5.8,99,12.2,22.787,121.3125
